name,type,address,phone,latitude,longitude,city,region_category,source
Aran 690 Biləsuvar,PHARMACY,"Biləsuvar şəh., H.Əliyev pr., 40E",+994252950297,39.45453009,48.54693637,Biləsuvar,Region,Pasha Insurance
Buta Əhmədli 62,PHARMACY,"Bakı şəh., Xətai ray., Nəsrəddin Tusi küç., 29",+994552057791,40.36712662,49.96228241,Bakı,Bakı,Pasha Insurance
Nəsir 500 Aptek,PHARMACY,"Bakı şəh., Nərimanov ray., A.Məmmədov küç., 30",+994554558143,40.39410832,49.88123968,Bakı,Bakı,Pasha Insurance
Oskar,PHARMACY,"Bakı şəh., Binaqədi ray., Mir Cəlal küç., 72",+994554558574,40.42100284,49.81487989,Bakı,Bakı,Pasha Insurance
Dokta 1085 Xaçmaz,PHARMACY,"Xaçmaz şəh., N.Nərimanov küç.",+994557271570,41.46183316,48.79955428,Bakı,Bakı,Pasha Insurance
Aloe Bravo Yeni Günəşli,PHARMACY,"Bakı şəh., Suraxanı ray., Yeni Günəşli qəs, İlqar Musayev küç.",+994552043366,40.3870383,49.97542582,Bakı,Bakı,Pasha Insurance
Dokta 1029 Lənkəran,PHARMACY,"Lənkəran şəh., Nizami küç., 87",+994506272423,38.75874391,48.8377192,Bakı,Bakı,Pasha Insurance
Kanon AS Gəncə,PHARMACY,"Gəncə şəh., 4-cü mkr, M.Xələfov küç., 18 A",+994554559068,40.69642667,46.38263353,Gəncə,Region,Pasha Insurance
Dokta 301 OKİ Qusar,PHARMACY,"Qusarı şəh., F.Musayev küç., 27",+994507239802,41.42579152,48.43100386,Qusar,Region,Pasha Insurance
Buta FHN,PHARMACY,"Bakı şəh., Binəqədi ray., 9-cu mkr, A.Məmmədov küç., 34",+994552136766,40.420311,49.808555,Bakı,Bakı,Pasha Insurance
Aloe Bravo Sumqayıt,PHARMACY,"Sumqayıt şəh., Ü.Hacıbəyov küç., 2",+994992044405,40.57360597,49.69117393,Sumqayıt,Region,Pasha Insurance
Aloe Bravo Oazis,PHARMACY,"Bakı şəh., Binəqədi ray., Ş.Məmmədova küç., ev 2",+994552043388,40.41971509,49.84704915,Bakı,Bakı,Pasha Insurance
Zeytun metro Elmlər Akademiyası,PHARMACY,"Bakı şəh., Yasamal ray., H.Cavid pr. (metronun içi- Elmlər Akamediyası tərəfindən əsas girişi)",+994502731191,40.375185,49.815446,Bakı,Bakı,Pasha Insurance
Ferromed,PHARMACY,"Bakı şəh., Nizami ray., Q.Qarayev pros., ev 26",+994554558597,40.41764896,49.9320668,Bakı,Bakı,Pasha Insurance
NAR,PHARMACY,"Bakı şəh., Nərimanov ray., A.Nemətulla küç., 63",+994554555832,40.40766434,49.86792345,Bakı,Bakı,Pasha Insurance
Kanon Masallı 1,PHARMACY,"Masallı şəh., 20 Yanvar küç.",+994212555505,38.75478726,48.85219478,Masallı,Region,Pasha Insurance
Buta 20-ci sahə,PHARMACY,"Bakı şəh., Səbail ray., Salyan dön., 2a",+994552058100,40.33000078,49.8192056,Bakı,Bakı,Pasha Insurance
İmmuno 740 İmişli,PHARMACY,"İmişli şəh., H.Əliyev pr., 164 A",+994554559057,39.86988,48.060489,İmişli,Region,Pasha Insurance
Kanon Stimol Sumqayıt,PHARMACY,"Sumqayıt şəh., 2-ci  mkr, Sülh küç.",+994554558563,40.58688929,49.67082161,Sumqayıt,Region,Pasha Insurance
Zeytun metro Koroğlu,PHARMACY,"Bakı şəh., Nizami ray., H.Əliyev pr.",+994512501929,40.42095829,49.9183988,Bakı,Bakı,Pasha Insurance
Aloe Lermontov,PHARMACY,"Bakı şəh., Səbail ray., Lermontov küç., 121",+994992044408,40.36616964,49.8302428,Bakı,Bakı,Pasha Insurance
Buta 273 Xalqalar Dostluğu,PHARMACY,"Bakı şəh., Nizami ray., Q.Qarayev pr., 119",+994554678713,40.39756401,49.95300071,Bakı,Bakı,Pasha Insurance
Aloe Ağa Nemətulla,PHARMACY,"Nərimanov ray., Aga Neymətulla küç., ev 50 (Nəriman Nərimanov metrosunun yaxınlığı)",+994555153558,40.40373884,49.87158988,Bakı,Bakı,Pasha Insurance
Aloe Bravo Bakıxanov,PHARMACY,"Bakı şəh., Sabunçu ray., R.Qəmbərov küç., məh. 2566",+994552043355,40.41243111,49.95523007,Bakı,Bakı,Pasha Insurance
Dokta 639 Şamaxı,PHARMACY,"Şamaxı şəh., N.Nərimanov küç., 68",+994554050166,40.63970044,48.63895413,Bakı,Bakı,Pasha Insurance
Kanon Xəmsə Mingəçevir,PHARMACY,"Mingəçevir şəh., H.Əliyev pr., 51Q",+994554558547,40.76811785,47.05611909,Mingəçevir,Region,Pasha Insurance
Dokta 540 Zaqatala,PHARMACY,"Zaqatala şəh., Vidadi küç., 15",+994552261495,41.63318308,46.64317001,Zaqatala,Region,Pasha Insurance
Aloe Araz Xalqlar,PHARMACY,"Bakı şəh., Nizami ray., B.Nuriyev küç., 32",+994992044403,40.40113233,49.95633588,Bakı,Bakı,Pasha Insurance
SUNTERRA,PHARMACY,"Bakı şəh., Xətai ray., Sarayevo küç., ev 18",+994554558717,40.38628416,49.9588971,Bakı,Bakı,Pasha Insurance
Medical City,PHARMACY,"Bakı şəh., Nəsimi ray., Füzuli küç.,49",+994705942505,40.3772141,49.8367291,Bakı,Bakı,Pasha Insurance
Vita Sabunçu 14,PHARMACY,"Bakı şəh., Sabunçu ray., Ə.Məmədəliyev küç. 7",+994552247997,40.44485192,49.94401368,Bakı,Bakı,Pasha Insurance
Zeytun metro Gənclik 1,PHARMACY,"Bakı şəh., Nərimanov ray., F.X. Xoyski pr. (metronun içi- Gənclik-mall çıxışı)",+994502731195,40.400853,49.85253,Bakı,Bakı,Pasha Insurance
Aloe Bakıxanov,PHARMACY,"Bakı şəh., Bakıxanov qəs., M.Fətəliyev küç., 35",+994992044407,40.41251016,49.95616337,Bakı,Bakı,Pasha Insurance
Kanon Mərkəz Gəncə,PHARMACY,"Gəncə şəh., Ə.Məmmədov küç., 47",+994554558104,40.66606615,46.35292341,Gəncə,Region,Pasha Insurance
Vita Pirşagı 104,PHARMACY,"Sabunçu ray., Pirşagı qəs., Əjdər Məlikov 34 (Anar marketlə üzbəüz Məscidin yanında)",+994125515419,40.55770766,49.88807668,Bakı,Bakı,Pasha Insurance
Zeytun metro 28 May,PHARMACY,"Bakı şəh., Nəsimi ray., Puşkin küç.",+994502735410,40.37971543,49.84893561,Bakı,Bakı,Pasha Insurance
Aloe KFC,PHARMACY,"Bakı şəh., Yasamal ray., М. Şərifzadə küç.,125 A",+994992044413,40.38912263,49.80289939,Bakı,Bakı,Pasha Insurance
Kanon Lənkəran,PHARMACY,"Lənkəran şəh., H.Aslanov küç., (Xiyabanın yanı)",+994554558569,38.75478404,48.85219382,Lənkəran,Region,Pasha Insurance
Aloe Buzovna,PHARMACY,"Bakı şəh., Buzovna qəs., R. İmanov küç., 24",+994992044412,40.52760395,50.09816446,Bakı,Bakı,Pasha Insurance
Aloe Gənclik Mall,PHARMACY,"Bakı şəh., Nərimanov ray., F.X. Xoyski pr.,14",+994552043399,40.39995706,49.85303703,Bakı,Bakı,Pasha Insurance
100 Aptek,PHARMACY,"Bakı şəh ,Nizami ray., Q.Qarayev pr., 74H",+994555054867,40.40953047,49.94333401,Bakı,Bakı,Pasha Insurance
Zeytun 313 Primorsk,PHARMACY,"Bakı şəh., Qaradağ ray.,Sahil qəs., E.Quliyev küç., 50",+994773761010,40.22507658,49.58006988,Bakı,Bakı,Pasha Insurance
BUTA Xətai,PHARMACY,"Bakı şəh., Xətai ray., Xocalı pr., 29",+994124892602,40.38299002,49.87009688,Bakı,Bakı,Pasha Insurance
Kanon Qöncə 160 Gəncə,PHARMACY,"Gəncə şəh., Kəpəz ray., Ş.İ.Xətai pr. ilə Atatürk pr. kəsişməsi",+994554558549,40.6976943,46.36121124,Bakı,Bakı,Pasha Insurance
Zəfəran Mərdakən,PHARMACY,"Bakı şəh., Xəzər ray., Mərdəkan qəs., S.Yesenin küç., 614",+994554559078,40.4869905,50.16462307,Bakı,Bakı,Pasha Insurance
Səma Aptek,PHARMACY,"Bakı şəh., Binəqədi ray., 8-ci mkr., Ş.Məmmədova küç., ev 6E",+994554558546,40.42160361,49.84642317,Bakı,Bakı,Pasha Insurance
Dokta 842 Mingəçevir,PHARMACY,"Mingəçevir şəh., A.Məmmədov küç., 4A",+994555078597,40.7544244,47.06441331,Mingəçevir,Region,Pasha Insurance
Zəfəran Şirvan,PHARMACY,"Şirvan şəh., N.Nərimanov pr., 2A",+994554558747,39.9520136,48.9391757,Bakı,Bakı,Pasha Insurance
Lutemax,PHARMACY,"Bakı şəh., Yasamal ray., Şərifzadə küç., 100",+994554558538,40.38390982,49.80393363,Bakı,Bakı,Pasha Insurance
Aptek Buta-50 Lökbatan,PHARMACY,"Bakı şəh., Qaradağ ray., Lökbatan qəs., İntiqam Nəbiyev küç., 33",+994552041252,40.32473729,49.74111363,Bakı,Bakı,Pasha Insurance
Darçın Lider TV,PHARMACY,"Bakı şəh., Yasamal ray., A.Abbasov küç., 22",+994992078809,40.38602347,49.81525802,Bakı,Bakı,Pasha Insurance
Kanon Qazax-1,PHARMACY,"Qazax şəh., H.Əliyev pr., 114 A",+994554558168,41.09269255,45.36619124,Qazax,Region,Pasha Insurance
Zəfaran 535 Şəki,PHARMACY,"Şəki şəh., M.Rəzulzadə pr.,711",+994554558963,41.19718646,47.17536542,Şəki,Region,Pasha Insurance
Vita Binə 60,PHARMACY,"Bakı şah., Xəzər ray., Binə qəs., Ə.İsazadə küç.
(BazarStore-un yanı)",+994125561739,40.45050458,50.08781063,Bakı,Bakı,Pasha Insurance
Darçın M.Müşfiq,PHARMACY,"Bakı şəh., Yasamal ray., M.Müşfiq küç., 10",+994992078802,40.36524077,49.81985767,Bakı,Bakı,Pasha Insurance
5+ Aptek,PHARMACY,"Bakı şəh., Yasamal ray., Ş.Qurbanov küç., 2/5",+994555152729,40.37641158,49.83233578,Bakı,Bakı,Pasha Insurance
Pharma Store Olimp,PHARMACY,"Bakı şəh., Yasamal ray.,Ə.Ələkbərov küç.,5",+994502517888,40.37981471,49.81913775,Bakı,Bakı,Pasha Insurance
Darçın Neftçilər xəstəxanası,PHARMACY,"Bakı şəh., Nizami ray., H.Salmani küç., 1/1",+994992078860,40.380924,49.862648,Bakı,Bakı,Pasha Insurance
Dokta-804 Sumqayıt,PHARMACY,"Sumqayıt şəh., 17-ci mkr, M. Əsədov küç.",+99455 9914797,40.56029551,49.69840037,Sumqayıt,Region,Pasha Insurance
Buta-22 Şamaxinka,PHARMACY,"Bakı şəh. Nəsimi r-nu, Moskva pr., 58A",+994124316293,40.40624813,49.80699462,Bakı,Bakı,Pasha Insurance
Vita Yasamal,PHARMACY,"Bakı şəh., Yasamal ray., Ş. Mehdiyev küç., ev 97",+994125330476,40.39265623,49.81500853,Bakı,Bakı,Pasha Insurance
İMMUN Goranboy,PHARMACY,"Goranboy şəh,H.Əliyev pr., 50",+994702452112,40.60429312,46.78415902,Goranboy,Region,Pasha Insurance
Aloe Azza Street Retail,PHARMACY,"Bakı şəh., Nəsimi ray., R.Behbudov küç., 52",+994552047766,40.37628619,49.84574418,Bakı,Bakı,Pasha Insurance
Pharma Store Koala Park,PHARMACY,"Bakı şəh., Nəsimi ray., Azadlıq pr., 153B",+994512501939,40.39108963,49.84174296,Bakı,Bakı,Pasha Insurance
Zeytun metro N. Nərimanov 1,PHARMACY,"Bakı şəh., Nərimanov ray., Təbriz küç.(metronun içi- Metropark çıxışı)",+994502731197,40.40323658,49.87128845,Bakı,Bakı,Pasha Insurance
Buta-62 Nardaran yolu,PHARMACY,Bakı şəh. Sabunçu ray. Maştağa qəs. Seyid İbadağa küç. Ev 1A,+994124554072,40.53360324,50.00193894,Bakı,Bakı,Pasha Insurance
Buta Gəncə 7450,PHARMACY,Gəncə şəh. Nizami ray. Ə.Mehmandarov küç. (Araz marketin yanı),+994556797365,40.67511304,46.33432752,Bakı,Bakı,Pasha Insurance
Dokta 859 Zaqatala,PHARMACY,"Zaqatala şəh., Zərifə Əliyeva parkı",+994503362704,41.62905741,46.64287606,Zaqatala,Region,Pasha Insurance
Günəbaxan,PHARMACY,"Bakı şəh., Yasamal ray., B.Vahabzadə küç., 5",+994554555638,40.3753653,49.81219317,Bakı,Bakı,Pasha Insurance
Zeytun metro Gənclik 2,PHARMACY,"Bakı şəh., Nərimanov ray., F.X. Xoyski pr. (metronun içi- McDonald's çıxışı)",+994502731194,40.40014,49.850528,Bakı,Bakı,Pasha Insurance
Zeytun metro Qara Qarayev 1,PHARMACY,"Bakı şəh., Nizami ray., Q.Qarayev pr. (metronun içi-Panda Kids çıxışı)",+994502731190,40.41763273,49.93309161,Bakı,Bakı,Pasha Insurance
Zəfəran Primorsk-1,PHARMACY,"Bakı şəh., Qaradağ ray., Sahil qəs., M.Seyidov küç., 24",+994554559093,40.22947879,49.5819599,Bakı,Bakı,Pasha Insurance
Kanon Zəfər Bərdə,PHARMACY,"Bərdə şəh., Ü.Hacıbəyov küç.,12",+994559007525,40.37448313,47.12270731,Bərdə,Region,Pasha Insurance
ROWALUX,PHARMACY,"Bakı şəh., Xətai ray., M.Hadi küç., 65K",+994559510993,40.37404954,49.95400986,Bakı,Bakı,Pasha Insurance
Vita - Hövsan,PHARMACY,"Bakı şəh., Suraxanı ray., Hövsan qəs., Hafiz Quliyev küç., 24 (Hövsan Mall yaxınlığında)",+99412457388,40.36024176,50.07776497,Bakı,Bakı,Pasha Insurance
Darçın BSM,PHARMACY,"Bakı şəh., Nəsimi ray., N.Yusifbeyli küç., 90 a",+994992078817,40.39805333,49.83927907,Bakı,Bakı,Pasha Insurance
Buta 415 Sarayevo,PHARMACY,"Bakı şəh., Xətai ray., Sarayevo küç., 36",+994552065869,40.38660182,49.96280818,Bakı,Bakı,Pasha Insurance
Aloe Əhmədli 2 (Sarayevo),PHARMACY,"Bakı şəh., Xətai ray., Sarayevo küç., 18C",+994992044404,40.38628422,49.95883229,Bakı,Bakı,Pasha Insurance
Zeytun metro Neftçilər 1,PHARMACY,"Bakı şəh., Nizami ray., Q.Qarayev pr. (metronun içi- McDonald's çıxışı)",+994502731193,40.41038209,49.94348399,Bakı,Bakı,Pasha Insurance
Zəfəran Cəlilabad,PHARMACY,"Cəlilabad şəh., Bakı-Astara şosesi",+994252453838,39.22500767,48.51994053,Bakı,Bakı,Pasha Insurance
Aloe Badamdar,PHARMACY,"Səbail ray., Badamdar qəsəbəsi,1-ci yaşayış massivi,Badamdar şossesi 5 (Caspian İnternational Hospital yaxınlığı)",+994992044484,40.34277285,49.81014995,Bakı,Bakı,Pasha Insurance
Zəfəran 20 Yanvar,PHARMACY,"Bakı şəh., Yasamal ray., Zərdabi pr. ilə M.Həsənov küç. kəsişməsi, məh. 3165 (Azərsu ilə üzbəüz)",+994554556951,40.40408904,49.80633186,Bakı,Bakı,Pasha Insurance
Buta Bayıl 2,PHARMACY,"Bakı şəh., Səbail ray., Ə.Yaqubov küç., 6",+994552080086,40.34087697,49.83679582,Bakı,Bakı,Pasha Insurance
Universal Pharma,PHARMACY,"Bakı şəhəri, Yasamal rayonu, İsmayılbəy Qutqaşınlı küçəsi, 50",+994773333030,40.37,49.82,Bakı,Bakı,Pasha Insurance
Vita Əcəmi 1,PHARMACY,"Bakı şəh., M.Cəfərov küç., ev 16",+994555054847,40.40913084,49.81310857,Bakı,Bakı,Pasha Insurance
Aloe Bravo Şəmkir,PHARMACY,"Şəmkir şəh., Bakı-Qazax şossesinin sağ kənarı, 1 (Bravo marketin içində)",+994552137744,40.85358573,46.03088054,Bakı,Bakı,Pasha Insurance
Kaspian 24/7,PHARMACY,"Bakı şəh., Səbail ray., Bülbül pr., 16",+994513330407,40.37185042,49.84493362,Bakı,Bakı,Pasha Insurance
Zəfəran BALZAM,PHARMACY,"Xırdalan şəh., M.Ə.Rəsulzadə küç., B1",+994554558126,40.45337382,49.75049663,Absheron,Bakı,Pasha Insurance
Dokta 597 Bərdə,PHARMACY,"Bərdə şəh., Ü.Hacıbəyov küç., 12",+994515909773,40.37562419,47.11633877,Bərdə,Region,Pasha Insurance
General,PHARMACY,"Bakı şəh., Xətai ray., X.Məmmədov küç., 32A",+994554558107,40.37084383,49.95572082,Bakı,Bakı,Pasha Insurance
British Pharmacy,PHARMACY,"Bakı şəh., Yasamal ray., Tbilisi pr.,147 A",+994125304691,40.40019978,49.810344,Bakı,Bakı,Pasha Insurance
Dokta 875 Fizuli,PHARMACY,"Füzuli şəh., BalaBəhmənli kəndi (yolun üstündə)",+994505799106,39.55703057,47.56206513,Füzuli,Region,Pasha Insurance
Aloe Qala,PHARMACY,"Bakı şəh., Xəzər ray., Qala qəs., Qala küç., 15",+994992044402,40.47500282,50.10980346,Bakı,Bakı,Pasha Insurance
Zeytun 500 Nizami,PHARMACY,"Bakı şəh., Nizami ray., H. Əliyev pr., 119",+994502515149,40.4220677,49.91641047,Bakı,Bakı,Pasha Insurance
Sarğı Aptek,PHARMACY,"Bakı ş., Nəsimi r., Mustafa Topçubaşov 24A",+994993155588,40.39593,49.83515,Bakı,Bakı,Pasha Insurance
Kanon Almaz Xaçmaz,PHARMACY,"Xaçmaz şəh., N.Nərimanov pr., 47",+994554558596,41.46120061,48.79897792,Bakı,Bakı,Pasha Insurance
Pharma Store MUM,PHARMACY,"Bakı şəh., Səbail ray., Azərbaycan pr., 30",+994502517889,40.37321583,49.83301798,Bakı,Bakı,Pasha Insurance
Darçın Binəqədi,PHARMACY,"Bakı şəh., Binəqədi ray., C.Ramazonov küç., ev 2B",+994992078805,40.46766468,49.82819231,Bakı,Bakı,Pasha Insurance
Aloe 28 Mall,PHARMACY,"Bakı şəh., Nəsimi ray., Azadlıq pr., 15a/4",+994552043311,40.37904703,49.84733825,Bakı,Bakı,Pasha Insurance
Darçın Yasamal,PHARMACY,"Bakı şəh., Yasamal ray., Şərifzadə 273",+994992078804,40.38871796,49.80261187,Bakı,Bakı,Pasha Insurance
Kanon Bəyaz Gəncə,PHARMACY,"Gəncə şəh., Kəpəz ray., Ş.İ.Xətai pr. ilə V.Xulufu küç. kəsişməsi",+994554558127,40.69187284,46.38095432,Bakı,Bakı,Pasha Insurance
Qusar Dokta 1022,PHARMACY,"Qusar şəh., Şərifov küç., 6",+994552956646,41.43070042,48.44116804,Qusar,Region,Pasha Insurance
Kanon Əhmədli,PHARMACY,"Bakı şəh., Xətai ray., M.Hadi küç., 41",+994554558578,40.38402235,49.9545842,Bakı,Bakı,Pasha Insurance
Vita Ramana 97,PHARMACY,"Bakı, Sabunçu ray., Ramana qəs., Dadaş Bünyadzadə, Bina 40E",+994124513766,40.44228096,49.9748377,Bakı,Bakı,Pasha Insurance
Kanon Quba 2,PHARMACY,"Quba şəh., H.Əliyev pr.",+994554558850,41.36192395,48.52421812,Quba,Region,Pasha Insurance
Kanon 100 Semaşko,PHARMACY,"Bakı şəh., Nəsimi ray., M.Mirqasımov küç., 2",+994554558539,40.39433047,49.83492203,Bakı,Bakı,Pasha Insurance
BUTA 42 Fresko,PHARMACY,"Bakı şəh., Nəsimi ray., Nizami küç., 129",+994124981592,40.37723732,49.85246135,Bakı,Bakı,Pasha Insurance
Dədəmin,PHARMACY,"Gəncə şəh., M.Abbas Abbaszadə küç., (Kukla Teatrın yaxınlığında)",+994503972424,40.66923861,46.36397042,Gəncə,Region,Pasha Insurance
Buta 405 Quba,PHARMACY,"Quba şəh., H.Əliyev pr., 228A",+994503358981,41.36186405,48.52509945,Quba,Region,Pasha Insurance
Buta 384,PHARMACY,"Şəki şəh., Məmmədəmin Rəsulzadə pros., 864",+994553008197,41.19768401,47.17606916,Şəki,Region,Pasha Insurance
Zəfəran Primorsk-2,PHARMACY,"Bakı şəh., Qaradağ ray., Sahil qəs., Z.Qasımov pr., 24",+994554558167,40.22486278,49.57697337,Bakı,Bakı,Pasha Insurance
Buta116 Metropark,PHARMACY,"Bakı şəh., Nərimanov ray., Təbriz küç., 99",+994558055550,40.40407355,49.87301192,Bakı,Bakı,Pasha Insurance
Zeytun Qəbələ 10,PHARMACY,"Qəbələ şəh., H.Əliyev pr., İ.B.Qutkaşınlı küç., 62A",+994709663659,40.98184872,47.84937004,Qəbələ,Region,Pasha Insurance
Darçın Asan Xidmət 3,PHARMACY,"Bakı şəh., Yasamal ray., N.Hikmət küç., 24",+994992078810,40.37932651,49.804757,Bakı,Bakı,Pasha Insurance
Medical,PHARMACY,"Bakı şəh., Nərimanov ray., Ə.Rəcəbli küç., 1/11",+994554555820,40.40919841,49.86263062,Bakı,Bakı,Pasha Insurance
NUR,PHARMACY,"Bakı şəh., Xətai ray., Xocalı pr., 34A",+994554559157,40.38208697,49.86921112,Bakı,Bakı,Pasha Insurance
Zəfəran Sumqayıt,PHARMACY,"Sumqayıt şəh., H.Əliyev pr., məh. 40",+994554558900,40.58379819,49.67317409,Sumqayıt,Region,Pasha Insurance
Buta 7458,PHARMACY,"Gədəbəy ray., H.Əliyev pr., 1A",+994557100533,40.57395909,45.8072784,Bakı,Bakı,Pasha Insurance
Dokta 1020 Xaçmaz,PHARMACY,"Xaçmaz şəh., N. Nərimanov küç., 58G",+994233257823,41.46198715,48.79938065,Bakı,Bakı,Pasha Insurance
Darçın Xırdalan,PHARMACY,"Abşeron ray., H.Əliyev pr., ev C",+994992078816,40.45676538,49.73509462,Absheron,Bakı,Pasha Insurance
Zeytun metro N. Nərimanov 2,PHARMACY,"Bakı şəh., Nərimanov ray., Təbriz küç.(Life-centre çıxışı)",+994502731196,40.40212419,49.86960026,Bakı,Bakı,Pasha Insurance
Dokta 50 Şəki,PHARMACY,"Şəki şəh., M.Ə.Rəsulzadə ilə H.Əliyev küçələrinin kəsişməsi",+994556204131,41.20373139,47.17906594,Şəki,Region,Pasha Insurance
NEFRON,PHARMACY,"Bakı şəh., Səbail ray., Ə.Cavad küç., 21",+994554555631,40.36947575,49.833915,Bakı,Bakı,Pasha Insurance
Pharma Store Səhiyyə Nazirliyi,PHARMACY,"Bakı şəh., Nəsimi ray., Mərdanov qardaşları küç., 100A",+994512074674,40.39242171,49.83297618,Bakı,Bakı,Pasha Insurance
Dokta 978 Biləsuvar,PHARMACY,"Biləsuvar şəh., H.Əliyev küç.",+994103164916,39.45896369,48.54236469,Biləsuvar,Region,Pasha Insurance
Vita Zabrat 3,PHARMACY,"Bakı şəh., Sabunçu ray., Zabrat qəs., Babək küç. 94A (Ayxan marketin yanı)",+994125151763,40.47526299,49.94974184,Bakı,Bakı,Pasha Insurance
Darçın M.Qaşqay,PHARMACY,"Bakı şəh., Nəsimi ray., M.Qaşqay küç., 63A",+994992078803,40.39258922,49.84306425,Bakı,Bakı,Pasha Insurance
Kanon Qazax-2,PHARMACY,"Qazax şəh., H.Əliyev pr., 175",+994554558169,41.09268913,45.36619201,Qazax,Region,Pasha Insurance
Aloe AFF Business Center,PHARMACY,"Nəsimi r-nu, Nizami küç., 705-ci məhəllə, ev 129E",0992044434,40.37659,49.8417,Bakı,Bakı,Pasha Insurance
Aloe + Onlayn Aptek,PHARMACY,Mobil tətbiqi indi yüklə və 7/24 onlayn çatdırımadan faydalan!,+994102657777,,,Bakı,Bakı,Pasha Insurance
Onlayn Darçın,PHARMACY,Həmin gün çatdırılması üçün: Sifariş vaxtı: 08:00-14:00 - həmin gün 14:00-21:00 kimi çatdırılacaq Növbəti gün çatdırılması üçün: Sifariş vaxtı: 14:00-21:00 - sonrakı gün 14:00-21:00 kimi çatdırılacaq,+994992078817,,,Bakı,Bakı,Pasha Insurance
Onlayn Kaspian,PHARMACY,"Həmin gün çatdırılması üçün: Sifariş vaxtı: 09:00-14:00 - həmin gün 14:00-20:00 kimi çatdırılacaq
Növbəti gün çatdırılması üçün: Sifariş vaxtı: 14:00-21:00 - sonrakı gün 10:00-21:00 kimi çatdırılacaq",+994513330407,,,Bakı,Bakı,Pasha Insurance
Onlayn Medical City,PHARMACY,"Həmin gün çatdırılması üçün: Sifariş vaxtı: 09:00-15:00 - həmin gün 14:00-23:00 kimi çatdırılacaq
Növbəti gün çatdırılması üçün: Sifariş vaxtı: 15:00-23:00 - sonrakı gün 09:00-18::00 kimi çatdırılacaq",+994705942505,40.409264,49.8670924,Bakı,Bakı,Pasha Insurance
DÖVLƏT TİBBİ-SOSİAL EKSPERTİZA VƏ REABİLİTASİYA AGENTLİYİ,CLINIC,Bakı şəh. Mirmahmud Kazımovski küç. 37,+994125684625,40.42,49.82,Bakı,Bakı,Pasha Insurance
Zəfər Tibb Mərkəzi,CLINIC,Akademik Şəfayət Mehdiyev küç. 129,+994512906611,40.38,49.82,Bakı,Bakı,Pasha Insurance
Olimp Hospital,CLINIC,"8-10 İnşaatçılar prospekti, Bakı",*2100,40.37587,49.82037,Bakı,Bakı,Pasha Insurance
MTN Hospital (DTX hospitalı),CLINIC,"Bakı şəh., Səbail ray., Badamdar qəs., Məktəbli küç., 1",+994124057911,40.3389919,49.803095,Bakı,Bakı,Pasha Insurance
Medika Hospital,CLINIC,"Bakı şəh., Xətai ray., N.Tusi küç., 22",+994553698707,40.36889263,49.96264522,Bakı,Bakı,Pasha Insurance
Yeni Gəncə Tibb Mərkəzi (Gəncə şəhəri),CLINIC,"Gəncə şəh., Yeni Gəncə qəs., 28 May küç., 23",+994102308041,40.6852427,46.3317113,Gəncə,Region,Pasha Insurance
Modern Hospital,CLINIC,"Bakı şəh., Nizami ray., Babək pr., 85K",+994554910949,40.39550586,49.94819867,Bakı,Bakı,Pasha Insurance
MİTRİ (Milli İdman Tibb və Reabilitasiya İnstitutu),CLINIC,"Bakı şəh., Nərimanov ray., Olimpiya küç., 4A",+994124048310,40.3989291,49.8554662,Bakı,Bakı,Pasha Insurance
EL LAB Klinikası,CLINIC,"Bakı şəh., Nərimanov ray., Aşıq Molla Cümə küç., 44",+994553105204,40.40800551,49.85996146,Bakı,Bakı,Pasha Insurance
Mərkəzi Klinika ambulator (MKX),CLINIC,"Bakı şəh., Səbail ray., Z.Əliyeva küç., 5",+994124921092(ext.8102),40.36867297,49.83924039,Bakı,Bakı,Pasha Insurance
Şirvan Şəhər Mərkəzi Xəstəxanası,CLINIC,Şirvan şəh. Nəriman Nərimanov küçəsi.,(+994) 21 215-03-58,39.95217,48.93691,Bakı,Bakı,Pasha Insurance
HB Güvən klinikası,CLINIC,"Bakı şəh., Binəqədi ray., Atatürk pr., 3078 ilə Ə.Naxçıvani küç. kəsişməsi",+994706677725,40.4165842,49.8445817,Bakı,Bakı,Pasha Insurance
Kəpəz Hospital,CLINIC,"Bakı şəh., Nəsimi ray., C.Məmmədquluzdə küç., 101A",+994559900547,40.39799219,49.82649491,Bakı,Bakı,Pasha Insurance
Mingeçevir Nərgiz Klinikası,CLINIC,"Mingəçevir şəh., M.Maqomayev pr., 81B",+994503587447,40.76696992,47.04492807,Mingəçevir,Region,Pasha Insurance
Nəbz Tibb Mərkəzi,CLINIC,"Bakı şəh., Nizami ray., Q.Qarayev pr., 31",+994513200909,40.41772518,49.93547196,Bakı,Bakı,Pasha Insurance
AVICENNA Medical Center Lənkaran,CLINIC,"Lənkaran şəh., S.Bayramov küç., 19",+994507203233,38.75399882,48.85605364,Lənkaran,Region,Pasha Insurance
"36,6 MED",CLINIC,"Gəncə şəh., Kəpəz ray., Atatürk pr., 120B",+994515926366,40.69299165,46.36016102,Gəncə,Region,Pasha Insurance
Vital Klinika,CLINIC,"Bakı şəh., Yasamal ray., Yeni Yasamal, D.Bünyatzadə küç., 1.",+994503122312,40.38813012,49.79267563,Bakı,Bakı,Pasha Insurance
Euromed Özəl Tibb Mərkəzi,CLINIC,"Bakı şəh., Nəsimi ray., Cavadxan küç., 17A",+994553009598,40.41211158,49.81460739,Bakı,Bakı,Pasha Insurance
MediClub poliklinika,CLINIC,"Bakı şəh., Səbail ray., Ü.Hacıbəyov küç., 119",+994502204811,40.37600638,49.85601345,Bakı,Bakı,Pasha Insurance
Sumqayıt Hospital,CLINIC,"Sumqayıt şəh., 12-ci mkr., Çerkassı küç., 181",+994508000255,40.563104,49.6846517,Sumqayıt,Region,Pasha Insurance
Atlas Medical Center,CLINIC,"Bakı şəh., Nərimanov ray., Xətai pr., 15",+994507580754,40.38740337,49.85647396,Bakı,Bakı,Pasha Insurance
Bonum Medikal (Şəki),CLINIC,"Şəki şəh., Z.Əliyeva küç., 90",+994506630088,41.15711221,47.17846177,Şəki,Region,Pasha Insurance
Labmed (Qazax),CLINIC,"Qazax şəh., H.Əliyev pr., 134",+994502739012,41.09338915,45.36889454,Qazax,Region,Pasha Insurance
Mərkəzi Klinika Gəncə Xəstəxanası,CLINIC,"Gəncə şəh., Nizami ray., B.Totanlı küç., 17",+994502832803,40.6593975,46.3386882,Bakı,Bakı,Pasha Insurance
Şans Tibb Mərkəzi (Gəncə),CLINIC,"Gəncə şəh., M.Bağırov küç.",+994702576663,40.67853642,46.37563092,Gəncə,Region,Pasha Insurance
Batığöz Azərbaycan,CLINIC,"Bakı şəhəri, Vaqif prospekti 75 A","077-433-40-33, 070-703-40-33",40.39267,49.84267,Bakı,Bakı,Pasha Insurance
Koreya Şərq Təbabəti klinikası,CLINIC,"Bakı şəh., Səbail ray., Neftçilər pr., 65",+994502903315,40.36006299,49.83346624,Bakı,Bakı,Pasha Insurance
Mərkəzi Klinika Stasionar,CLINIC,"Bakı şəh., Səbail ray., Parlament pr., 76",+994124921092(ext.1234,40.36143713,49.82481834,Bakı,Bakı,Pasha Insurance
Qarabağ Bərdə,CLINIC,"Bərdə şəh.H.Əliyev küç., 124A",+994504614000,40.36179455,47.12767207,Bərdə,Region,Pasha Insurance
Sədəf klinikası,CLINIC,"Bakı şəh., Qaradağ ray., Sahil qəs., B.Əliyev küç., 33",+994503087866,40.2206548,49.57426529,Bakı,Bakı,Pasha Insurance
Zəfəran Hospital,CLINIC,"Bakı şəh., Nərimanov ray., A.Məmmədov küç., 30",+994554556903,40.39431436,49.88101451,Bakı,Bakı,Pasha Insurance
İnternational Medical Centre,CLINIC,"Bakı şəh., Nəsimi ray., R.Rza küç., 26",+994557486674,40.37431783,49.83827253,Bakı,Bakı,Pasha Insurance
MediClub Hospital,CLINIC,"Bakı şəh., Yasamal ray.,  İslam Səfərli küç., 33",+994507640737,40.37362779,49.83468716,Bakı,Bakı,Pasha Insurance
MedEra Hospital,CLINIC,"Bakı şəh., Binəqədi ray., Ə.Naxcivani küç., 53",+994552108136,40.41644065,49.84153755,Bakı,Bakı,Pasha Insurance
Evromed klinikası (Mingəçevir),CLINIC,"Mingəçevir şəh., S.Mehmandarov küç., 23A",+994503928344,40.76774628,47.05232699,Mingəçevir,Region,Pasha Insurance
Medisan (İmişli şəhəri),CLINIC,"İmişli şəh., H. Əliyev pr., 131",+994702461070,39.86946025,48.06003829,İmişli,Region,Pasha Insurance
LOR Hospital,CLINIC,"Bakı şəh., Nərimanov ray., Əhməd Rəcəbli küç., 19K",+994774680111,40.40962762,49.86329834,Bakı,Bakı,Pasha Insurance
Sağlam Həyat,CLINIC,"Qəbələ şəh., H.Aslanov küç., 102",+994508071780,40.97623893,47.85387819,Qəbələ,Region,Pasha Insurance
Labstyle,CLINIC,"Zaqatala şəh., Molla Vəli Vidadi küç., 34",+994702252971,41.62860014,46.64034233,Zaqatala,Region,Pasha Insurance
Sağlam Ailə Ultralab filialı,CLINIC,"Bakı şəh. Asif Məhərrəmov küç. 156C, AZ1102",+99412910,40.40968,49.80825,Bakı,Bakı,Pasha Insurance
Uniklinika,CLINIC,"Bakı şəh., Yasamal ray., K.Kazımzadə küç., 115",+994502090165,40.37703591,49.81839527,Bakı,Bakı,Pasha Insurance
Lux İnternational Hospital,CLINIC,"Bakı şəh., Nərimanov ray., Faiq Yusifov küç., 146A",+994508003060,40.40563547,49.87292536,Bakı,Bakı,Pasha Insurance
Referans Klinik Laboratoriya Nəsimi,CLINIC,"Bakı şəh., Nəsimi ray., M.Mirqasımov küç., 25A",99704160033,40.39490721,49.83795706,Bakı,Bakı,Pasha Insurance
Gəncə Beynəlxalq Xəstəxanası,CLINIC,"Gəncə şəh., H.Əliyev pr., 60D/E/F",+994555007113,40.69462931,46.36609919,Gəncə,Region,Pasha Insurance
Doktor AZ,CLINIC,"Sumqayıt şəh., S.Bədəlbəyli küç., 42H",+994555247839,40.57341857,49.67800089,Sumqayıt,Region,Pasha Insurance
Mediland,CLINIC,"Bakı şəh., Xətai ray., S.Orucov küç., 17C",+994774740324,40.3807211,49.8699126,Bakı,Bakı,Pasha Insurance
Naxçıvan Sağlamlıq Mərkəzi,CLINIC,"Naxçıvan şəh., Əziz Əliyev küç., 22 A",+994365446291,39.21668601,45.4206087,Naxçıvan,Region,Pasha Insurance
Oksigen Yeni Tibb Mərkəzi,CLINIC,"Bakı şəh., Nərimanov ray., Təbriz küç.",+994502717179,40.40365134,49.87001122,Bakı,Bakı,Pasha Insurance
Liman klinikası (Sumqayıt şəhəri),CLINIC,"Sumqayıt şəh., 6-cı mkr., S.Vurğun küç., 35 A",+994502352434,40.58048696,49.68995378,Sumqayıt,Region,Pasha Insurance
Respublika Müalicəvi Diaqnostika Mərkəzi,CLINIC,"Bakı şəh., Yasamal ray., Tbilisi pr., 147",+994502293940,40.39979849,49.81039484,Bakı,Bakı,Pasha Insurance
Leyla Medical Center klinikası,CLINIC,"Bakı şəh., Xətai ray., Y.Səfərov küç.",+994502817091,40.38201848,49.86340048,Bakı,Bakı,Pasha Insurance
Referans Qəbələ Tibb Mərkəzi,CLINIC,"Qəbələ şəh., A.Səhhət küç., 25A",+994773450033,40.9671567,47.84328772,Qəbələ,Region,Pasha Insurance
Avrasiya Hospital,CLINIC,"Bakı şəh., Nəsimi ray., H.Əliyev küç., 15 (İnqilab)",+994502875587,40.39817474,49.8283946,Bakı,Bakı,Pasha Insurance
Medistyle,CLINIC,"Bakı şəh., Nərimanov ray., H.Əliyev küç., 116",+994709797109,40.40639479,49.86234516,Bakı,Bakı,Pasha Insurance
Azərbaycan Tibb Universitetinin Tədris Cərrahiyyə Klinikası,CLINIC,"Bakı şəh., Nəsimi ray., S.Vurğun küç., 155",+994512051714,40.39242136,49.83442282,Bakı,Bakı,Pasha Insurance
Caspian İnternational Hospital,CLINIC,"Bakı şəh., Səbail ray., Badamdar şos., 1-ci yaşayış massivi, 31",+994553007089,40.34331667,49.81023091,Bakı,Bakı,Pasha Insurance
REAL Hospital,CLINIC,"Bakı şəh., Yasamal ray., Z.Xəlilov küç., 99",+994513100173,40.3809863,49.81094271,Bakı,Bakı,Pasha Insurance
Celamig,CLINIC,"Bakı şəh., Nəsimi ray., S.Rəhimov küç., 126/64",+994707389000,40.37822607,49.83771215,Bakı,Bakı,Pasha Insurance
Ömürdən pay,CLINIC,"Bərdə şəh., N.Nərimanov küç., 2",+994502867688,40.37396048,47.1214913,Bakı,Bakı,Pasha Insurance
MediClub poliklinika KİDS,CLINIC,"Bakı şəh., Səbail ray., İ.Nəbiyev küç., 30A",+994502504911,40.35903918,49.82277293,Bakı,Bakı,Pasha Insurance
Bakı Sağlamlıq Mərkəzi,CLINIC,"Bakı şəh., Nəsimi ray., N.Yusifbəyli küç., 112, Azadlıq pr. kəsişməsi",950,40.39858887,49.83980654,Bakı,Bakı,Pasha Insurance
Bioloji Təbabət (Göyçay),CLINIC,"Göyçay şəh., M.Muradov küç., 12",+994502461411,40.65385398,47.75102394,Göyçay,Region,Pasha Insurance
Bakı Medikal Plaza,CLINIC,"Bakı şəh., Xətai ray., Babək pr., 92N",+994506758341,40.3942614,49.9648962,Bakı,Bakı,Pasha Insurance
Həyat Tibb Mərkəzi,CLINIC,"Bakı şəh., Qala qəs., Xaşaxuna bağları 91K",+994704047592,40.42679529,50.21556673,Bakı,Bakı,Pasha Insurance
Mərcan Klinikası,CLINIC,"Bakı şəh., Nəsimi ray., M.Cəfərov küç., 12",+994554508505,40.40547162,49.81009503,Bakı,Bakı,Pasha Insurance
Referans Klinik Laboratoriya,CLINIC,"Bakı şəh., Nərimanov ray., M.Məmmədzadə küç., 8A",+994519650033,40.40020989,49.8724897,Bakı,Bakı,Pasha Insurance
Alyans klinikası (Şəki),CLINIC,"Şəki şəh., M.F.Axundov küç., 351A",+994559255511,41.19791083,47.17864152,Şəki,Region,Pasha Insurance
Bioloji Təbabət (Masallı),CLINIC,"Masallı şəh., E.Hüseynov küç.",+994555328988,39.02225973,48.68022887,Masallı,Region,Pasha Insurance
Milana Hospital,CLINIC,"Bakı şəh., Nərimanov ray., Ə. Rəcəbli küç., 1/21",+994124099091,40.41002807,49.86200456,Bakı,Bakı,Pasha Insurance
EGE Hospital,CLINIC,"Bakı şəh., Nərimanov ray., H.Əliyev küç., 38",+994775250547,40.3990525,49.8354792,Bakı,Bakı,Pasha Insurance
Assmed (Lökbatan qəsəbəsi),CLINIC,"Bakı şəh., Qaradağ ray., Lökbatan qəs., D.Bünyadzadə küç., 3A",+994505458322,40.32027542,49.73243596,Bakı,Bakı,Pasha Insurance
Med Life,CLINIC,"Goranbay şəh., C. Cabbarlı küç., 33",+994508391718,40.60717874,46.78703002,Goranbay,Region,Pasha Insurance
Hayat Clinic,CLINIC,"Bakı şəh., Yasamal ray., Mətbuat pr., 35A",+994557792130,40.377559,49.808733,Bakı,Bakı,Pasha Insurance
Medservis Özəl Tibb Mərkəzi,CLINIC,"Bakı şəh., Yasamal ray., C. Məmmədquluzadə küç., 3",+994125966848,40.37907479,49.8331947,Bakı,Bakı,Pasha Insurance
Real Tibb Mərkəzi,CLINIC,"Sumqayıt şəh., 45-ci məhəllə, 14 saylı bina",+994503860701,40.58032201,49.68097015,Sumqayıt,Region,Pasha Insurance
German Hospital,CLINIC,"Bakı şəh., Yasamal ray., İ.Qutqaşınlı küç., 50",+994554557870,40.36955415,49.82105161,Bakı,Bakı,Pasha Insurance
Tuva Tibb Mərkəzi (Masallı),CLINIC,"Masallı şəh., Qızlavar kəndi",+994503570318,38.9687308,48.66981719,Masallı,Region,Pasha Insurance
Diaqnoz Tibb Mərkəzi,CLINIC,"Bakı şəh., Xətai ray., Sarayevo küç., 38C",+994557544303,40.38629591,49.96354073,Bakı,Bakı,Pasha Insurance
Məlhəm Beynəlxalq Hospital,CLINIC,"Bakı şəh., Nizami ray., C. Naxçıvanski küç., 433",+994512017101,40.40760021,49.95469877,Bakı,Bakı,Pasha Insurance
Funda Hospital,CLINIC,"Bakı şəh., Nərimanov ray., İ.Hidayyətzadə küç., 163",*777,40.39417483,49.87219012,Bakı,Bakı,Pasha Insurance
Sağlam Ailə,CLINIC,"Bakı şəh, Nərimanov rayonu, Əhməd Rəcəbli küç. 3/10",+994552223215,40.4094614,49.86202639,Bakı,Bakı,Pasha Insurance
Medikus,CLINIC,"Şirvan şəh., M.İbrahimov küç., 266",+994102123757,39.95581054,48.94320832,Şirvan,Region,Pasha Insurance
VİTA MED klinikası,CLINIC,"Biləsuvar şəh.,M. İbrahimov küç., 224B",+994707650008,39.4558879,48.5436467,Biləsuvar,Region,Pasha Insurance
Şəfa Özəl Tibb Mərkəzi (Naxçıvan),CLINIC,"Naxçıvan şəh., Cəlil Məmmədquluzadə küç., 13",+994503476649,39.20106252,45.41196841,Naxçıvan,Region,Pasha Insurance
Xüsusi Müalicə Sağlamlıq Kompleksi (XMSK),CLINIC,"Bakı şəh., Səbail ray., Badamdar qəs., Badamdar şossesi 31T",+994503780034,40.35299613,49.80922868,Bakı,Bakı,Pasha Insurance
Şans Tibb Mərkəzi (Şəmkir),CLINIC,"Şəmkir şəh.,Vidadi küç., 2",+994703055442,40.82880794,46.01661991,Şəmkir,Region,Pasha Insurance
Referans Naxçıvan Tibb mərkəzi,CLINIC,"Naxçıvan şəh., 11 ci məhəllə, döngə 6 (yeni Naxçıvan, kanal 35 yaxınlığı)",+994606000033,39.20301496,45.42891042,Naxçıvan,Region,Pasha Insurance
Regional Hospital,CLINIC,"Mingəçevir şəh., D.Əliyeva küç., 2C",+994503067733,40.77524234,47.04820732,Mingəçevir,Region,Pasha Insurance
Badam Medical Center,CLINIC,"Bakı şəh., Səbail ray., Badamdar qəs., A.Abbaszadə küç., 13A",+994512058025,40.35249019,49.81334483,Bakı,Bakı,Pasha Insurance
Hayat Hospital (Zaqatala),CLINIC,"Zaqatala şəh., M.V.Vidadi küç., 3",+994508904422,41.62977653,46.64392572,Zaqatala,Region,Pasha Insurance
Yovşan Klinika,CLINIC,"Biləsuvar ray., H.Əliyev pros., 333",+994772953838,39.46071396,48.54146458,Biləsuvar,Region,Pasha Insurance
Omeqa Clinic,CLINIC,"Sabirabad şəh., H.Əliyev pr., 48",+994553729565,40.00447937,48.47095142,Sabirabad,Region,Pasha Insurance
Stimul Hospital,CLINIC,"Bakı şəh., Sabunçu ray., Y.Əliyev küç., 26 C",+994705502020,40.43369186,49.95641512,Bakı,Bakı,Pasha Insurance
Türk-American Medical Centre,CLINIC,"Bakı şəh., Nərimanov ray., Y.V.Çəmənzəminli küç., 18",+994502300450,40.4018043,49.83348767,Bakı,Bakı,Pasha Insurance
Referans Klinik Laboratoriya Mərdəkan,CLINIC,"Bakı şəh., Xəzər ray., Mərdəkan qəs., S.Yesenin küç., 92/1 və 92/2",+994702630033,40.49012866,50.15088104,Bakı,Bakı,Pasha Insurance
Medican (Lənkəran şəhəri),CLINIC,"Lənkəran şəh., 20 Yanvar küç., 71",+994702550298,38.7545724,48.8374881,Lənkəran,Region,Pasha Insurance
Dobromed (Spero Hospital),CLINIC,"Bakı şəh., Nəsimi ray., 20 Yanvar küç.,1B",+994552233050,40.41158975,49.80379073,Bakı,Bakı,Pasha Insurance
OKİ Özəl Tibbi müalicəxanası (Qusar),CLINIC,"Qusar şəh., F.Musayev küç., 27",+994513640310,41.4257721,48.4306896,Qusar,Region,Pasha Insurance
Mediaz Hospital,CLINIC,"Quba şəhəri, Qələbə küçəsi 26",0508001024,41.35967,48.51354,Quba,Region,Pasha Insurance
City Hospital,CLINIC,"Bakı şəh., Nərimanov ray., Y.V.Çəmənzəminli küç., 18",+994505200303,40.40194605,49.83400664,Bakı,Bakı,Pasha Insurance
Liv Bona Dea Hospital (Şərtləri dəqiqləşdirmək üçün tibbi çəğrı mərkəzi (*7000) ilə əlaqə saxlayın),CLINIC,"Bakı şəh., Mehdi Abbasov küç., 2",+994502564648,40.41271655,49.93055143,Bakı,Bakı,Pasha Insurance
Dünya Göz Azərbaycan,CLINIC,"Bakı şəh., Səbail ray., Bayıl qəs., M.Hüseynov pr., 39",+994502732481,40.34938154,49.83585516,Bakı,Bakı,Pasha Insurance
Azərbaycan Tibb Universitetinin Tədris Terapevtik Klinikası,CLINIC,"Bakı şəh., Nəsimi ray., Mərdənov qardaşları küç., 100",+994124413318,40.39677823,49.83171729,Bakı,Bakı,Pasha Insurance
Unikal klinika,CLINIC,"Sumqayıt şəh., İsmət Qayıbov küçəsi, giriş 2 (Nur şadlıq sarayının yanı)",+994 50 285 21 76,40.57601423,49.67927351,Sumqayıt,Region,Pasha Insurance
Azərbaycan Respublikası Dövlət Gömrük Komitəsi Tibb Xidmət İdarəsinin Mərkəzi Hospitalı,CLINIC,"Bakı şəh., Yasamal ray., K.Kazımzadə küç., 118",+994502460037,40.3781862,49.8188062,Bakı,Bakı,Pasha Insurance
Aran Regional Klinika,CLINIC,"Səlyan rayonu, 123 Taleh Davudzadə, Salyan 5200",055 367 00 52,39.6,48.99,Salyan,Region,Pasha Insurance
MedSun Klinika,CLINIC,"Şamaxı şəhəri, Azərbaycan küçəsi 15",010 336 01 01,40.64,48.64,Şamaxı,Region,Pasha Insurance
Leyla Medical Center - 2 Pediatriya,CLINIC,"Nərimanov r-nu, Məmməd Araz, 27",055-255-43-37,40.40639,49.84112,Bakı,Bakı,Pasha Insurance
Boulevard Medical Center,CLINIC,Sumqayıt şəhəri. Bulvar küç 79A,*5225,40.59517,49.68237,Sumqayıt,Region,Pasha Insurance
Səhhət Klinikası,CLINIC,"Bakı şəh., Nizami ray., Q.Qarayev pr., 103",+994502720196,40.39601029,49.95396126,Bakı,Bakı,Pasha Insurance
Universal Hospital,CLINIC,Bakı şəh. Cəfər Xəndan 196,(012)5996556,40.41882,49.84518,Bakı,Bakı,Pasha Insurance
Vita Med Tibb Mərkəzi (Biləsuvar),CLINIC,"224B Mirzə Fətəli Axundov, Biləsuvar",,39.45604,48.54365,Biləsuvar,Region,Pasha Insurance
Sağlam Ailə MDK filialı,CLINIC,"Bakı şəh., Rəşid Behbudov küç. 56, AZ1014 (""OVIR"" yaxınlığında)",+99412910,40.38258,49.84331,Bakı,Bakı,Pasha Insurance
Real Tibb Mərkəzi (Stomatoloji xidmətlər göstərilir),DENTAL,"Sumqayıt şəh., 45-ci məhəllə, 14 saylı bina",+994503860701,40.58032201,49.68097015,Sumqayıt,Region,Pasha Insurance
32 Gözəl,DENTAL,"Bakı şəh., Yasamal ray., Azərbaycan pr., 14",+994705333232,40.3715944,49.83373211,Bakı,Bakı,Pasha Insurance
Modern Hospital (Stomatoloji xidmətlər göstərilir),DENTAL,"Bakı şəh., Nizami ray., Babək pr., 85K",+994554910949,40.39550586,49.94819867,Bakı,Bakı,Pasha Insurance
Labmed Tibb Mərkəzi (Stomatoloji xidmətlər göstərilir),DENTAL,"Qazax şəh., H.Əliyev pr., 134",+994502739012,41.09338915,45.36889454,Qazax,Region,Pasha Insurance
Azərbaycan Tibb Universitetinin Tədris Stomatoloji Klinikası,DENTAL,"Bakı şəh., Nəsimi ray., Səməd Vurğun küç., 175",+994124498255,40.39914382,49.83226496,Bakı,Bakı,Pasha Insurance
Caspian İnternational Hospital (Stomatoloji xidmətlər göstərilir),DENTAL,"Bakı şəh., Səbail ray., Badamdar şos., 1-ci yaşayış massivi, 31",+994553007089,40.34331667,49.81023091,Bakı,Bakı,Pasha Insurance
22 ƏSR,DENTAL,"Sumqayıt şəh., 17-ci mkr., İ.Qayibov küç., 51 məh.",+994513580150,40.56412516,49.70992692,Sumqayıt,Region,Pasha Insurance
Apex,DENTAL,"Bakı şəh., Yasamal ray., H.Məcidov küç., 12",+994125254844,40.38330167,49.80983927,Bakı,Bakı,Pasha Insurance
Sağlam Diş (Qara Qarayev filialı),DENTAL,"Bakı şəh., Nizami ray., Ə.Hacıyev küç., 15",+994555203151,40.41531639,49.93248289,Bakı,Bakı,Pasha Insurance
EMV Dent,DENTAL,"Bakı şəh., Nərimanov ray., Təbriz küç., giriş 209G, M2, m1",+994502111492,40.40420766,49.87341617,Bakı,Bakı,Pasha Insurance
Mərkəzi Klinika Stomatologiya,DENTAL,"Bakı şəh., Səbail ray., Xəqani küç., 90D",+994552924202,40.37676302,49.85545526,Bakı,Bakı,Pasha Insurance
Dental Art,DENTAL,"Sumqayıt şəh., 12-ci mkr., Koroğlu pros., 1/2",+994503761122,40.5654612,49.6858459,Sumqayıt,Region,Pasha Insurance
Premium Dental,DENTAL,"Bakı şəh., Binəqədi ray., Azadlıq pr., 3071-ci məhəllə (Baku Electronics-in yaxınlığında)",+994703366896,40.41339839,49.83609029,Bakı,Bakı,Pasha Insurance
Smile Gallery,DENTAL,"Bakı şəh., Nəsimi ray., H.Ələsgərov küç., 11",+994519497969,40.39184361,49.83601976,Bakı,Bakı,Pasha Insurance
32 Beauty,DENTAL,"Bakı şəh., Nərimanov ray., M.Araz küç., 63",+994125613290,40.40695543,49.84494176,Bakı,Bakı,Pasha Insurance
SWISSDENT,DENTAL,"Bakı şəh., Yasamal ray., A.M.Şərifzadə küç., 34",+994998303209,40.37456407,49.80540701,Bakı,Bakı,Pasha Insurance
Müasir Stomatoloqiya,DENTAL,"Sumqayıt şəh.,  3-cü məhəllə, Nizami küç., ev 23/14",+994502771170,40.59447591,49.66969712,Bakı,Bakı,Pasha Insurance
Bioloji Təbabət (Göyçay) (Stomatoloji xidmətlər göstərilir),DENTAL,"Göyçay şəh., M.Muradov küç., 12",+994502461411,40.65385398,47.75102394,Göyçay,Region,Pasha Insurance
Assmed (Stomatoloji xidmətlər göstərilir),DENTAL,"Bakı şəh., Qaradağ ray., Lökbatan qəs., D.Bünyadzadə küç., 3A",+994505458322,40.32027542,49.73243596,Bakı,Bakı,Pasha Insurance
İNTERDENT,DENTAL,"Bakı şəh., Nəsimi ray., Natiq Şahbazov 36D",+994552627573,40.38736524,49.84659702,Bakı,Bakı,Pasha Insurance
EN KLİNİK,DENTAL,"Bakı şəh., Səbail ray., Xəqani küç., 76 C",+994125989222,40.37573914,49.85256452,Bakı,Bakı,Pasha Insurance
Mərkəzi Klinika Gəncə Xəstəxanası (Stomatoloji xidmətlər göstərilir),DENTAL,"Gəncə şəh., Nizami ray., B.Totanlı küç., 17",+994502832803,40.6593975,46.3386882,Bakı,Bakı,Pasha Insurance
Prestij Dental Klinika,DENTAL,"Bakı şəh., Binəqədi ray.,  8-ci mkr., S.S.Akhundov küç., 50",+994775633030,40.42486096,49.84422877,Bakı,Bakı,Pasha Insurance
Dental Update,DENTAL,"Bakı şəh., Nərimanov ray., Məmməd Araz küç., 102",+994508050090,40.40649777,49.8443792,Bakı,Bakı,Pasha Insurance
Sədəf klinikası (Stomatoloji xidmətlər göstərilir),DENTAL,"Bakı şəh., Qaradağ ray., Sahil qəs., B.Əliyev küç., 33",+994503087866,40.2206548,49.57426529,Bakı,Bakı,Pasha Insurance
VA DENT Estetik klinika,DENTAL,"Bakı şəh., Yasamal ray., Ş.Mehdiyev küç., məh. 1054",+994552317709,40.3929919,49.8152537,Bakı,Bakı,Pasha Insurance
Dent House,DENTAL,"Bakı şəh., Xətai ray., M.Hadi küç., 7",+994702600962,40.39190412,49.95413667,Bakı,Bakı,Pasha Insurance
OKİ Tibb müalicəxanası (Stomatoloji xidmətlər göstərilir),DENTAL,"Qusar şəh., F.Musayev küç., 27",+994513640310,41.4257721,48.4306896,Qusar,Region,Pasha Insurance
Dəniz Diş,DENTAL,"Bakı şəh., Yasamal ray., L.Tolstoy küç., 137",+994702140430,40.37259013,49.83449901,Bakı,Bakı,Pasha Insurance
Only Dent,DENTAL,"Bakı şəh., Yasamal ray., M.Seyidov 12",+994552140430,40.37603146,49.80814145,Bakı,Bakı,Pasha Insurance
Türk-American Medical Centre (Stomatoloji xidmətlər göstərilir),DENTAL,"Bakı şəh., Nərimanov ray., Y.V.Çəmənzəminli küç., 18",+994502300450,40.4018043,49.83348767,Bakı,Bakı,Pasha Insurance
Dental Studio,DENTAL,"Bakı şəh., Nəsimi ray., M.Zeynalabdiyev küç., 6",+994505323036,40.37981785,49.85618327,Bakı,Bakı,Pasha Insurance
Oksigen Yeni Tibb Mərkəzi (Stomatoloji xidmətlər göstərilir),DENTAL,"Bakı şəh., Nərimanov ray., Təbriz küç.",+994502717179,40.40365134,49.87001122,Bakı,Bakı,Pasha Insurance
Unikal Klinika (Stomatoloji xidmətlər göstərilir),DENTAL,"Sumqayıt şəh., İsmət Qayıbov küçəsi, giriş 2 (Nur şadlıq sarayının yanı)",+994 50 285 21 76,40.57601423,49.67927351,Sumqayıt,Region,Pasha Insurance
Həyat Tibb Mərkəzi (Stomatoloji xidmətlər göstərilir),DENTAL,"Bakı şəh., Qala qəs., Xaşaxuna bağları 91K",+994704047592,40.42679529,50.21556673,Bakı,Bakı,Pasha Insurance
Dental Harmony,DENTAL,"Gadir Mammadov 2B, Bakı",+99470-773-33-00,40.36669894,49.94579941,Bakı,Bakı,Pasha Insurance
Happy Dent,DENTAL,"Süleyman Rüstəm küçəsi, Bakı 1007",012 4400024,40.39052253,49.83964,Bakı,Bakı,Pasha Insurance
Sağlam Diş (Yasamal filialı),DENTAL,"Bakı şəh., Yasamal ray., Tbilisi pr., 49B",+994515250051,40.39485099,49.81723272,Bakı,Bakı,Pasha Insurance
Şəfa Özəl Tibb Mərkəzi (Stomatoloji xidmətlər göstərilir),DENTAL,"Naxçıvan şəh., Cəlil Məmmədquluzadə küç., 13",+994503476649,39.20106252,45.41196841,Naxçıvan,Region,Pasha Insurance
Megadent Ağ Şəhər,DENTAL,"Xətai r-nu,Ağ Şəhər,3 park küç.",,40.38798,49.88941,Bakı,Bakı,Pasha Insurance
Happy Smile,DENTAL,"Bakı şəh., Nəsimi ray., Mirəli Qaşqay küç., 49",+994704411640,40.38566209,49.84622975,Bakı,Bakı,Pasha Insurance
Z DENT clinic,DENTAL,"Bakı şəh., Nərimanov ray., Atatürk pr., 138",+994553330337,40.41265334,49.84717811,Bakı,Bakı,Pasha Insurance
Dental Club,DENTAL,"Bakı şəh., Nərimanov ray., Ceyhunbəy Hacıbəyli küç., 116",+994703792840,40.39065439,49.84703111,Bakı,Bakı,Pasha Insurance
Sağlam Diş (Bakıxanov filialı),DENTAL,"Bakı şəh., Sabunçu ray., Bakıxanov qəs., S.Qocayev küç., 39A",+994556008123,40.4168585,49.9644243,Bakı,Bakı,Pasha Insurance
Ömürdən pay (Stomatoloji xidmətlər göstərilir),DENTAL,"Bərdə şəh., N.Nərimanov küç., 2",+994502867688,40.37396048,47.1214913,Bakı,Bakı,Pasha Insurance
Novo Optika (Ağ şəhər),OPTICS,"Bakı şəh., Xəqani Rüstəmov 4",+994992030663,40.38230368,49.88089703,Bakı,Bakı,Pasha Insurance
Novo Optika (İçərişəhər),OPTICS,"Bakı şəh., Şeyx Şamil 16A",+994992030663,40.36664527,49.82924518,Bakı,Bakı,Pasha Insurance
FOCUS 5 mərtəbə,OPTICS,"Bakı şəh., Nəsimi ray., Ş.Qurbanov küç., 2",+994506623360,40.37676827,49.83223961,Bakı,Bakı,Pasha Insurance
Optic Gallery,OPTICS,"Bakı şəh., Füzuli küç., 300",+994512913644,40.37632687,49.83456523,Bakı,Bakı,Pasha Insurance
MAJESTİK,OPTICS,"Bakı şəh., M.Hüseynov küç., 39 (Dünya Göz klinikası ilə yaxın)",+994506820504,40.34992864,49.83560259,Bakı,Bakı,Pasha Insurance
FOCUS Neftçilər metro,OPTICS,"Bakı şəh., Nizami ray., Q.Qarayev pr., 126",+994506623360,40.40950739,49.94335554,Bakı,Bakı,Pasha Insurance
FOCUS Sumqayıt,OPTICS,"Sumqayıt şəh., 20 Yanvar küç. ilə Sülh küç. kəsişməsi",+994506623360,40.58991009,49.67563996,Sumqayıt,Region,Pasha Insurance
Novo Optika (Atatürk prospekti),OPTICS,Bakı şəh. Atatürk prospekti 41/47,(+994) 99 204 44 32,40.41134,49.84664,Bakı,Bakı,Pasha Insurance
Yeganə,OPTICS,"Bakı şəh., Nəsimi ray., Hüseynbala Əliyev küç., məh. 3018, 26A",+994554558570,40.41173092,49.82130271,Bakı,Bakı,Pasha Insurance
32 BEAUTY - Billur Dent,CLINIC,"Nərimanov ray., Teymur Əliyev küç 63",,40.40694205623578,49.84237207552715,Bakı,Bakı,AIIC
32 Gözəl,CLINIC,"Gəncə şəh., Atatürk pr. 254\42",,40.670973377298054,46.35492288646706,Gəncə,Region,AIIC
32 Gözəl MMC,CLINIC,"Yasamal ray., Azərbaycan pr.12",0125967313,40.37159265838603,49.83115727552542,Bakı,Bakı,AIIC
36.6 Med Klinikası,CLINIC,"Gəncə şəh., Kəpəz ray., Atatürk prospekti 120 B",0515926366,40.69299033877994,46.35759627554185,Gəncə,Region,AIIC
AQS Dental,CLINIC,"Sumqayıt şəh.,13-cü mikr-n, Babək pr. 241, AZ 5001",0552042598,40.56724404646558,49.692663875535416,Sumqayıt,Region,AIIC
ARS Reabilitasiya Mərkəzi MMC,CLINIC,"Nərimanov ray., H. Əliyev 889-cu məhəllə, ev 82",0124801788,40.40856275613713,49.857124875527354,Bakı,Bakı,AIIC
Atlas Medical Center,CLINIC,"Xətai ray., Xətai prospekti 15",0124969606,40.387402457424464,49.853899375526275,Bakı,Bakı,AIIC
Avita,CLINIC,"Bakı şəh.,Binə qəs.,Əli İsazadə küç. 139",0702022702,40.413127359479574,49.890014936094346,Bakı,Bakı,AIIC
Avrasiya Hospital,CLINIC,Nəsimi ray. Ak. Həsən Əliyev küç. 15,0559790101,40.41120039878135,49.8116767904934,Bakı,Bakı,AIIC
Aysmed Klinikası,CLINIC,"Xətai ray., M. Hadi küç.,2",0552524047,40.39438875699956,49.95057117552664,Bakı,Bakı,AIIC
Azərbaycan Tibb Universitetinin Tədris Cərrahiyyə Klinikası,CLINIC,"Mirqasımov küç., 1004-cü məhəllə",,40.3921817479922,49.83177782369605,Bakı,Bakı,AIIC
Azərbaycan Tibb Universitetinin Tədris Stomatoloji Klinikası,CLINIC,"Bakı şəhəri, Nəsimi rayonu, S.Vurğun küçəsi,175",,40.39923220670496,49.82930642552687,Bakı,Bakı,AIIC
Azərbaycan Tibb Universitetinin Tədris Terapevtik Klinikası,CLINIC,"Nəsimi ray.,Mərdanov qardaşları küç.1001",(+99412) 597 44 90,40.396690906859455,49.82916347552663,Bakı,Bakı,AIIC
Badam Klinikası,CLINIC,"Səbail r-nu, A.Abbaszadə küç., 13A",*6699,40.35248585954776,49.81076947552447,Bakı,Bakı,AIIC
BatıGöz Azərbaycan,CLINIC,"Nəsimi ray., Vaqif pr.,9A",0513104033,40.392580557109646,49.84050837552639,Bakı,Bakı,AIIC
Biosis Tibb Mərkəzi,CLINIC,"Bakı şəh., Yasamal ray., M.Naxçıvani, ev 9",,40.38334035767169,49.822651675525925,Bakı,Bakı,AIIC
Bona Dea International Hospital,CLINIC,"Mehdi Abbasov, Baku 1060",+994 12525 09 00,40.40915725610106,49.86468967552732,Bakı,Bakı,AIIC
Bonum,CLINIC,"Şəki şəhəri, Zərifə Əliyeva küçəsi 90",0506630088,41.15711231024786,47.175883075566034,Şəki,Region,AIIC
Caspian İnternational Hospital,CLINIC,"Səbayıl ray., Badamdar, 1-ci yaşayış massivi, 31",(012) 502-50-16,40.34331226010527,49.807657175523936,Bakı,Bakı,AIIC
Celamig Göz Klinikası,CLINIC,Nəsimi ray. Süleyman Rəhimov 126/64,0707389000,40.378228457982516,49.83514467552578,Bakı,Bakı,AIIC
Central Clinic,CLINIC,"Xırdalan şəh.,30-cu məhəllə, ev 14",0507776999,40.45358945339588,49.731531075529595,Absheron,Bakı,AIIC
Citomed Klinikası,CLINIC,"Bakı şəh, Möhsün Sənani 106",0508067696,40.398398656755624,49.83286427552672,Bakı,Bakı,AIIC
CityHospital,CLINIC,"Bakı şəhəri, Y.V.Çəmənzəminli küçəsi 18, AZ1078",(+994 50) 520 03 03,40.401943156539886,49.831431275527024,Bakı,Bakı,AIIC
Dent House,CLINIC,"Mehemmed Hadi, 7",0123757778,40.39190065715094,49.95156057552639,Bakı,Bakı,AIIC
DENTAL GROUP-FAA,CLINIC,"Bakı şəh., Sabunçu ray.,Sülh (Bakıxanov qəs.),ev 2/20",,40.48230295164659,49.83428147553108,Bakı,Bakı,AIIC
Dental Plus,CLINIC,"Xətai ray.,M. Hadi küç.,68B, məh. 2945-46 m. 90A",,40.37495235818178,49.95007747552553,Bakı,Bakı,AIIC
Dental Studio Bakı,CLINIC,"Səbayıl ray., Mehbali Zeynalabdin küç. 6",0125982887,40.379813957886135,49.85360447552581,Bakı,Bakı,AIIC
Dentamed Estetik,CLINIC,"Nərimanov ray., Koroğlu Rəhimov küç., 3A",0502821333,40.395665856921944,49.8570389755266,Bakı,Bakı,AIIC
Diaqnoz Tibb Mərkəzi,CLINIC,"Xətai ray., Sarayevo küç., 15",0123700666,40.38629335749193,49.96096647552615,Bakı,Bakı,AIIC
Dünya Estetik -stomatoloji klinika,CLINIC,"Bakı şəh., Nərimanov ray., Məmməd Araz, ev 27",,40.406030456291205,49.83844347552715,Bakı,Bakı,AIIC
Dünyagöz Hastanesi Bakı,CLINIC,"Səbayıl ray., Bayıl Qəsəbəsi, M.Hüseynov pr.i 39",0124044469,40.34946325973146,49.8330827755241,Bakı,Bakı,AIIC
Dəniz Diş klinikası,CLINIC,"Yasamal ray., Lev Tolstoy küç 137, mən 7",0125965904,40.372585658325654,49.83191917552545,Bakı,Bakı,AIIC
EGE Hospital,CLINIC,"Akademik Həsən Əliyev küçəsi 38, AZ1078 Bakı, Azərbaycan",(+994) 12 599 1117,40.39905249999999,49.83323107852309,Bakı,Bakı,AIIC
Funda Hospital,CLINIC,"Nərimanov rayonu, Hidayətzadə küç. 163",0125662844,40.39417335701263,49.86961527552656,Bakı,Bakı,AIIC
Funda-Stomatologiya,CLINIC,"Nərimanov rayonu, Hidayətzadə küç. 163",0125662844,40.39417335701263,49.86961527552656,Bakı,Bakı,AIIC
German Hospital,CLINIC,"Yasamal ray., İsmayılbəy Qutqaşınlı küç, 50",0554557883,40.369557158509785,49.818474675525316,Bakı,Bakı,AIIC
Gəncə Beynəlxalq Xəstəxanası,CLINIC,"Gəncə şəh., H. Əliyev pr 60D/EF",0555007100,40.69463253867939,46.36352447554201,Gəncə,Region,AIIC
Happy Smile,CLINIC,"Nəsimi rayonu,Vladislav Plotnikov küç.29",,40.38558625753505,49.84368502552606,Bakı,Bakı,AIIC
Hayat Clinic,CLINIC,"Yasamal ray.,Mətbuat Prospekti 35a",0124041404,40.37756305802307,49.80615807552579,Bakı,Bakı,AIIC
HB Güvən,CLINIC,"Atatürk pr-ti, 1108",(012) 436 14 96,40.416761,49.844457,Bakı,Bakı,AIIC
HN Medical,CLINIC,"Quba şəh., Maksim Qorki küç.",,41.361320447612364,48.520210025576596,Quba,Region,AIIC
HN Medical,CLINIC,"Bakı şəh., Xətai ray., M.Hadi küçəsi 229D",,40.365691907291584,49.95335277870509,Bakı,Bakı,AIIC
HTC Cliniva Hospital,CLINIC,"Bakı şəh., Q. Qarayev pr. 84",0124217777,40.407033956230165,49.94263527552723,Bakı,Bakı,AIIC
Interdent,CLINIC,"Bakı şəh., Xətai ray.,Məhəmməd Hadi, ev 64,m. 48",0552627573,40.38733565742869,49.84401777552618,Bakı,Bakı,AIIC
İnternational Medical Center 1,CLINIC,"Nərimanov ray.,Bəşir Səfəroğlu küç 183.",0125961316,40.3743153582205,49.83569867552553,Bakı,Bakı,AIIC
İnternational Medical Centre 2,CLINIC,"Nəsimi ray.,Aşıq Molla Cümə 11B",+994 70 266 55 74,40.4031295,49.8646034,Bakı,Bakı,AIIC
İsmayıloğlu-Dental,CLINIC,"Bakı şəhəri, Azadlıqpr.3071-ci məh",,40.404820456364895,49.834040575527084,Bakı,Bakı,AIIC
İstanbul NS Klinika,CLINIC,"Nərimanov ray.,Atatürk prospekti 140",012 465 85 00,40.412792255879744,49.84454587552752,Bakı,Bakı,AIIC
Leyla Medical Center,CLINIC,"Bakı, Y.Səfərov küçəsi, 19",(+994 12) 490 18 58,40.382013,49.863402,Bakı,Bakı,AIIC
Leyla Tibb Mərkəzi,CLINIC,İmişli ray. Ağamalıoğlu küç. ev 2B,0124902131,40.38201725775217,49.86082747552597,İmişli,Region,AIIC
Liman klinikası,CLINIC,"Sumqayıt şəh., 6-cı mkr, Səməd Vurğun küçəsi, 35A",0186446151,40.58046444565848,49.68741937553599,Sumqayıt,Region,AIIC
LOR Hospital,CLINIC,"Bakı şəh., Əhməd Rəcəbli 1/25",0514770111,40.40962745607249,49.860723175527326,Bakı,Bakı,AIIC
MedEra Hospital,CLINIC,Bakı şəh. Əcəmi Naxçıvani 53,(+994 12) 561 03 03,40.416772,49.841159,Bakı,Bakı,AIIC
Medera- Stomatologiya,CLINIC,"Binəqədi ray.,Əcəmi Naxçıvani 53.",0125610303,40.41643865565797,49.838962375527665,Bakı,Bakı,AIIC
Medican Hospital,CLINIC,"Lənkaran şəh, 20 yanvar küç, ev 71",0702550298,38.75457655511949,48.834913175444186,Lənkaran,Region,AIIC
Medika Hospital (Pətək),CLINIC,"Xətai ray.,Nəsrəddin Tusi 244",0123730745,40.36888560000001,49.94359148715821,Bakı,Bakı,AIIC
Medisan Tibb mərkəzi,CLINIC,"İmişli ray.,H.Əliyev pr. 131 (Mədəniyyət evinin yanı)",,39.86171748923324,48.06734697549949,İmişli,Region,AIIC
Medistom stomatoloji klinikası,CLINIC,"Bakı, 28 May küçəsi, 16/18",0125981656,40.377091258051685,49.847148275525676,Bakı,Bakı,AIIC
MediStyle Hospital,CLINIC,"Nərimanov ray.,Ak.Həsən Əliyev küç 116.",+994 51 979 00 00,40.40701665623129,49.86065187552712,Bakı,Bakı,AIIC
Milano Hospital,CLINIC,"Nərimanov rayonu, Əhməd Rəcəbli küçəsi 1/21",0124099091,40.41002435604816,49.859426375527406,Bakı,Bakı,AIIC
Milli İdman Tibb və Reabilitasiya İnstitutu,CLINIC,"Nərimanov rayonu, Olimpiya küç.",0125258310,40.39893315672311,49.85289127552672,Bakı,Bakı,AIIC
Modern Hospital,CLINIC,"AZ1119, Babək prospekti 85K, Bakı / Azərbaycan",+994 70 295 09 49,40.395825,49.948795,Bakı,Bakı,AIIC
Müassir Stomatologiya,CLINIC,"Sumqayıt şəh., Nizami küç., 14-21, AZ 5000",,40.59436884480937,49.666962875536775,Bakı,Bakı,AIIC
Məlhəm Beynəlxalq Hospital,CLINIC,Cəmşid Naxçıvanskı küç .433,0512017101,40.40760155619564,49.95212377552726,Naxçıvan,Region,AIIC
Mərcan Klinikası,CLINIC,"Bakı şəh., Məmmədcəfər Cəfərov 12",0123108585,40.405471356325435,49.80751777552711,Bakı,Bakı,AIIC
Mərkəzi Gömrük Hospitalı,CLINIC,"Yasamal ray.,K,Kazımzadə küç. 118",(+994 12) 404 08 08,40.37754585802406,49.81647487552575,Bakı,Bakı,AIIC
Mərkəzi Klinik Xəstəxana,CLINIC,"Yasamal ray., Parlament prospekti, 76",+994 (12) 492 10 92,40.3614319,49.81529169357912,Bakı,Bakı,AIIC
Mərkəzi Klinik Xəstəxanası,CLINIC,"Gəncə şəh.,",0222640909,40.6594015408348,46.3361132755402,Gəncə,Region,AIIC
Mərkəzi Klinika Ambulatoriya,CLINIC,"Səbayıl ray., Zərifə Əliyeva küç. 5,",+994 (12) 492 10 92,40.36867555856345,49.83666487552523,Bakı,Bakı,AIIC
Mərkəzi Klinika Stomatologiya,CLINIC,"Səbayıl ray., Xəqani küç. 90 D",0124924202,40.3767614580716,49.85288167552571,Bakı,Bakı,AIIC
N.Tusi adına Klinika,CLINIC,"Bakı şəh., Nəsimi r-nu.,Zərdabi küç. 53",+994 12 431 35 31,40.398638,49.804649,Bakı,Bakı,AIIC
Nəbz tibb mərkəzi,CLINIC,"Nizami ray.,Qara Qarayev Prospekti 31",0124213855,40.41771595558011,49.93289337552763,Bakı,Bakı,AIIC
OKİ Klinikası,CLINIC,F. Musayev küç. 27,0505971647,41.42577609361394,48.42811467558007,Bakı,Bakı,AIIC
Oksigen Klinik Xəstəxanası,CLINIC,"Nərimanov ray.Təbriz küç., 1959-cu məhəllə",0709060906,40.40364785643616,49.867436875527076,Bakı,Bakı,AIIC
Olimp Hospital,CLINIC,İnşaatçılar prospekti 8-10,0995388800,40.37577125813201,49.81702897552568,Bakı,Bakı,AIIC
Ömürdən pay Klinikası,CLINIC,Bərdə şəhəri N. Nərimanov 2,,40.50266971768785,46.890684114314716,Bakı,Bakı,AIIC
Only Dent MMC,CLINIC,"Bakı şəh., H. Zərdabi pr. mən 70",,40.37987608995059,49.814979692333395,Bakı,Bakı,AIIC
Ortopediya Pediatriya klinikası,CLINIC,"Nərimanov ray.,Atatürk prospekti 140",0707584040,40.4128396,49.84833359999999,Bakı,Bakı,AIIC
Qarabağ Klinik,CLINIC,"Bərdə şəh.,H.Əliyev pr. 124A",0504614000,40.361796358981685,47.12509537552493,Bərdə,Region,AIIC
Real Tibb Mərkəzi,CLINIC,"Sumqayıt şəh., N. Narimanov küç.,45-ci məh., bina 14",0186424580,40.58032109999999,49.5285371972656,Sumqayıt,Region,AIIC
Referans Binəqədi filialı,CLINIC,"Bakı şəh., Binəqədi ray., Azadlıq pr.167",*0033,40.41761505558625,49.833473575527755,Bakı,Bakı,AIIC
Referans Klinik Laboratoriya Mərkəzi & Poliklinik (Mərkəz filialı),CLINIC,"M.Məmmədzadə küç., 8A",0123100022,40.36936258481834,49.811483942326646,Bakı,Bakı,AIIC
Referans Poliklinik Mərdəkan filialı,CLINIC,"Xəzər ray., Mərdəkan qəs., Yesenin küç. 58",*0033,40.48772055131634,50.15190507553124,Bakı,Bakı,AIIC
Referans Poliklinik Nəsimi filialı,CLINIC,"Nəsimi ray., M.Mirqasımov küç. 25 A",0708060033,40.394912256967615,49.8353814755267,Bakı,Bakı,AIIC
Referans Poliklinik Əhmədli filialı,CLINIC,"Xətai ray., M.Hadi küç. 229 D",0706530033,40.38176705776728,49.95166247552597,Bakı,Bakı,AIIC
Referans Qəbələ Tibb Mərkəzi,CLINIC,"Qəbələ ray., Abbas Səhhət küç. 25 A",0773450033,40.96715692195675,47.84071237555608,Qəbələ,Region,AIIC
Respublika Diaqnostika Mərkəzi,CLINIC,"20 Yanvar m/st., Tbilisi prospekti, 147",+994 50 229 81 90,40.393823,49.806635,Bakı,Bakı,AIIC
Sağlam Ailə Medical Center,CLINIC,"Nərimanov ray.,C. Cabbarlı küç 24",,40.38139750758618,49.82956308145148,Bakı,Bakı,AIIC
Sağlam Ailə Medical Center 28 May filialı,CLINIC,Rəşid Behbudov küçəsi 56,0124401300,40.38187034418049,49.84204959898452,Bakı,Bakı,AIIC
"Sağlam Ailə Medical Center Mikrorayon ""Ultralab"" filialı",CLINIC,Asif Məhərrəmov küç.156C,0124401300,40.409699200000006,49.770133974316416,Bakı,Bakı,AIIC
Sağlam Ailə Medical Center Nərimanov filialı,CLINIC,"Əhməd Rəcəbli küçəsi 3,10",0124401300,40.4094608560824,49.85945367552734,Bakı,Bakı,AIIC
Sağlam Diş Stomotoloji Mərkəz Bakıxanov Filialı,CLINIC,"Bakıxanov qəs., S.Qocayev küç.,39A",,40.41686255563213,49.96184937552776,Bakı,Bakı,AIIC
Sağlam Diş Stomotoloji Mərkəz Qarayev Filialı,CLINIC,"Nizami ray., Əlif Hacıyev küç. 15",,40.4153116,49.913429987158224,Bakı,Bakı,AIIC
Sağlam Diş Stomotoloji Mərkəz Yasamal Filialı,CLINIC,"Yasamal ray., Tbilisi pr.49B",0125250050,40.394850956971446,49.814660475526615,Bakı,Bakı,AIIC
Sağlam Təbəssüm,CLINIC,"AZ5500,Şəki şəh.,A. Məmmədov,ev 18A",,41.20683830717566,47.173308175568536,Şəki,Region,AIIC
SEBA Fito (Koreya Şərq Təbabəti),CLINIC,"Bakı şəh., Neftçilər pr. 65",,40.360061659087215,49.83089187552471,Bakı,Bakı,AIIC
SNN Medical klinikası,CLINIC,"Yasamal ray., Fuad İbrahimbəyov küç . 12",0552132564,40.374662656946036,49.722994533888155,Bakı,Bakı,AIIC
Starlab Tibb Mərkəzi,CLINIC,"Nəsimi ray.,20 Yanvar küç.9A",0124311314,40.41274855588245,49.80729937552761,Bakı,Bakı,AIIC
Stimul Hospital,CLINIC,"Sabunçu ray. Bakıxanov qəs.,Yavər Əliyev küç 26",0125653838,40.43369415460746,49.95384017552861,Bakı,Bakı,AIIC
SWISS Dent,CLINIC,"Bakı şəh.,Yasamal ray. A.M.Şərifzadə küç. 34.",0998303200,40.37455705820579,49.80282097552555,Bakı,Bakı,AIIC
Səhhət Klinikası (Azərbaycan-Almaniya tibb klinikası),CLINIC,"Nizami ray.,Qara Qarayev Prospekti 125",0124478555,40.396008756901004,49.95138767552662,Bakı,Bakı,AIIC
Tofiqoğlu Tibb Mərkəzi,CLINIC,"Xaçmaz şəh. N.Nərimanov küç,ev 23A",,41.4611343914183,48.796488375581916,Bakı,Bakı,AIIC
Turan Klinikası,CLINIC,"Xətai ray.Əhmədli qəsəbəsi,Sarayevo küç.184.",0123700524,40.38629075749213,49.956654575526215,Bakı,Bakı,AIIC
Türk-American Medical Center,CLINIC,"Nəsimi ray.,Mərdanov qardaşları 52",0502224459,40.401802456548396,49.83091207552695,Bakı,Bakı,AIIC
Unikal klinikası,CLINIC,"Sumqayıt şəh., 5001",0186424655,40.57610284592483,49.676528075535856,Sumqayıt,Region,AIIC
Vest Hospital,CLINIC,"Bakı şəh., Binəqədi ray., Şövkət Məmmədova 52",0124047606,40.42497935513809,49.844054975528046,Bakı,Bakı,AIIC
Xüsusi Müalicə Sağlamlıq Kompleksi,CLINIC,"Səbayıl ray., Badamdar Sossesi 31",012 493 81 25,40.35300685951601,49.806730875524465,Bakı,Bakı,AIIC
Yaşam Tibb Mərkəzi,CLINIC,"Nərimanov ray.,Fətəli xan Xoyski 92A",0702734747,40.40200515653618,49.85830237552707,Bakı,Bakı,AIIC
Yeni Gəncə Tibb Mərkəzi,CLINIC,"Gəncə şəh., 28 May küçəsi",0505590303,40.68524673925375,46.32913637554151,Gəncə,Region,AIIC
Zubar -stomatoloji klinika,CLINIC,"Bakı şəh.,Xətai ray.,Gəncə pr. 29/30,mən. 8",,40.35498175939602,49.95900287552459,Bakı,Bakı,AIIC
“Uni” Klinika,CLINIC,"Bakı, B.Ağayev küçəsi, 115",0503930555,40.377038358054875,49.81587907552574,Bakı,Bakı,AIIC
20 Yanvar,PHARMACY,Zərdabi ilə M.Həsənov küç kəsişməsi 3165 məhəllə,"(012)431-87-00, 055-455-69-51",40.403814663004965,49.80234359952782,Bakı,Bakı,AIIC
5 N-Li,PHARMACY,Fətəli Xan Xoyski pr.,,40.40417528534018,49.86468193871813,Bakı,Bakı,AIIC
Almaz/Xacmaz,PHARMACY,"Xaçmaz rayon N.Nərimanov küç. (""Tofiqoğlu""klinikasinin yanı)","(02)33-25-42-89, (055)-455-85-96",41.457354,48.791083,Bakı,Bakı,AIIC
Aptek 100,PHARMACY,"Bakı şəh., Nizami ray., Qara Qarayev prs 74 H",,40.41157368116934,49.92618260630126,Bakı,Bakı,AIIC
Aptek 5plus,PHARMACY,"Bakı şəh., Yasamal ray., Ş.Qurbanov küç. 2, qapı 4",,40.37619855810598,49.82950417552563,Bakı,Bakı,AIIC
Aran-Biləsuvar,PHARMACY,"Biləsuvar şəh., H.Əliyev küç., ev 40 E",,39.459578046422834,48.54426380732261,Biləsuvar,Region,AIIC
Badamdar Poliklinika,PHARMACY,XMSK,(012)-502-41-53,40.34205711018148,49.806821275589066,Bakı,Bakı,AIIC
Bahar Pharma,PHARMACY,"Bakı şəh., Nəsimi ray., Rəşid Behbudov küç., ev 59, mən. 60",,40.380201857862374,49.841346875601545,Bakı,Bakı,AIIC
Balzam,PHARMACY,"Xirdalan şəh., M.Rəsulzadə ev 1, mən.1 (Uşaq poliklinikası və Günay mərasim evinin yanı)","(012)342-47-19, 055-455-81-26",40.46273645014208,49.70914306654437,Absheron,Bakı,AIIC
Darçın Aptek Buta 60,PHARMACY,"M.Qaşqay küç., ev 63a, mən. 1 (Medical Plazanın yax.)",,40.38665105215214,49.80494154136061,Bakı,Bakı,AIIC
Darçın Aptek Buta 87,PHARMACY,H.Abbasov küç. 22 (Lider TV yax.),,40.38656755747533,49.812666475526115,Bakı,Bakı,AIIC
Darçın Aptek Dokta 327,PHARMACY,"Nərimanov ray., F.X.Xoyski pr. ev 130 m. 3",,40.402897456481874,49.86498987552702,Bakı,Bakı,AIIC
Darçın Aptek Zeytun 152,PHARMACY,H.Salmani 1 (Neftçilər xəstəxanasının arxa girişi),,40.41066345513065,49.94104741337318,Bakı,Bakı,AIIC
Darçın Aptek Zeytun 533,PHARMACY,M.Həsənli 15,,40.40723,49.854583000000005,Bakı,Bakı,AIIC
Darçın Aptek,PHARMACY,Şərifzadə 273A-273E (İnşaatçılar metrosunun çıxışı),,40.39092817383974,49.80307519471868,Bakı,Bakı,AIIC
Darçın Aptek (Nail Aptek) Buta,PHARMACY,Binəqədi rayonu C.Ramazanov ev 2 b (Binəqədi mərkəz),,40.47423305213826,49.82076307553068,Bakı,Bakı,AIIC
Darçın Aptek Buta 160,PHARMACY,N.Hikmət küç. ev 24 (Yasamal Asan xidmətin yanı),,40.37899855793578,49.80160067552577,Bakı,Bakı,AIIC
Darçın Aptek Dokta,PHARMACY,"Binəqədi ray., Svetlana Məmmədova ev 201",,40.424720455153754,49.823523875528146,Bakı,Bakı,AIIC
Darçın Aptek Dokta 182,PHARMACY,M.Müşfiq küç. ev 10 m. 44,,40.35664390103735,49.79342157670461,Bakı,Bakı,AIIC
Darçın Aptek Dokta 206,PHARMACY,Darçın Aptek Dokta 206,,40.38020185786242,49.84134687552589,Bakı,Bakı,AIIC
Darçın Aptek Zeytun 323,PHARMACY,N.Yusifbəyli 90 a (Bakı Sağlamlıq Mərkəzi ilə üzbəüz),,40.398748307445,49.838804310597055,Bakı,Bakı,AIIC
Darçın Aptek Zeytun Abşeron 19,PHARMACY,"Xırdalan şəh., H.Əliyev pr. ev c",,40.45971100859673,49.72348489472881,Absheron,Bakı,AIIC
Dərnəgül,PHARMACY,"Binəqədi, Səttar Bəhlulzadə ev.20A, m.17",.,40.415309,49.844603,Bakı,Bakı,AIIC
Enerji,PHARMACY,"Bakı şəh, Nərimanov ray. Xan Şuşinski küç, ev.90G",,40.39339088344395,49.8334419833383,Bakı,Bakı,AIIC
Enterol,PHARMACY,"Baki ş., Xətai ray., M. Hadi küç. 41",,40.37852745796444,49.9425289755258,Bakı,Bakı,AIIC
Enziten,PHARMACY,"Bineqedi ray. H.Huseynov ev 13 (Tergül ticarət mərkəzi ile üzbəüz, Medera hospitalın yanı)","(012)-492-89-78, 055-455-90-61",40.407402,49.811149,Bakı,Bakı,AIIC
Favorit,PHARMACY,"Bakı şəh., Bakıxanov qəs, Sülh küç, 1D",,40.41456615157088,49.95218530325266,Bakı,Bakı,AIIC
Ferromed,PHARMACY,"Q.Qarayev pr-ti ev. 26 menzil 15 (Q.Qarayev metrosunun Ezizbeyov terefden cıxışı ""İrsad Telecom""-un arxası.)","(012)-323-43-64, (055)-455-85-97",40.407367,49.88061,Bakı,Bakı,AIIC
Funda Aptek,PHARMACY,"Bakı şəh., Montin,Hidayətzadə küç. 163",,40.38231095773418,49.841336675525994,Bakı,Bakı,AIIC
General,PHARMACY,"Baki şəhəri.Xətai rayonu.X.Məmmədov ev 32A ( Neptun marketlə üzbəüz ,Sərhədçinin yanı)","(012)-371-77-40, 055-455-81-07",40.37831631548163,49.94080918003141,Bakı,Bakı,AIIC
Gömrük Aptek,PHARMACY,"Yasamal ray., K.Kazımzadə küç. 118",,40.37814435798761,49.80887937552573,Bakı,Bakı,AIIC
Günəbaxan,PHARMACY,"Bakı şəh.,Yasamal ray., F.Ağayev ev 5",,40.38972645728312,49.85304377552635,Bakı,Bakı,AIIC
Güvən,PHARMACY,Baki şəhəri Yeni Yasamal qəs.Ə.Əhmədov4. (Albalı uşaq bağçasının yanı. English schoolun yanı),"(012)-505-82-39, 055-455-56-08",40.393403,49.787797,Bakı,Bakı,AIIC
Gəncə A.S.,PHARMACY,4mkr-n M.Xələfov küç.,"(022)2-65-12-42, 055-455-90-68",40.695685,46.378927,Bakı,Bakı,AIIC
Gəncə/Gönçə,PHARMACY,"Gəncə şəh., Kəpəz r-nu, H.Əliyev pr ilə Atatürk pr. kəsişməsi ""Ailə və Nigah"" tibb mərkəzi və ""Əminə ""marketin yanı.","(022)255-10-39, (055)-455-85-49",40.69445174453152,46.298636976907034,Gəncə,Region,AIIC
Harmony,PHARMACY,28 May 11 menzil 27 (Dilarə Əliyeva küçəsi 214),"(012)498-67-35, 055-455-90-70",40.379047,49.854259,Bakı,Bakı,AIIC
İmmuno,PHARMACY,İmişli ray.H.Əliyev pr-ti.ev 164A (Kapital Bankla üzbəüz),"(021)-246-12-07, 055-455-90-57",39.865253,48.063277,İmişli,Region,AIIC
İşıq,PHARMACY,"Bakı şəh. Bakıxanov qəs., 4081-ci məh. Gənclər küç",,40.443816949352616,49.97594531019071,Bakı,Bakı,AIIC
İzmir,PHARMACY,Baki şəhəri.Yasamal ray.Haqverdiyev ev11 (Kaspar xəstəxanası ilə üzbəüz),"(012)-539-20-52, 055-455-58-16",40.380253,49.812708,Bakı,Bakı,AIIC
Kanon,PHARMACY,"Bakı şəh., Nəsimi ray., A.Mirqasımov 2 (ATU-nin yanı.Nəsimi Rayon icra hakimiyyətinin keçmiş binası.)","(012)449-46-64, (055)-455-85-39",40.394,49.835,Bakı,Bakı,AIIC
Kanon/Lutemax,PHARMACY,"Bakı şəh., Yasamal ray., Şərifzadə küçəsi 100","(012)432-39-93, (055)-455-85-38",40.381715,49.802695,Bakı,Bakı,AIIC
Kanon/Stimol,PHARMACY,"Sumqayıt şəh., 2-ci mkr, Sülh küçəsi (Heydər Əliyev heykəlinin yanı.""Sputnik""t/m ilə üzbəüz)","(018)644-35-83, 055-455-89-00",40.58617186518509,49.670208074186334,Sumqayıt,Region,AIIC
Kardio,PHARMACY,"Bakı şəh., Səbail ray., Parlament pr. ev 76",(012)-492-79-19,40.361422,49.822648,Bakı,Bakı,AIIC
Leç.Komissiya,PHARMACY,Z.Əliyeva 5/Azərbaycan 5,,40.36866817571115,49.83699187502834,Bakı,Bakı,AIIC
Lökbatan,PHARMACY,"Qaradağ r-nu, Lökbatan qəsəbəsi, 28 May küç.","012-445-55-73, 055-455-89-10",40.32231747937625,49.73061391505124,Bakı,Bakı,AIIC
Lənkəran,PHARMACY,Nizami küç.,,38.75684935498574,48.84052267544426,Bakı,Bakı,AIIC
Masalli-1,PHARMACY,"Masalli ray., 20 Yanvar küç.,Iskeəndərli dairəsi",,40.420932255384315,49.727914775527985,Masallı,Region,AIIC
Medical,PHARMACY,"Baki şəhəri., Nərimanov ray., M.Əlizadə və Ə.Rəcəbli paralel küç.",,40.4092864448247,49.85946996917741,Bakı,Bakı,AIIC
Medical City (+online),PHARMACY,"Bakı şəh., 28 May küç.13",,40.37985013213876,49.84381064786602,Bakı,Bakı,AIIC
Metropark yeni,PHARMACY,"Nərimanov r-nu, Təbriz ev 99",,40.39546785693389,49.85882887552666,Bakı,Bakı,AIIC
Mingəçevir/Xəmsə,PHARMACY,"Mingəçevir şəh., H.Əliyev pr. 51 Q",,40.76713323423936,47.054205775545775,Mingəçevir,Region,AIIC
Mərdəkan,PHARMACY,Avtovağzal ərazisi,,40.41954955382686,49.79184814342084,Bakı,Bakı,AIIC
Nar,PHARMACY,"Bakı şəhəri, Nərimanov rayonu, Ağa Neymətulla küçəsi 63",,40.406322005441254,49.862783843418256,Bakı,Bakı,AIIC
Naturalist,PHARMACY,"Bakı şəh., Səbail ray., Əhməd Cavad küç. 22 (""MUM""-un yanı.)","(012)492-23-17, (055)-455-85-37",40.369071,49.829926,Bakı,Bakı,AIIC
Nefron,PHARMACY,"Bakı şəh., Əhməd Cavad küç. ev 32, mən. 2",,40.369071158539406,49.82954007552532,Bakı,Bakı,AIIC
Neftçilər ATS,PHARMACY,Mehti Mehtizadə və Yusif Səfərov küç-nin kəs.,"(012)489-51-84(85), (055)-455-88-01",40.382506,49.861725,Bakı,Bakı,AIIC
Nizami,PHARMACY,"Yasamal ray.S.Esgerova ev 79,m22 (Nizami metrosunun sağ tərəfdən çıxışında)","(012)-596-72-88 , 055-455-81-44",40.37878586587139,49.82802031476109,Bakı,Bakı,AIIC
Nur,PHARMACY,"Bakı şəh., .Xətai ray., Xocalı pr. ev 34",,40.38349215766231,49.873528775526104,Bakı,Bakı,AIIC
Nəsir,PHARMACY,"Bakı şəh., Nərimanov ray., Asif Məmmədov 30 D",,40.39431095700438,49.878438575526594,Bakı,Bakı,AIIC
Nəsir Aptek,PHARMACY,"Nərimanov ray., A.Məmmədov küç. ev 30D",,40.40813996607108,49.85495464653425,Bakı,Bakı,AIIC
Okean,PHARMACY,"Bakı şəhəri, Yasamal ray., B.Bağırova küç.14",,40.38423018594608,49.82484068871793,Bakı,Bakı,AIIC
Oskar,PHARMACY,"Bakı şəh., Binəqədi ray., Mir Cəlal küç. 72",,40.41714855561453,49.8046057755277,Bakı,Bakı,AIIC
Premium Aptek ( keçmiş Torqoviy Aptek),PHARMACY,"Bakı şəh.,Səbail ray. Z.Əliyeva küç. 29",,40.371052458418895,49.84133587552546,Bakı,Bakı,AIIC
Primorsk-1,PHARMACY,"Sahil qəs., Məhərrəm Seyidov küç.",,40.22865986706519,49.57753817559375,Bakı,Bakı,AIIC
Primorski-2,PHARMACY,"Sahil qəs., Z. Qasimov küç. ev 24",,40.222284067451824,49.569759975517705,Bakı,Bakı,AIIC
Qazax-2,PHARMACY,H.Eliyev kucesi 71 (Keçmiş böyük xəstəxana ile üzbəüz),"(022)295-13-13, 055-455-81-69",41.09488300669963,45.34792099422358,Bakı,Bakı,AIIC
Quba-1,PHARMACY,Tofiq Əhmədov küç. Bazar ərazisi,"(023)33-5-46-84, 055-455-90-83",41.361323005574555,48.527663314796065,Bakı,Bakı,AIIC
Quba-2,PHARMACY,Heydər Əliyev pr. (Avtovağzal ərazisi),,40.41045110602224,49.892761775527376,Bakı,Bakı,AIIC
Qusar-1,PHARMACY,Səfixan küç. Bazarin yani,"(023)38-5-57-64, 055-455-90-92",41.43192500119703,48.44073831479849,Bakı,Bakı,AIIC
Qəbələ,PHARMACY,"Qəbələ şəh., H. Əliyev pr.",055-455-91-75,40.984804551434664,47.81977947322225,Qəbələ,Region,AIIC
Razin Yeni,PHARMACY,"Bakı şəh., Sabunçu ray., Bakıxanov qəs., Gənclər küç. ev 27 C (İcra hakimiyyətinin yanı)","012-428-96-03, 055-455-81-72",40.41825,49.964234,Bakı,Bakı,AIIC
Retro,PHARMACY,"Xəzər r-nu, Buzovna ŞTQ. Sabir ev 22A",,40.520214436169404,50.103276202636515,Bakı,Bakı,AIIC
Şirvan,PHARMACY,"Şirvan şəh., Fariz Eynullayev küç.",,39.91850987663325,48.922116775163424,Şirvan,Region,AIIC
Sumqayıt,PHARMACY,H.Əliyev pr./məhəllə 40,,40.581418584039454,49.67346299345431,Bakı,Bakı,AIIC
Sumqayit,PHARMACY,H.Əliyev pr./məhəllə 40,"(018)-644-09-29, 055-455-89-00",40.57635595384089,49.684460414768026,Bakı,Bakı,AIIC
Sunterra,PHARMACY,Bakı şəh. Xətai ray. Sarayevo küç. ev 18,,40.385721407526795,49.954628625526134,Bakı,Bakı,AIIC
Şəki,PHARMACY,"Məmmədəmin Rəsulzadə prospekti, Mərkəzi Xəst-nin qarşısı","024-24-4-39-56, 055-455-89-63",41.200293,47.173882,Bakı,Bakı,AIIC
Səma,PHARMACY,"Bakı şəh., Binəqədi ray., Ş.Məmmədova 6 E (Röya şadlıq sarayı ilə üzbəüz,Oazis şadlıq sarayının yanı.)","(012)562-61-16 , (055)-455-85-46",40.425014,49.826154,Bakı,Bakı,AIIC
Səməd Vurğun,PHARMACY,Səməd Vurğun 108,"(012)4415646, 055-455-81-73",40.393763,49.83244,Bakı,Bakı,AIIC
Tonus,PHARMACY,"Bakı şəh., Səbail ray., Bülbül pr., ev.7 (Sahil metrosunun cıxışında.)","(012)-598-52-79, (055)-455-85-36",40.37316,49.841967,Bakı,Bakı,AIIC
Torqoviy,PHARMACY,"Səbail r-nu, Nizami 98","(012)493-11-12, 055-455-81-75",40.371118966337725,49.83450931449086,Bakı,Bakı,AIIC
Urologiya,PHARMACY,"Səbail, İstiqlaliyyət küç, ev.49, m 6",.,40.368335,49.830484,Bakı,Bakı,AIIC
Urologiya,PHARMACY,"Səbail R-Nu, Əhməd Cavad 20","(012)492-89-78, 055-455-85-71",40.369262,49.83114500000001,Bakı,Bakı,AIIC
Viktoriya,PHARMACY,Baki şəh. Təbriz küç. 17,"(012)541-05-21, (055)-455-85-64",40.383553,49.84760500000001,Bakı,Bakı,AIIC
Vita bayıl,PHARMACY,"Səbail ray., Ə.Yaqubov küç. 6",,40.340671860265736,49.83452387552381,Bakı,Bakı,AIIC
Vita Yasamal Lider,PHARMACY,"Yasamal ray., Akademik Ş. Mehdiyev küç. 97",,40.393035057081896,49.81301107552655,Bakı,Bakı,AIIC
Vita Əhmədli,PHARMACY,"Xətai ray., Əhmədli qəs., M. Rüstəmov küç. 22",,40.38214083838915,49.94513910627713,Bakı,Bakı,AIIC
Vitamin,PHARMACY,"Bakı şəhəri, Nəsimi rayonu, H.Əliyev ev.4, mən.18","(012)430-00-14, (055)-455-87-85",40.39477,49.714874,Bakı,Bakı,AIIC
Xalqlar Dostluğu,PHARMACY,Xalqlar m/s-nun çıxışı (Qara Qarayev pr. 126 binanın arxası),(77) 255-5764,40.39764497936732,49.95026931505393,Bakı,Bakı,AIIC
Xirdalan,PHARMACY,"Xirdalan Qəs-si, H.Əliyev pr-ti 1, Bazarin yani","(012)349-45-25, 055-455-89-39",40.455249761220976,49.738818914763776,Absheron,Bakı,AIIC
Xırdalan Bravo,PHARMACY,"Heydər Əliyev pr., ev 240 (H. Əliyev parkı ilə üzbəüz, Bravo marketin yanı)",(77) 255-2766,40.45050547936113,49.7425554150557,Bakı,Bakı,AIIC
Xırdalan Kristal,PHARMACY,"H. Əliyev prosp., 30-cu məhəllə (Köhnə bazarla üzbəüz)",(77) 255-3630,40.45684519999999,49.71758133955076,Bakı,Bakı,AIIC
Yeni Günəşli,PHARMACY,"Suraxanı, Yaşayış sahəsi D, ev.13 A",.,40.37948637157841,49.96223671791418,Bakı,Bakı,AIIC
Yüksəliş,PHARMACY,"Yüksəliş Yaşayı Kompleksi 2A, bl. 3 (Urolab klinikası və Rahat maketlə üzbəüz)",(77) 408-0235,40.45261656419276,49.74511381717956,Bakı,Bakı,AIIC
Zabrat,PHARMACY,"Zabrat ŞTQ, Babək (Zabrat 1 qəs.) ev 46 m (Qızlar Liseyi №15 ilə üzbəüz ,Oba marketin yanı)",(77) 255-2758,40.46785307057698,49.94000192797346,Bakı,Bakı,AIIC
ZF Şirvan,PHARMACY,"Şirvan şəh., Fariz Eynullayev küç",,39.926468002178474,48.91404149319455,Şirvan,Region,AIIC
Zəfər-Bərdə,PHARMACY,"Bərdə şəh., Ü. Hacıbəyov küç",,40.3717560668551,47.10941529093811,Bərdə,Region,AIIC
Əcəmi 1,PHARMACY,"Nəsimi, Məmmədcəfər Cəfərov küç, məhəllə 3005, ev.16",.,40.408361,49.810419,Bakı,Bakı,AIIC
Əhmədli Butik,PHARMACY,"Bakı şəh., Xətai ray., Sarayev küç., 18 saylı binanın arxası, Turan klinikasının yaxınlığı.",(77) 255-5766,40.38599256463335,49.95754095611262,Bakı,Bakı,AIIC
Əhmədli Metro,PHARMACY,"Xətai r-ru, Məhəmməd Hadi küç.23/24","(012)-376-04-15, 055-455-85-94",40.388444,49.951675,Bakı,Bakı,AIIC
Əhmədli-2,PHARMACY,"Məhəmməd Hadi küç., 41 (Əhmədli m/s-nun çıxışı)",(77) 255-2753,40.385246279368744,49.95170101525667,Bakı,Bakı,AIIC
22 ƏSR STOMATOLOJI MƏRKƏZ .,CLINIC,"Sumqayıt şəh., 51- ci məhəllə Ismət Qayibov küç.",0124092327,40.56420930387956,49.70990942362721,Sumqayıt,Region,Ateshgah
32 GÖZƏL MMC,CLINIC,"Bakı şəh., H.Hacıyev küç, 12",+99(412)-595-34-14,40.3714988286407,49.833573237348915,Bakı,Bakı,Ateshgah
AB DENTAL,CLINIC,"Bakı, Qaradağ r-nu, Lökbatan, S.Orucov pr. 25/9",+994(70) 2542542,40.327357146076174,49.7239122453432,Bakı,Bakı,Ateshgah
Ankara Klinik - Health and Beauty MMC,CLINIC,"Bakı şəh, Nizami rayonu, Məhsəti Gəncəvi, 155",(+99410) 236-10-60,,,Bakı,Bakı,Ateshgah
APPRO HOSPITAL,CLINIC,"Bakı ş., Suraxanı rayonu, Yeni Suraxanı qəs., Mərkəzi küç.4T",+994 51 232 26 16,,,Bakı,Bakı,Ateshgah
APPRO LAB BAKI,CLINIC,"Bakı ş., Nəsimi ray., Abbas Səhhət küç. 40",+994 51 232 26 16,,,Bakı,Bakı,Ateshgah
APPRO LAB GƏNCƏ,CLINIC,"Gəncə şəhəri, Şah İsmayıl Xətai prospekti 50A",+99410 312 91 05,,,Bakı,Bakı,Ateshgah
AQS STOMATOLOGİYA,CLINIC,"Sumqayit, 13 mikrorayon",186563513,40.5675412362907,49.69532181613158,Sumqayıt,Region,Ateshgah
ASSMED TİBB MƏRKƏZİ,CLINIC,"Bakı şəh., Lökbatan qəs, Bünyatzadə küç, 3A",+99(412)-445-17-17 (101),40.32046152112997,49.73244712613897,Bakı,Bakı,Ateshgah
ATLAS TİBB MƏRKƏZİ MMC,CLINIC,"Bakı şəh., Xətai pr., 15",+99(412)-496-96-05,40.38745482267379,49.856464003516436,Bakı,Bakı,Ateshgah
ATU TERAPEVTİK MƏRKƏZİ,CLINIC,"Bakı şəh, Mərdanov qardaşları 100",+99(412)-449-91-23 (368),40.396948936987265,49.83166631079769,Bakı,Bakı,Ateshgah
ATU TƏDRİS CƏRRAHİYYƏ MƏRKƏZİ,CLINIC,"Bakı şəh, S.Vurğun küç 155",+99(412)-923,40.39258691997448,49.8339357819615,Bakı,Bakı,Ateshgah
AZEVROMED KLİNİKA MMC,CLINIC,"Bakı şəhəri, Suraxanı r-nu, Yeni Günəşli qəsəbəsi, 5 massivi, Samir Cəfərov küç., 2",,40.386742247577814,49.980561586385214,Bakı,Bakı,Ateshgah
BAKİ SAĞLAMLIĞ MƏRKƏZİ,CLINIC,"Bakı şəh., Azadlıq pr. 194",(012) 440 94 53,40.398771202712815,49.839735395453786,Bakı,Bakı,Ateshgah
Batıgöz Klinika,CLINIC,"Vaqif pr. 75A (Koroğlu parkının yaxınlığında), *4033",+994 12 310 40 33,40.392756248181065,49.84309402614153,Bakı,Bakı,Ateshgah
Butamed Medical MMC,CLINIC,"Salyan rayonu, Taleh Davudzadə küç., 123",0553670052,,,Salyan,Region,Ateshgah
Central Clinic MMC,CLINIC,"Xırdalan şəh, Abşeron r-nu, 30-cu məhəllə, 14",+994 50 777 69 99,,,Absheron,Bakı,Ateshgah
DENTAL ARTS STUDİO MMC,CLINIC,"Bakı şəhəri, Nərimanov r-nu, Məmməd Araz küç.111X",+99(412)-561-29-99 +99(412)-561-01-91,40.40922604159987,49.8476929385526,Bakı,Bakı,Ateshgah
DENTAL KLASSİK (MƏRKƏZİ KLİNİKA STOMATOLOGİYA),CLINIC,"Bakı şəh., Xəqani küç 46/2",+99(412)-492-42-02,40.37695868648954,49.85551756568978,Bakı,Bakı,Ateshgah
DENTAL MM,CLINIC,"Şirvan, Xəqani küç., 2",0212150030,39.96138218304194,48.94320997354351,Şirvan,Region,Ateshgah
DENTAL STUDIO,CLINIC,"Bakı şəh., Mehbalı Zeynalabdin küç 6",+994 12-598-28-87,40.38052877864486,49.85622227582203,Bakı,Bakı,Ateshgah
DENTAMED ESTETİK,CLINIC,"Bakı ş., 3 Koroğlu Rəhimov küçəsi",+99(450)-282-13-33,40.396413192787385,49.859613860723705,Bakı,Bakı,Ateshgah
DƏNİZ DİŞ,CLINIC,"Bakı şəh., Tolstoy küç, 137",+99(412)-596-59-04,40.37262395331605,49.83448698354432,Bakı,Bakı,Ateshgah
DƏNİZ OPTİKA,CLINIC,"N.Nərimanov r-nu, Ağa Neymatulla küç., 84C",+994 12 566 50 24,40.403202829753226,49.87067311940007,Bakı,Bakı,Ateshgah
EN CLİNİK,CLINIC,Baki ş. Xaqani küç.76 C,+99(412)-598-92-22,40.37575527952401,49.85256747543499,Bakı,Bakı,Ateshgah
Eskulap Dental,CLINIC,"Bakı şəh, Nizami r-nu, Q.Qarayev p-ti, 34/67 mən 29",012 4226391,,,Bakı,Bakı,Ateshgah
FALEZ OPTİK,CLINIC,"Bakı şəh, Nizami küç., 63 (Tarqoviy – Beynalxalq Bankın yanı)",+994 70 493 90 35,40.37177579889124,49.83574531518072,Bakı,Bakı,Ateshgah
FUNDA HOSPİTAL,CLINIC,"Bakı ş, N. Nərimanov ray.İ.Hidayətzadə 163",012-567-55-82 (400),40.39437158611418,49.87225182648696,Bakı,Bakı,Ateshgah
GOLD HOSPİTAL - OPTİKA,CLINIC,"Sumqayıt şəh., 10 mik Babək küçəsi 162",0555223020,,,Sumqayıt,Region,Ateshgah
GRAND RİVER STOMATOLOJI KLİNİKA,CLINIC,"Mingəçevir ş, H. Əliyev p-ti, 20",024 2730009,40.77368577767886,47.045733502824305,Mingəçevir,Region,Ateshgah
Great Smile Dental Clinic,CLINIC,"Bakı şəh, Xətai r-nu, General Şıxlinski 25",070 5817667,,,Bakı,Bakı,Ateshgah
GƏNCƏ MÜALİCƏ DİAQNOSTİKA MƏRKƏZ,CLINIC,Balabağman totanlı 17,222640909,40.65951295635301,46.33887827033096,Bakı,Bakı,Ateshgah
GƏNCƏ ŞƏHƏRİ BEYNƏLXALQ XƏSTƏXANASİ,CLINIC,"H.Əliyev pr., 258 A (KƏPƏZ polis idarə qarşısında)",22 255 38 38 (162 167 615),40.69539730549839,46.366294415344,Bakı,Bakı,Ateshgah
HAPPY DENT,CLINIC,"Bakı, Nəsimi r-nu, S.Rüstəm küç.",+99(412)-441-34-22 +99(450)-396-20-00,40.39052968365612,49.839678900593675,Bakı,Bakı,Ateshgah
Happy Smile,CLINIC,"Bakı şəh., Vladislav Plotnikov küç, 29",070 5010054,,,Bakı,Bakı,Ateshgah
Harmony Health Hospital,CLINIC,"Bakı şəh, Nəsimi r-nu, Salatın Əsgərova, 174",055 248 47 88,,,Bakı,Bakı,Ateshgah
HN Medical – Referans,CLINIC,"Quba şəh., Maksim Qorki küç, 68",773580033,,,Quba,Region,Ateshgah
HTC CLINIVA Hospital,CLINIC,"Bakı Şəh., Q.Qarayev pr, 84 (Metro Neftçilər)",(012) 323 95 01,40.40759071342095,49.94472537773006,Bakı,Bakı,Ateshgah
İMPLANT DENTAL,CLINIC,"Sumqayıt şəh., 6-cı mkr-n, Ç.Məmmədqulu-zadə küç.",+994124082196,,,Sumqayıt,Region,Ateshgah
INTERNATIONAL MEDICAL CENTRE BAKI MMC (BAKU MEDICAL PLAZA),CLINIC,"Bakı şəh., Babək pr-ti 92 N",+99(412)-909 (117),40.394404517076175,49.964886527993514,Bakı,Bakı,Ateshgah
İnternational Meducal Centre – Bakı (BMP VİP),CLINIC,"Bakı şəh, M.Rəfili və R.Beybutov küç, 389 saylı məhəllə",+994 55 2007059,,,Bakı,Bakı,Ateshgah
İSTANBUL NS ESTETİK KLİNİKASI MMC,CLINIC,"Baki Ş., Nərimanov R-Nu, Atatürk Pr-Ti, 140",(012) 4658500,40.412956994234946,49.84713462648753,Bakı,Bakı,Ateshgah
KARDİOMED,CLINIC,"Ağcabədi şəh., Həzi Aslanov, ev 94",070 7910400,40.043911,47.461129,Ağcabədi,Region,Ateshgah
Kəpəz Hospital –ŞAMA MMC,CLINIC,"Bakı ş, Nəsimi r-nu, C.Məmmədquluzadə küç, 101 A",0124496757,,,Bakı,Bakı,Ateshgah
LABSTYLE,CLINIC,"Zaqatala şəhəri, Vidadi küç, 34",070 2252971,41.628542,46.640371,Zaqatala,Region,Ateshgah
LEYLA ŞIXLİNSKAYANIN KLİNİKASI “NORD STAR”,CLINIC,"Bakı şəh., Y.Səfərov küç. 19",+99(450)-55014-14,40.38485768004694,49.86301212290089,Bakı,Bakı,Ateshgah
LOR HOSPİTAL (LOR),CLINIC,"Bakı şəh, Əhməd Rəcəbli küç. 19k",+99(412)-564-53-33,40.409803102663076,49.86331955497813,Bakı,Bakı,Ateshgah
Mayomed Reabilitasiya Mərkəzi,CLINIC,"Bakı şəh, Əhməd Rəcəbli, 207",012 4648693,,,Bakı,Bakı,Ateshgah
MEDERA HOSPİTAL,CLINIC,"Bakı şəh., Ə.Naxçıvani küç 13C .8-ci mikrorayon",+99(412)-563-56-12,40.41668780005658,49.841548026142334,Bakı,Bakı,Ateshgah
MEDERA STOM,CLINIC,"Bakı, Ə.Naxçıvani küç 13C .8-ci mikrorayon",+99(412)-563-56-12,40.41648267850851,49.84153898200695,Bakı,Bakı,Ateshgah
MEDİ SFERA,CLINIC,"Ağcabədi şəh., H.Əliyev, ev 2, mənzil 16",070 3534499,41.209589,48.995068,Ağcabədi,Region,Ateshgah
MEDİKUS CLİNİC -TAZA MMC,CLINIC,"Şirvan şəh. M.İbrahimov, 266",010 2123757,,,Şirvan,Region,Ateshgah
MEDİSTOM MMC,CLINIC,"Bakı şəh, Nəsimi r-nu, 28 May küçəsi, 68 B",077 5372475,,,Bakı,Bakı,Ateshgah
MEDSERVIS,CLINIC,"Bakı şəh., C. Məmmədquluzadə küç. 3",+99(450)-220-56-12,40.37927413008345,49.83320891079702,Bakı,Bakı,Ateshgah
MEL Klinika - VWonderful Life MMC,CLINIC,"Bakı, şəh, Nizami r-nu, Özbəkistan kuç, 9 D -Kristal - Abşeron yaşayış kompleksi, 7 ci bina, 1 ci mərtəbə",055-3007411,,,Bakı,Bakı,Ateshgah
MİLLİ İDMAN TİBBİ VƏ REABİLİTASİYA ELMİ-PRAKTİKİ İNSTİTUTU,CLINIC,"Bakı Ş, N. Nərimanov r-n, Olimpiya Küç., Ev 4 A",(012)4048310,40.399125172268796,49.8554769264871,Bakı,Bakı,Ateshgah
MİRVARİ,CLINIC,"Şirvan, T. İsmayilov 7 küçəsi",+994(55)378-80-01,,,Şirvan,Region,Ateshgah
MN GRUP (TRİDENT),CLINIC,"Bakı, Təbriz küç. 94",+99(450)-453-83-45,40.40273254215722,49.86667777478572,Bakı,Bakı,Ateshgah
MÜASİR STOMATOLOGİYA,CLINIC,"Sumqayıt şəhəri, Nizami küç 23/14",(+994 186) 55-48-98,40.59453586158767,49.66948415347932,Bakı,Bakı,Ateshgah
MƏRKƏZI GÖMRÜK HOSPITALI,CLINIC,"Bakı şəh., K.Kazimzadə küç 118, Az 1065",+99(412)-905,40.37832512135816,49.81882765497704,Bakı,Bakı,Ateshgah
MƏRKƏZİ KLİNİK XƏSTƏXANASI,CLINIC,"Bakı şəh., Parlament prospekti, 76",+99(412)-437-63-81,40.36178951035281,49.82481884633884,Bakı,Bakı,Ateshgah
MƏRKƏZİ NEFTÇİLƏR XƏSTƏXANASI,CLINIC,"Bakı şəh., Y.Səfərov küç, 17",+99(412)-404-28-40,40.38118556997235,49.86382222614116,Bakı,Bakı,Ateshgah
Mәlhәm Beynəlxalq Hospital,CLINIC,"Bakı, Nizami r-nu, Naxçıvanski küç. 433. AZ1118",+994 51 201 71 01,40.40775269964229,49.95483817217407,Bakı,Bakı,Ateshgah
N-KAY,CLINIC,"Xaçmaz, N. Nərimanov, 49",0233251854,41.46130994365518,48.7981420685076,Bakı,Bakı,Ateshgah
NEODENTAL,CLINIC,"Baki ş. Ziya Bünyatov pr-ti, H.Əmiroğlu 55 C",+99(412)-464-49-22,40.41291164660258,49.83816253706592,Bakı,Bakı,Ateshgah
ONLY DENT,CLINIC,"Bakı şəh., Mİrəli Seyidov 3138 məh., Korpus D",+99(412)-505-07-17,40.395381101798804,49.88219735869121,Bakı,Bakı,Ateshgah
PREMIUM DENTAL,CLINIC,"Bakı, Səttar Bəhlulzadə küçəsi",+99(412)-561-66-66,40.414178369545354,49.83613387607792,Bakı,Bakı,Ateshgah
REFERANS POLİKLİNİK MƏRDƏKAN FİLİALI,CLINIC,"Bakı şəh., Xəzər ray., Mərdəkan qəs., Yesenin küç. 58",+994124400033,40.49026918498248,50.150783768472934,Bakı,Bakı,Ateshgah
REFERANS POLİKLİNİK ƏHMƏDLİ,CLINIC,"Bakı şəh., Xətai ray., M.Hadi küç 229 D",+994 70 653 00 33,40.38213188191841,49.95421759426171,Bakı,Bakı,Ateshgah
REFERANS VIP FİLİALI,CLINIC,"Bakı şəh., Səbail ray.",Z.Əliyeva küç. 99-103,40.375056715832486,49.85538841264893,Bakı,Bakı,Ateshgah
Referans Xırdalan Tibb Mərkəzi,CLINIC,"Xırdalan şəh., H.Əliyev pr.167, AAAF Park",70 316 00 33,,,Absheron,Bakı,Ateshgah
RESPUBLIKA DIAQNOSTIK MƏRKƏZ,CLINIC,"Bakı şəh., Tbilisi prospekti, 147",+99412 530 90 29,40.399939947214826,49.81036481079778,Bakı,Bakı,Ateshgah
Rezonans MMC,CLINIC,"Bakı şəh, Xətai r-nu, Əhmədli qəsəbəsi, Ramiz Quliyev küç, 4",050 500 26 56,,,Bakı,Bakı,Ateshgah
RM Medicare Klinika MMC - Mərcan,CLINIC,"Bakı şəhəri, Məmməd Cəfər Cəfərov, 12",994 12 310 85 85,40.40666441963983,49.810937757640424,Bakı,Bakı,Ateshgah
SAF Hospital,CLINIC,"Bakı şəh., S.Vurğun küç., 138",+99(412)-4410301,40.39552212612923,49.833972268903196,Bakı,Bakı,Ateshgah
SAĞLAM DIŞ (MEDIKAL LIFE),CLINIC,"Bakı ş., Hüseyn Cavid 20",+99(412)-510-90-17,40.36753790336965,49.81732908165557,Bakı,Bakı,Ateshgah
SAĞLAM DIŞ (MEDIKAL LIFE),CLINIC,"Bakı ş., Sakit Qocayev küç., 39 A (Razin filialı)",+99(412)-488-06-41,40.417149974417406,49.96447635373171,Bakı,Bakı,Ateshgah
SAĞLAM DIŞ (MEDIKAL LIFE),CLINIC,"Bakı ş., Əlif Hacıyev, 15(Qara Qarayev filialı)",+99(412)-520-31-51,40.415964751619825,49.93265602211435,Bakı,Bakı,Ateshgah
SAĞLAM DIŞ (MEDIKAL LIFE),CLINIC,"Bakı şəh., Yasamal ray., 1054 -cü məhəllə, Tbilisi prospekti 49 B(Tbilisi filialı)",012-525-00-50,40.3950532682495,49.816971873990525,Bakı,Bakı,Ateshgah
SAĞLAMLİQ VƏ GÖZƏLLİK MƏRKƏZİ (VİTAL),CLINIC,"Bakı şəh, Dadaş Bünyadzadə 1",+99(412)-910,40.38903622749934,49.79282183963339,Bakı,Bakı,Ateshgah
SALYAN CLİNİC,CLINIC,"Salyan şəhəri, M.Dadaşov küç, 28",0554128309,39.593836,48.976159,Salyan,Region,Ateshgah
ŞIRVAN ŞƏHƏR MƏRKƏZI XƏSTƏXANASI,CLINIC,"Şirvan, Şirvan, Heydər Əliyev, 16",+99(455),39.95218866811962,48.93685075496215,Şirvan,Region,Ateshgah
Smile Boutique MMC,CLINIC,"Bakı şəh., Məmməd Rahim, 4A",010 2524342,,,Bakı,Bakı,Ateshgah
Solomed MMC,CLINIC,"Bakı şəh, Nərimanov r-nu, Əşrəf Əliyev küç, 19B",Whatsapp:+994 55 330-10-32,,,Bakı,Bakı,Ateshgah
STARLAB,CLINIC,"Bakı şəh., 19A 20 Yanvar",(012) 431 13 14,40.414040871784415,49.810568453271884,Bakı,Bakı,Ateshgah
STOMADENT,CLINIC,"Gəncə şəhəri, Atatürk pr-ti, 254, mən 42",+99 (455) 7713281,40.678341,46.356771,Gəncə,Region,Ateshgah
TUVA,CLINIC,"Masallı, Qızılavar kəndi",+994(50)324-83-81,38.96886109983511,48.66984131918934,Masallı,Region,Ateshgah
VEST Hospital MMC,CLINIC,"Bakı Şəh., Şövkət Məmmədova küç., 52",051 2448449,,,Bakı,Bakı,Ateshgah
VM-DENT Stomatolojı Mərkəz MMC,CLINIC,"Şəki şəhəri, Vagif İbrahim, 10",050 2295535,,,Şəki,Region,Ateshgah
WHİTE ESTETİC,CLINIC,"Bakı, 20 Afiyəddin Cəlilov küçəsi",+99(412)496-77-71 +99(412)496-77-72,40.37898599511761,49.8719966300245,Bakı,Bakı,Ateshgah
Xəzər Klinikası – “Sahib” MMC,CLINIC,"Bakı şəh., Q.Qarayev prospekti 69",+994 12 4220310,40.40812889042395,49.946076612650096,Bakı,Bakı,Ateshgah
Zəfəran Hospital – Azərimed,CLINIC,"Bakı şəhəri, Asif Məmmədov, 30",0559099977,,,Bakı,Bakı,Ateshgah
“A-Denta” Stomatolojı Klinika,CLINIC,"Zaqatala şəhəri, İmam Şamil küç, 13",+994 242253260,41.632694,46.654681,Zaqatala,Region,Ateshgah
“A-Denta” Stomatolojı Klinika Bakı,CLINIC,"Bakı şəhəri, Xətai r-nu, Fəzail Bayramov, 1156",+994 12 4896607,40.38526638694531,49.86837626043626,Bakı,Bakı,Ateshgah
“Apex Clinic” MMC,CLINIC,"Bakı ş., Yasamal r-nu, Həsən Məcidov keç., ev 12, məhəllə 589",+99412 525 48 47,40.384106253138576,49.81140513216668,Bakı,Bakı,Ateshgah
“AVRASIYA” HOSPITAL,CLINIC,"Bakı şəh., Həsən Əliyev, 15",+99(412)-449-64-20,40.39836954511635,49.828386968469715,Bakı,Bakı,Ateshgah
“BADAM MEDİCAL” MMC,CLINIC,"Bakı şəh, Səbail r-nu, Abbasqulu Abbaszadə küç., 13A",(012) 539 66 99,40.35266165517742,49.81332293963214,Bakı,Bakı,Ateshgah
“BİOLOJİ TƏBABƏT”,CLINIC,"Masallı şəhəri, E.Hüseynov küç.",+994(55)532-89-88,39.03420552110638,48.658999770274455,Masallı,Region,Ateshgah
“BİOLOJİ TƏBABƏT” TİBB MƏRKƏZİ,CLINIC,"Bakı, Nəsimi r-nu., 3 mkr, Cavad Xan küç. 30",+99(412)430-89-89(102),40.40850604494676,49.81533131079815,Bakı,Bakı,Ateshgah
“BİOLOJİ TƏBABƏT” TİBB MƏRKƏZİ,CLINIC,Göyçay şəh.,+994(55)259-70-90,40.65286663126385,47.740178268478616,Göyçay,Region,Ateshgah
“CASPIAN İNTERNATIONAL HOSPITAL” MMC,CLINIC,"Bakı, Badamdar qəsəbəsi, 1-ci yaşayiş massivi 31",+99(412)-502-59-16,40.343403856716584,49.81013315469451,Bakı,Bakı,Ateshgah
“DİAQNOZ” TİBB MƏRKƏZİ,CLINIC,"Bakı, Əhmədli qəs., Sarayevo, 38 C",+99(412)-370-04-64,40.386395516371856,49.96355212614127,Bakı,Bakı,Ateshgah
“DNK” MMC,CLINIC,"Gəncə şəh., 20 Yanvar küç., 52",022 -256- 45- 43,40.67325022282591,46.35516911265944,Gəncə,Region,Ateshgah
“DOBROMED” TİBB MƏRKƏZİ,CLINIC,"Bakı şəh., 4-cü mkr-on, H Seyidzadə küç. 31/32",+99(412)-430-43-03,40.41172281791518,49.80376656829716,Bakı,Bakı,Ateshgah
“DÜNYAGÖZ” TIBB MƏRKƏZİ,CLINIC,"Bakı şəh., Səbayil r., M. Hüseynov küç., 39",+994 12 404 44 69,40.34944552605502,49.83585512799672,Bakı,Bakı,Ateshgah
“EGE HOSPİTAL”,CLINIC,"Bakı şəh., H.Əliyev küçəsi, 38",+99412 599 11 17 (1158),40.3992485719143,49.83544701079774,Bakı,Bakı,Ateshgah
“EUROMED” TİBB MƏRKƏZİ,CLINIC,"Bakı şəh., Cavadxan küç., 17A",+99(412)-431-95-98,40.41227592710815,49.81462895497823,Bakı,Bakı,Ateshgah
“F-TƏBİB” TİBB MƏRKƏZİ,CLINIC,"Tovuz, Aşağı Öysüzlü, İ. Mürşüdov küç, 44",+994(50)351-55-89,,,Tovuz,Region,Ateshgah
“FATİMA H” (SƏDƏF),CLINIC,"Qaradağ r-nu, Sahil qəsəbəsi, Dostluq küc., 3",+99450 203 03 64,,,Bakı,Bakı,Ateshgah
“Fortis-İ” MMC – Bonum Medical,CLINIC,"Şəki şəhəri, Zərifə Əliyeva küşəsi",+994 50 663 00 88,,,Şəki,Region,Ateshgah
“GERMAN” HOSPITAL (ASTORIYA),CLINIC,"Bakı şəh., Ismayilbəy Qutqaşenlı kuc. 51",+99(412)-538-66-60,40.3696805909571,49.821028939632754,Bakı,Bakı,Ateshgah
“HAYAT CLİNİC” TİBB MƏRKƏZİ,CLINIC,"Bakı şəh, Mətbuat pr. 35A",+99(412)-404-14-04,40.3777551345061,49.808722268469,Bakı,Bakı,Ateshgah
“HB GÜVƏN” MMC,CLINIC,"Bakı şəh., Atatürk prospekti 3078 məh.",+99(412)-436-48-41,40.41666321040819,49.8445833447014,Bakı,Bakı,Ateshgah
“İNAM” TİBB MƏRKƏZİ,CLINIC,"Bakı şəh., Niyazi küçəsi 7",+99(412)-466-98-77,40.37575860270044,49.83893498375139,Bakı,Bakı,Ateshgah
“İNTERNATIONAL 1” TİBB MƏRKƏZİ,CLINIC,"Bakı şəh., B.Səfəroğlu küç., 183",+99(412)-596-13-91,40.37442389577263,49.83825561278445,Bakı,Bakı,Ateshgah
“İNTERNATİONAL 2” TİBB MƏRKƏZİ,CLINIC,"Bakı şəh., Aşıq Molla Cümə küç., 11B",+99(412)-566-55-74,40.403734419038116,49.86412378381387,Bakı,Bakı,Ateshgah
“KAMED-TM” MMC,CLINIC,"Sumqayıt şəh., AZ5000, S.Bədəlbəyli küç, 64",(+994 55) 3740202,40.572211063304266,49.67653195498385,Sumqayıt,Region,Ateshgah
“LİMAN GROUP” MMC,CLINIC,"Sumqayıt şəh., Səməd Vurğun küç 35A",+99(412)-448-06-00,40.58063964562373,49.689972839640106,Sumqayıt,Region,Ateshgah
“MEDEKS” (MEDİLAND) TIBB MƏRKƏZİ,CLINIC,Bakı şəh. Sabit Orucov küç. 57,+99(412) 488-74-15,40.38078333445074,49.87278205907312,Bakı,Bakı,Ateshgah
“MEDİKAN” TİBB MƏRKƏZİ,CLINIC,"Lənkəran, 20 Yanvar küç. 71",252550298,38.75473134703769,48.83752028375698,Lənkəran,Region,Ateshgah
“MEDİKA” HOSPİTAL,CLINIC,"Bakı şəh., N.Tusi küç. 21",+99(412)-379-87-07,40.3693464623444,49.96259361264874,Bakı,Bakı,Ateshgah
“MEDİSAN”,CLINIC,"Imişli, H.Əliyev pr, 131",+994(70)-246-10-70,39.87077556664319,48.06197058332945,Bakı,Bakı,Ateshgah
“MEDISTYLE” HOSPITAL,CLINIC,"Bakı şəh., Akademik Həsən Əliyev küç 116",+99(451)-979-00-01,40.40712695323116,49.86325898381405,Bakı,Bakı,Ateshgah
“MİLANA” HOSPİTAL,CLINIC,"Bakı şəh., Nərimanov rayon, Əhməd Rəcəbli 1\21",+99(412)- 409 90 91,40.41073410017669,49.86232739915803,Bakı,Bakı,Ateshgah
“MODERN” HOSPITAL,CLINIC,"Bakı şəh., Babək prospekti, 79",+99(412)-570-20-20(200),40.395661198491695,49.948065051273616,Bakı,Bakı,Ateshgah
“MÜASİR DİAQNOSTİKA” KLİNİKASI,CLINIC,"Bakı şəh., Rəşid Behbudov küç 56",+99(412)-910,40.38286218451713,49.8431940684691,Bakı,Bakı,Ateshgah
“N.TUSİ” ADINA KLİNİKA MMC,CLINIC,"Bakı şəh., Ş.Zərdabi küç. 53",+99(412)-432-24-16,40.39800870484129,49.805303095453695,Bakı,Bakı,Ateshgah
“NATİONAL PRİMEHOSPİTAL” MMC,CLINIC,"Bakı şəh., A.Rəcəbli küç.3, 30",(+99412) 4648787,40.410794153097314,49.85976344148611,Bakı,Bakı,Ateshgah
“NƏBZ” TİBB MƏRKƏZİ,CLINIC,"Bakı şəh., Q.Qarayev pr., 31",+99(412)-421-38-55,40.417842571555724,49.935479026142474,Bakı,Bakı,Ateshgah
“OKİ” KLİNİKASI,CLINIC,"Qusar şəh., F.Musaev küç. 27",023-38-529-15,41.425997438248494,48.43074307988621,Qusar,Region,Ateshgah
“OKSIGEN” TIBB MƏRKƏZI MMC,CLINIC,"Bakı şəh., Nərimanov r-nu, 1959-cu məhəllə",+99(412)-906 (311),40.403725245164075,49.870020304127266,Bakı,Bakı,Ateshgah
“ÖMÜRDƏN PAY” TİBB MƏRKƏZİ,CLINIC,"Bərdə, Nərimanov küç 2",(02020) 53100,40.634480199566795,46.9893859198605,Bakı,Bakı,Ateshgah
“REAL” TIBB MƏRKƏZI,CLINIC,"Bakı şəh., Zahid Xəlilov, 99",+99(412)-537-23-23(305),40.380780760318146,49.811101492177116,Bakı,Bakı,Ateshgah
“REAL” TİBB MƏRKƏZİ,CLINIC,"Sumqayıt şəh.., 45- ci məhəllə, 14 saylı bina",+99(412)-447-04-26,40.580498189259444,49.68096162985623,Sumqayıt,Region,Ateshgah
“REFERANS” MMC,CLINIC,"Bakı şəh., M.Mirqasımov 25A",+994124400033,40.39565743704328,49.837423035219636,Bakı,Bakı,Ateshgah
“REFERANS” MMC,CLINIC,"Bakı şəh., Nəsimi ray., M.Məmmədzadə 8A",+994124400033,40.40046657942085,49.87251569444521,Bakı,Bakı,Ateshgah
“SAĞLAM AİLƏ” ÖZƏL TİBB MƏRKƏZİ,CLINIC,"Bakı şəh., Əhməd Rəcəbli, küç. 3",+99(412)-510-91-34,40.4096446723574,49.86200713963411,Bakı,Bakı,Ateshgah
“SAĞLAM HƏYAT” TİBB MƏRKƏZİ,CLINIC,"Qəbələ, Elçin Kərimov küç 3.",024 205-03-52,40.97676257988521,47.85339826849019,Qəbələ,Region,Ateshgah
“Seba Fito Tibb” MMC ( Koreya Şərq Təbabəti Klinikası),CLINIC,"Səbail rayonu, Neftçilər pr, 65",(+994 12) 437-18-10,40.3603028368815,49.833466797304425,Bakı,Bakı,Ateshgah
“STİMUL” HOSPİTAL,CLINIC,"Bakı şəh, Yavər Əliyeva, 26 C",+99(412)-565-38-08,40.43394547081413,49.956367512650985,Bakı,Bakı,Ateshgah
“SUMQAYIT HOSPİTAL” MMC,CLINIC,"Sumqayıt şəh., 11-ci MKR, Çerkassi küç., 181",(+99418) 6568255,40.563209936961165,49.68463023963954,Sumqayıt,Region,Ateshgah
“SWISSDENT” MMC STOMATOLOJİ KLİNİKA,CLINIC,"Bakı şəhəri, Yasamal r-nu, Abbas Mirzə Şərifzadə, 34",+994124323200,40.37463614791304,49.80516723865141,Bakı,Bakı,Ateshgah
“ŞƏFALI ƏLLƏR” TİBB MƏRKƏZİ,CLINIC,"İmişli şəh., Ağamalıoğlu küç. 31",+994(50) 3348474,39.862643359251805,48.06739054624311,İmişli,Region,Ateshgah
“ŞƏFA” ÖZƏL TİBB MƏRKƏZİ,CLINIC,"Naxçıvan şəh., İdris Məmmədov küç., 1",(036) 5456432,39.2167447357,45.4073104934,Naxçıvan,Region,Ateshgah
“ŞƏFA” TİBB MƏRKƏZİ,CLINIC,"Mingəçevir, Xan Şuşinski küç 2A",(024)2753558,40.75953974916291,47.05464414018688,Mingəçevir,Region,Ateshgah
“SƏHHƏT” AZƏRBAYCAN - ALMANİYA KLİNİKASI,CLINIC,"Bakı şəh., Q.Qaraev küç. 103",+99(412)-370-60-42,40.39613541371527,49.95398405497759,Bakı,Bakı,Ateshgah
“TOFİQOĞLU” TİBB MƏRKƏZİ,CLINIC,"Хачмаз, ул. Н.Нариманова 23",023-32-555-93,41.46136674470209,48.798970210835535,Bakı,Bakı,Ateshgah
“TÜRK- AMERIKAN” TIBB MƏRKƏZI,CLINIC,"Bakı şəh., Yusif Vəzir Çəmənzəmənli, 18",99(412)-541-58-45,40.40216376342278,49.834431941485896,Bakı,Bakı,Ateshgah
“UNİKAL-A” MMC,CLINIC,"Bakı şəh., B.Ağayev küç. 115",+99(412)-510-91-34,,,Bakı,Bakı,Ateshgah
“UNİKAL” KLİNİKA,CLINIC,"Sumqayıt şəh., Bakı küç. 37, 44-cü məhəllə",+994(50)285-21-76,40.576221014376884,49.67922101450798,Bakı,Bakı,Ateshgah
“VİTA MED” MMC,CLINIC,"Biləsuvar r-nu, Mübariz İbrahimov küç, 224B",+994(51)795-00-08,39.45608663646513,48.54370032528409,Biləsuvar,Region,Ateshgah
“XÜSUSI MÜALICƏ SAĞLAMLIQ KOMPLEKSI” MMC,CLINIC,"Bakı şəh., Badamdar şossesi, 31",+99(412)-493-22-86,40.353190829885875,49.80931652614015,Bakı,Bakı,Ateshgah
“YASAMAL HOSPİTAL” MMC,CLINIC,"Bakı ş., Yasamal ray., M. Xiyabani küç., ev 15",(+99412)5650103,,,Bakı,Bakı,Ateshgah
“YAŞAM” TİBB MƏRKƏZİ,CLINIC,"Baki şəh., F.Хoyski 112",+99(412)-480-08-91,40.40213180207094,49.860898754977825,Bakı,Bakı,Ateshgah
”LABMED”,CLINIC,"Qazax r-nu, H.Əliyev pr-ti - 134",0222950552,41.09355666386067,45.36878736849455,Qazax,Region,Ateshgah
"""Gilas Optic"" 20-ci Sahə",CLINIC,Səbail r-nu,20-ci sahə dairəsi 39-40 (Bravo-nun yanı),40.330050404799024,49.81835446043662,Bakı,Bakı,Ateshgah
"""Gilas Optic"" 5 Mərtəbə",CLINIC,"Yasamal r-nu, Ş. Qurbanov küç., 2 (XİN-in yaxınlığı)",+994 77 489 23 03,40.3768559305307,49.83258774124706,Bakı,Bakı,Ateshgah
"""Gilas Optic"" 8 km",CLINIC,"Nizami r-nu., Cəmşid Naxçıvanski ev.81",+994 77 489 23 05,40.408363376009675,49.95452200413409,Bakı,Bakı,Ateshgah
"""Gilas Optic"" Ayna Sultanova",CLINIC,"Binəqədi r-nu, Atatürk pr. Ev 56 (Ayna Sultanova heykəli)",+994 77 489 99 02,40.41361393168641,49.8466759944084,Bakı,Bakı,Ateshgah
"""Gilas Optic"" Badam",CLINIC,"Səbail r-nu., Abbasqulu Abbaszadə küç.5A (Badam Medical Center ilə üzbəüz)",+994 77 489 09 32,40.35235539969024,49.81324555250557,Bakı,Bakı,Ateshgah
"""Gilas Optic"" Bayıl",CLINIC,"Səbail r-nu, Neftçi Qurban Abbasov ev 24A",+994 77 489 09 01,40.35005822601335,49.83456557334594,Bakı,Bakı,Ateshgah
"""Gilas Optic"" Elmlər",CLINIC,"Yasamal r-nu., K.Kazımzadə 123 məh., 563(Gömrük Hospitalı ilə üzbəüz)",+994 77 489 09 05,40.37816899387048,49.81846795320228,Bakı,Bakı,Ateshgah
"""Gilas Optic"" Gənclik",CLINIC,"Nərimanov r-nu, Fətəlixan Xoyski pr. Ev 106",+994 77489 99 04,40.40215573657433,49.85995349649492,Bakı,Bakı,Ateshgah
"""Gilas Optic"" Hövsan",CLINIC,"Hövsan qəs., İlqar Əhlimanov küç., (H.Əliyev parkının yanı)",+994 77 489 09 31,40.35714918370714,50.0736835569661,Bakı,Bakı,Ateshgah
"""Gilas Optic"" Həsən Əliyev",CLINIC,"Nəsimi r-nu., Həsən Əliyev 9 (Avrasiya Hospitalının yanı)",+994 77 489 23 01,40.39804967540636,49.82883335312575,Bakı,Bakı,Ateshgah
"""Gilas Optic"" Rəşid Behbudov",CLINIC,Nəsimi r-nu,28 May ev 14 (8 №-li məktəblə üzbə-üz),40.37511379090331,49.84603676845729,Bakı,Bakı,Ateshgah
"""Gilas Optic"" Xalqlar Dostluğu filialı",CLINIC,"Nizami r-nu, Bəhruz Nuriyev 49, Laçın T.M. Yanı",+994 77 489 09 30,40.40102164485169,49.95236814148588,Bakı,Bakı,Ateshgah
"""Gilas Optic"" Xəzər",CLINIC,"Xətai r-nu, Sadıqcan küç.15, Xətai Rayon Polis şöbəsinin yanı",+994 77 489 99 03,40.36062779633448,49.9544073479364,Bakı,Bakı,Ateshgah
Alazan Farm MMC Beşmərtəbə filialı,CLINIC,Bakı ş.Yasamal rayonu Şıxəli Qurbanov 2/15,(012) 595 74 42,40.458172807121144,49.75202019316954,Bakı,Bakı,Ateshgah
Alazan Farm MMC Neftçilər filialı,CLINIC,"Bakı ş. Nizami rayonu Qara Qarayev pr, ev 74 H",(012) 520 40 30,40.40937135827878,49.943597583814125,Bakı,Bakı,Ateshgah
Aptek Amelia- ZEYTUN №421,CLINIC,"20 yanvar, Tbilisi prospekti 3007-ci məhəllə (Bravo Hypermarketin yanı)",+994 55 667 96 98,40.40103747831783,49.81054821359584,Bakı,Bakı,Ateshgah
APTEK ONLİNE - DARÇIN,CLINIC,,099 207 88 17,,,Unknown,Region,Ateshgah
APTEK ONLİNE - DOKTA KASPİAN,CLINIC,"Bakı şəh., Səbail r-nu., Bülbül küç., 10(64)",+99412 498 -04-07,,,Bakı,Bakı,Ateshgah
APTEK PRIMORSK (ZƏFƏRAN),CLINIC,Z.Qasımov küç,+99(412) 446-64-33,40.224890363804455,49.576974206497844,Bakı,Bakı,Ateshgah
APTEK PRIMORSK (ZƏFƏRAN),CLINIC,"Sahil qəs, Məhərrəm Seyidov küç., ev 24",+99(412) 446 97 99,40.229461916782135,49.581879767575316,Bakı,Bakı,Ateshgah
CASPIAN İNTERNATIONAL APTEK MMC,CLINIC,"Bakı, Badamdar qəs., 1-ci yaşayiş massivi 31",+99(412) 502 50 18 (1160),40.34325976973797,49.810142616544134,Bakı,Bakı,Ateshgah
DARÇIN APTEK,CLINIC,H.Salmani 1,(012) 480-46-44,,,Bakı,Bakı,Ateshgah
DARÇIN APTEK,CLINIC,N.Yusifbeyli 90 A,(012) 441-37-91: 099 207 88 17,40.398084647277365,49.839268390699914,Bakı,Bakı,Ateshgah
DARÇIN APTEK,CLINIC,Nərimanov rayonu F.X.Xoyski pr. ev 130 m. 3,(012) 564-28-25,40.404512956466974,49.86661967510834,Bakı,Bakı,Ateshgah
DARÇIN APTEK,CLINIC,M.Müşfiq küç. ev 10 m. 44,(012) 537-05-58,40.36526461867309,49.819853225113924,Bakı,Bakı,Ateshgah
DARÇIN APTEK,CLINIC,N.Hikmət küç. ev 24,(012) 434-25-59,40.37935765045385,49.80475925850869,Bakı,Bakı,Ateshgah
DARÇIN APTEK,CLINIC,R.Behbudov küç. 64,(012) 441-18-87,40.38435394995957,49.84205132039602,Bakı,Bakı,Ateshgah
DARÇIN APTEK,CLINIC,"M.Qaşqay küç. Ev 63a, m 1",(012) 440-14-31,40.392590821949774,49.84305363724777,Bakı,Bakı,Ateshgah
DARÇIN APTEK,CLINIC,"Binəqədi rayonu, C.Ramazonov, ev 2b",(012) 411-51-91,40.431918261209574,49.852468261416696,Bakı,Bakı,Ateshgah
DARÇIN APTEK,CLINIC,Xırdalan şəh. H.Əliyev pr. ev c,(051)207-88-16,40.462128411892294,49.72636121769621,Absheron,Bakı,Ateshgah
DARÇIN APTEK,CLINIC,Şərifzadə 273A-273E,(012) 433-86-24,40.38866973613023,49.80262737427968,Bakı,Bakı,Ateshgah
DOKTA KASPİAN,CLINIC,"Bakı şəh., Səbail r-nu., Bülbül küç., 10(64)",+99 (412) 498 -04-07 +99 (451) 333-04-07,40.37186509441912,49.844954664908535,Bakı,Bakı,Ateshgah
DOKTA- BİLƏSUVAR № 647,CLINIC,"Biləsuvar rayonu, H.Əliyev küçəsi",070 354 10 14,,,Biləsuvar,Region,Ateshgah
DOKTA-CƏLİLABAD № 690,CLINIC,"Cəlilabad şəh., Heydər Əliyev Pr. Ev.184",055-305-66-00,,,Cəlilabad,Region,Ateshgah
DOKTA-GƏNCƏ № 728,CLINIC,"Gəncə şəh., Totanli Ev.10a",022-253-57-97,,,Gəncə,Region,Ateshgah
DOKTA-İMİŞLİ № 661,CLINIC,"İmişli şəh., Q.İsmayilzadə",055 284 78 77,,,İmişli,Region,Ateshgah
DOKTA-LƏNKƏRAN № 644,CLINIC,"Lənkəran şəh., Səmədzadə Küçəsi",025-255-02-57,,,Lənkəran,Region,Ateshgah
DOKTA-MINGƏÇEVIR № 800,CLINIC,"Mingəçevir şəh., Heydər Əliyev Prospekti 21a",024 27 4 89 50,,,Mingəçevir,Region,Ateshgah
DOKTA-ŞIRVAN № 591,CLINIC,"Şirvan şəh., 20 Yanvar Ev.26a",055 801 80 99,,,Şirvan,Region,Ateshgah
DƏDƏMİN,CLINIC,"Gəncə şəh., M.A. Abbaszadə 68",,40.67348551078971,46.3560916819714,Gəncə,Region,Ateshgah
FOKUS OPTİKA MMC,CLINIC,"Bakı şəh., Binəqədi ray., Cavadxan küç., 3245-ci məh.",(+994 77) 255 57 65,40.41972122071619,49.81818020101256,Bakı,Bakı,Ateshgah
FOKUS OPTİKA MMC,CLINIC,"Bakı şəh., Səbail ray., Bülbül Pr.10",(+994 77) 408 02 28,,,Bakı,Bakı,Ateshgah
FOKUS OPTİKA MMC,CLINIC,"Bakı şəh., Badamdar qəs., A.Abbaszadə küç. 13 A, “Badam Medical Center”daxilində",(+994 77) 255 57 46,40.35249869563623,49.813346938677924,Bakı,Bakı,Ateshgah
FOKUS OPTİKA MMC,CLINIC,"Bakı şəhəri, Q.Nəbi küçəsi, 3 A",(+99412) 376-18-56,40.39223081957044,49.95834356215712,Bakı,Bakı,Ateshgah
Optic Gallery,CLINIC,"Bakı şəh., Füzuli, 300",(+994) 51 291 36 44,,,Bakı,Bakı,Ateshgah
VITA NƏRIMANOV (VITA METROPARK),CLINIC,"Baki şəh., Təbriz, 99",+99(412) 566 19 49 +99(455) 250 86 40,,,Bakı,Bakı,Ateshgah
VİTA-YASAMAL №8,CLINIC,"Bakı şəh., Yasamal rayonu, Ə.Ələkbərov 97",+99(412) 533 04 76,,,Bakı,Bakı,Ateshgah
VİTA-ƏHMƏDLİ,CLINIC,"Bakı şəh., Xətai ray., M.Rüstəmov 22",+99(412) 570 78 42,40.384277783435195,49.961778315349584,Bakı,Bakı,Ateshgah
ZEYTUN APTEK,CLINIC,"Bakı şəhəri, M.Füzuli və R.Rza küçələrinin kəsişməsi, blok 3, 1-ci mərtəbə",012 594 25 05,,,Bakı,Bakı,Ateshgah
ZEYTUN APTEK № 313,CLINIC,"Qaradağ rayonu, Sahil qəsəbəsi, Emin Quliyev küç. 50",(012) 4092313,,,Bakı,Bakı,Ateshgah
ZEYTUN APTEK №75 (VİTRUM APTEK),CLINIC,"Bakı, Nizami r-nu, Qara Qarayev pr-ti, 33",012 421 40 85,40.41797406045671,49.93763476059923,Bakı,Bakı,Ateshgah
Zeytun Pharmaceuticals Aptek – 403- Sarğı,CLINIC,"Bakı şəh, Ak.F.Qasımov, 9 (Mustfa Topçubaşov, 24 A)",0123105588,,,Bakı,Bakı,Ateshgah
ZƏFƏRAN – AĞDAM,CLINIC,"Ağdam şəh., Quzanlı ərazisində",(+99426) 325 06 59,40.156861277059164,47.162467983805165,Ağdam,Region,Ateshgah
ZƏFƏRAN – GÖYÇAY,CLINIC,"Goycay şəh., H. Əliyev prospekti",02027-4-65-03,40.64914473771505,47.74797609233259,Goycay,Region,Ateshgah
ZƏFƏRAN – SUMQAYIT,CLINIC,"Sumqayıt şəh., H.Əliyev pr., məh. 40",(+99418) 644 09 29,40.583842937723446,49.67317570228989,Sumqayıt,Region,Ateshgah
ZƏFƏRAN- BƏRDƏ,CLINIC,"Bərdə şəh., Ü.Hacıbəyov küç 3",020-205-03-20,40.37265516417369,47.12630389059873,Bərdə,Region,Ateshgah
ZƏFƏRAN- GƏNCƏ,CLINIC,"Gəncə, Ə.Məmmədov, 3 N-li TTTY xidmətinin yanı",022-256-42-77,,,Gəncə,Region,Ateshgah
ZƏFƏRAN- LƏNKƏRAN,CLINIC,"Lənkəran, Nizami küç, Mərkəzi Poliklinikanı yanı",025-254-49-94,38.75912576824724,48.83864335336995,Bakı,Bakı,Ateshgah
ZƏFƏRAN- MINGƏÇEVIR,CLINIC,"Mingəcevir, H.Əliyev prospekti",024-275-62-28,40.764559824536,47.062064889205935,Bakı,Bakı,Ateshgah
ZƏFƏRAN- QAZAX,CLINIC,"Qazax, Heydər Əliyev küç. 71",022-29-5-13-13,,,Qazax,Region,Ateshgah
ZƏFƏRAN- QAZAX,CLINIC,"Qazax, Heydər Əliyev küç., ev 114 A",022-29-5-56-31,41.09272784124674,45.36610531165751,Qazax,Region,Ateshgah
ZƏFƏRAN- QUBA,CLINIC,"Quba şəh., H.Əliyev prospekti",023-335-35-89,,,Quba,Region,Ateshgah
ZƏFƏRAN- QUSAR,CLINIC,"Qusar şəh., Səfixanov küç, Bazarın yaxınlığında",023-385-57-64,,,Qusar,Region,Ateshgah
ZƏFƏRAN- ŞIRVAN,CLINIC,"Şirvan, F.Eynullayev küç.",021-215-34-68,,,Şirvan,Region,Ateshgah
ZƏFƏRAN- ŞƏKI,CLINIC,"Şəki, M.Rəsulzadə pr-ti",024-244-39-56,41.19732659103224,47.17529565315409,Şəki,Region,Ateshgah
ZƏFƏRAN- ŞƏMKIR,CLINIC,"Şəmkir şəh., 20 yanvar küç.",022-305-63-68,40.82607276717747,46.02960874574291,Şəmkir,Region,Ateshgah
ZƏFƏRAN- XAÇMAZ,CLINIC,"Xaçmaz, N. Nərimanov küç.",023-325-07-65,,,Bakı,Bakı,Ateshgah
ZƏFƏRAN- XAÇMAZ,CLINIC,"Xaçmaz, Nərimanov küç, Mərkəzi xəstəxana ilə üzbəüz",023-325-01-22,41.46162149961292,48.79858510934141,Bakı,Bakı,Ateshgah
ZƏFƏRAN- XMSK,CLINIC,"Bakı şəh., Badamdar şossesi, 31",+99(412) 502 41 53,40.35300152636144,49.80920752642207,Bakı,Bakı,Ateshgah
«ZƏFƏRAN- GƏNCƏ»,CLINIC,"Gəncə şəh., 4-cü mkr, N.M. Xələfov küç.",022-2-65-12-42,40.69638892597039,46.382610168566515,Gəncə,Region,Ateshgah
Alazan 5 mərtəbə,PHARMACY,"Şıxəli Qurbanov, 2/5",+994124977442,40.37629472340074,49.83243040238338,Bakı,Bakı,Meqa Sigorta
Alazan Aptek-100,PHARMACY,"Qara Qarayev, 74",+994125204030,40.409752,49.943385,Bakı,Bakı,Meqa Sigorta
Aloe+,PHARMACY,28 Mall 15a/4 Azadlıq prospekti Bakı 1010,+994 55 204 33 11,40.379192276465304,49.84731813806804,Bakı,Bakı,Meqa Sigorta
Aloe+,PHARMACY,"14 Fətəli Xan Xoyski, Bakı 1110",+ 994 55 204 33 99,40.40012723266531,49.85301321080063,Bakı,Bakı,Meqa Sigorta
Aloe+,PHARMACY,Bəhruz Nuriyev küçəsi 32 Bakı 1002,+994 99 204 44 03,40.40260683462452,49.95611670559637,Bakı,Bakı,Meqa Sigorta
Aloe+,PHARMACY,"İnşaatçılar m/s, 125a Abbas Mirzə Şərifzadə, Bakı 1138",+994 552044413,40.39065516958054,49.8031572896936,Bakı,Bakı,Meqa Sigorta
Aloe+,PHARMACY,İçərişəhər m/s 121 Lermontov küçəsi Bakı 1001,0992044408,40.36757380347002,49.82981564423064,Bakı,Bakı,Meqa Sigorta
Aloe+,PHARMACY,52 Rəşid Behbudov Küçəsi Bakı 1014,+994 552047766,40.37777462459022,49.84535099783002,Bakı,Bakı,Meqa Sigorta
Aptek Şirvan Azərimed,PHARMACY,Mərkəzi Xəstəxananın qapısının yanı,+994 021 2153468,39.95207147968818,48.936841101123775,Şirvan,Region,Meqa Sigorta
Azərimed Aptek Quba-2,PHARMACY,"Heydər Əliyev pr.,  Avtovağzal ərazisi",+994 0233353589,41.36117045818543,48.51088103029036,Quba,Region,Meqa Sigorta
Azərimed Aptek Şəki,PHARMACY,"M.Rəsulzadə pr., Mərkəzi Xəstəxananın qarşısı",+994 2443956,41.19640053816484,47.1763922589906,Şəki,Region,Meqa Sigorta
BAHAR OPTİK Optic Galery,PHARMACY,"N.Yusifbəyli küç., 86",+994123100912,40.376398069753925,49.834691117538455,Bakı,Bakı,Meqa Sigorta
Buta Bayıl,PHARMACY,Əhəd Yaqubov 6,+994124911155,40.33910679000786,49.83511531325078,Bakı,Bakı,Meqa Sigorta
Central Clinic,PHARMACY,"Abşeron ray., Xırdalan şəh., H. Əliyev pr. 30, Khirdalan",+994 507776999,40.45302028726425,49.733207551566004,Bakı,Bakı,Meqa Sigorta
Dədəmin Aptek,PHARMACY,"M.Abbas Abbaszadə küç.,Kukla Tetrın yaxınlığında",+994 552797365,40.673493639989594,46.3560809515783,Gəncə,Region,Meqa Sigorta
Ferromed,PHARMACY,"Nizami r-nu,Q.Qarayev prospekti ev. 26 menzil15",+994554558597,40.417876948682036,49.933573740574516,Bakı,Bakı,Meqa Sigorta
FOKUS OPTİKA MMC,PHARMACY,Süleyman Rəhimov 50,+994124965000,40.37685317819669,49.83252021396715,Bakı,Bakı,Meqa Sigorta
Göyçay Zəfəran,PHARMACY,Göyçay şəhəri Heydər  Əliyev prospekti,+994202746503,40.64925706785625,47.7478464562269,Göyçay,Region,Meqa Sigorta
Kanon,PHARMACY,Nəsimi ra-nu Mirqasımov 2,+994 124494664,40.39249638479552,49.8329571095378,Bakı,Bakı,Meqa Sigorta
MAJESTİK optika,PHARMACY,"Azərbaycan pr.-ti, 5",+994124928437,40.37063636792733,49.83403744100859,Bakı,Bakı,Meqa Sigorta
Mingəçevir/Xəmsə Aptek,PHARMACY,Heydər Əliyev pr 51Q,+994 0242758871,40.76880925872922,47.05587100224104,Bakı,Bakı,Meqa Sigorta
Modern Aptek,PHARMACY,"Babək pr.-ti, 86k",+994125700303,40.395538626266706,49.9481830668422,Bakı,Bakı,Meqa Sigorta
Naturalist Zəfəran,PHARMACY,"Səbayıl r.-nu, Ə.Cavad küç., 22",+994124922317,40.3686802539674,49.83108544112156,Bakı,Bakı,Meqa Sigorta
Quba-1 Azərimed Aptek,PHARMACY,Tofiq  Əhmədov küç Bazar ərazisi,+994 0233354684,41.36410486329765,48.52812245005001,Quba,Region,Meqa Sigorta
Tonus Aptek,PHARMACY,Səbail r-nu Bülbül pr ev7 Sahil metro çıxışı,+994 0125985279,40.372127315491966,49.84430230376174,Bakı,Bakı,Meqa Sigorta
Veqas Optika,PHARMACY,"B.Sərdarov küç., 16",994124923939,40.36865999178214,49.82778448485539,Bakı,Bakı,Meqa Sigorta
Veqas Optika,PHARMACY,"C.Məmmədquluzadə küç., 6",+994125111929,40.37910603080279,49.833359658022275,Bakı,Bakı,Meqa Sigorta
Viktoriya Aptek,PHARMACY,Təbriz küçəsi 17 Təfəkkür Universitetin yanı,+994 0125410521,40.388189093090325,49.85200475156235,Bakı,Bakı,Meqa Sigorta
Vitamin Aptek,PHARMACY,Hüseynbala Əliyev küçəsi ev 4 m18 Antep Lahmacun ilə üzbəüz,+994 0124300014,40.411249448201204,49.817365506130095,Bakı,Bakı,Meqa Sigorta
Xaçmaz Zəfəran,PHARMACY,"52 Nəriman Nərimanov,",+994 23 3250122,41.46122617535676,48.79900759360195,Xaçmaz,Region,Meqa Sigorta
Zeferan Aptek &#34;20 Yanvar&#34;,PHARMACY,1 Muzaffar Hasanov,+994 0124318700,40.40424089981801,49.80637671108157,Bakı,Bakı,Meqa Sigorta
Zeferan Aptek &#34;Lökbatan&#34;,PHARMACY,"3A 28 May küçəsi, Lökbatan",+994 0124455573,40.32236382878484,49.73098673621735,Bakı,Bakı,Meqa Sigorta
Zeferan Aptek Göyçay,PHARMACY,"Heydər Əliyev pr., Kapital bankla üzbəüz",+994 0202746503,40.64921473205518,47.748001649284625,Göyçay,Region,Meqa Sigorta
Zeytun 139,PHARMACY,"Azadlıq pr., 753",+994502642 524,40.38769353156411,49.843577863358995,Bakı,Bakı,Meqa Sigorta
Zəfəran 5 №-li xəstaxana,PHARMACY,"Fətəli Xan Xoyski küç.,130",+994125645800,40.402994373315096,49.86221793738305,Bakı,Bakı,Meqa Sigorta
Zəfəran Aptek,PHARMACY,Zərifə Əliyeva 5 MKX yanı,+994 0124939971,40.36868413331122,49.839254180262536,Bakı,Bakı,Meqa Sigorta
Zəfəran Aptek Bərdə,PHARMACY,Üzeyir Hacıbəyov küçəsi,9940202050320,40.37283555128953,47.12617942843945,Bərdə,Region,Meqa Sigorta
Zəfəran Aptek Gəncə,PHARMACY,Ə.Məmmədov 3N-li TTYX yanı,+994 022 2564277,40.696266749797225,46.38265427144358,Gəncə,Region,Meqa Sigorta
Zəfəran Aptek Kardio &#34;MKX&#34;,PHARMACY,Parlament Prospekti 76,+994 0124927919,40.36159967010152,49.82463646142241,Bakı,Bakı,Meqa Sigorta
Zəfəran Aptek Neftçilər Xəstəxanası,PHARMACY,Mehdi Mehdizadə küç.,+994124895185,40.3804064337147,49.86386419544618,Bakı,Bakı,Meqa Sigorta
Zəfəran Aptek Qazax,PHARMACY,Heydər Əliyev 114 A,+994 0222955631,41.09297362939413,45.36612632639909,Qazax,Region,Meqa Sigorta
Zəfəran Aptek Əhmədli,PHARMACY,"Məhəmməd Hadi küç., 23/24",+994 123760415,40.38802502182864,49.95464737661878,Bakı,Bakı,Meqa Sigorta
Zəfəran Aptek- Qusar-2,PHARMACY,Qusar rayon xəstəxananın yanı,+994 0233855826,41.42438871305577,48.44876427561206,Bakı,Bakı,Meqa Sigorta
Zəfəran Enterol Aptek,PHARMACY,"Xətai r-nu,M.Hadi  küç 41",+994 0123760361,40.387411236944075,49.95344069047986,Bakı,Bakı,Meqa Sigorta
Zəfəran Favorit Aptek,PHARMACY,"Sabunçu r-nu, Bakıxanov qəs., Sülh küç 1D",+994 0124296651,40.41775260945409,49.960313300290636,Bakı,Bakı,Meqa Sigorta
Zəfəran Lutemax Aptek,PHARMACY,Abbas Mirzə Şərifzadə,+994 0124323993,40.38405304636669,49.803887780397545,Bakı,Bakı,Meqa Sigorta
Zəfəran Lənkəran,PHARMACY,"Nizami küç., ev 89",+994 0252544994,38.75909973855131,48.83853496985636,Lənkəran,Region,Meqa Sigorta
Zəfəran Mərdəkan,PHARMACY,Mərdəkan,+994 0124548289,40.48715636828353,50.16457230739104,Bakı,Bakı,Meqa Sigorta
Zəfəran Nar Aptek,PHARMACY,63 Ağa Neymətulla,+994 0125648786,40.407668143857734,49.867921419565825,Bakı,Bakı,Meqa Sigorta
Zəfəran Okean Aptek,PHARMACY,Basti Baghirova 14,+994 0124368457,40.38416906404882,49.825625642603164,Bakı,Bakı,Meqa Sigorta
Zəfəran Oskar Aptek,PHARMACY,"Binəqədi ray-nu, Mir Cəlal küç 72",+994 0125604720,40.421007621307076,49.814878389688644,Bakı,Bakı,Meqa Sigorta
Zəfəran Sahil 1 (Primorski 1),PHARMACY,Sahil qəs Məhərrəm Seyidov küç,+994 0124469799,40.229647498821244,49.581975022039586,Bakı,Bakı,Meqa Sigorta
Zəfəran Sahil 2 (Primorski 2),PHARMACY,Ümid qəsəbəsi,+994 0124466433,40.225051186469884,49.576889555528815,Bakı,Bakı,Meqa Sigorta
Zəfəran Sumqayıt,PHARMACY,Heydar Aliyev Pros,+994 0186440929,40.58437246252202,49.67287249143244,Sumqayıt,Region,Meqa Sigorta
Zəfəran Səma Aptek,PHARMACY,Şövkət məmmədova küçəsi,+994 0125626116,40.42172365609169,49.84641147855211,Bakı,Bakı,Meqa Sigorta
Zəfəran Səməd Vurğun aptek,PHARMACY,Səməd Vurğun 108 Neptun marketdən sola Asəf Zeynallı musiqi kollecin yanı,+994 0124415646,40.39225676402475,49.835436076780525,Bakı,Bakı,Meqa Sigorta
Zəfəran XMSK,PHARMACY,"Səbail r-nu, Badamdar şosse 31",+994124935111,40.35286265673126,49.80933580116334,Bakı,Bakı,Meqa Sigorta
32 GÖZƏL,DENTAL,Azərbaycan pr.12,+994125967313,40.371552,49.833763,Bakı,Bakı,Meqa Sigorta
AQS DENTAL CENTER LTD,DENTAL,"13 mkr.13, ev 55",+994184485665,40.566993,49.695843,Sumqayıt,Region,Meqa Sigorta
BAKU DENT,DENTAL,"Nərimanovi r.-nu, C.Hacıbəyli küç., 38",+994125647740,40.40121,49.841775,Bakı,Bakı,Meqa Sigorta
PRO DENTAL MMC,DENTAL,"Bakı şəh., Salatın Əsgərova küç. 162A",+994509901666,40.3800904,49.8379188,Bakı,Bakı,Meqa Sigorta
Billur Dent 32 Beauty,DENTAL,"Məmməd Araz, 63",+994125613280,40.40658276434617,49.8445011411967,Bakı,Bakı,Meqa Sigorta
DENT İNN,DENTAL,Sabit Rəhman 225-B,+994513222233,40.399701,49.831914,Bakı,Bakı,Meqa Sigorta
DENTAL ARTS STUDİO,DENTAL,"Məmməd Araz küç., ev 111x",+994125610191,40.410628,49.846687,Bakı,Bakı,Meqa Sigorta
DENTAL STUDİO,DENTAL,6 Mehbali Zeynalabdiyev,+994125982887,40.380283,49.856547,Bakı,Bakı,Meqa Sigorta
DOCTOR DENT,DENTAL,"Səbail r.-nu, Mətbuat pr.-ti, ev 2A",+994125370038,4035962.0,4982255.0,Bakı,Bakı,Meqa Sigorta
Müasir Stomatologiya SA,DENTAL,14-21 Nizami küç,+994502771170,40.594311,49.669442,Sumqayıt,Region,Meqa Sigorta
Muğan Firması Sağlam Diş Dental Clinic,DENTAL,49 B Tbilisi prospekti,+994125203151,40.39507,49.81736,Bakı,Bakı,Meqa Sigorta
NEO DENTAL,DENTAL,"Binəqədi r.-nu, H.Əmiroğlu küç. 3073,məh.55C",+994124644922,4041296.0,4983816.0,Bakı,Bakı,Meqa Sigorta
ONLY DENT,DENTAL,"Yasamal, Mirəli Seyidov küç., 3138 ci məh..",+994125050717,40.375894,49.807183,Bakı,Bakı,Meqa Sigorta
SWISSDENT KLİNİKASI,DENTAL,"34 Abbas Mirzə Şərifzadə küçəsi, Bakı 1138",+994998303200,4037468.0,4980516.0,Bakı,Bakı,Meqa Sigorta
Z DENT,DENTAL,Park Atatürk,+994553330337,40.412645,49.847126,Bakı,Bakı,Meqa Sigorta
AİDA Tibb Mərkəzi,CLINIC,"S.Rüstəmov və H.Sarabski küçələrinin kəsişməsi, 657-ci məhəllə",+994124416696,40.3881617,49.8392809,Bakı,Bakı,Meqa Sigorta
ASSMED,CLINIC,"Lökbatan qəs., D.Bunyadzadə küç., Ev 3a",+994124451818,40.3202134,49.7324291,Bakı,Bakı,Meqa Sigorta
ATLAS Tibb Mərkəzi,CLINIC,"Nərimanov,Xətai,39",+994124969606,40.387398400000016,49.85647429999995,Bakı,Bakı,Meqa Sigorta
ATU Tədris Cərrahiyyə Klinikası,CLINIC,"Nəsimi rayonu M. Mirqasımov küç., 2",+994124498254,40.392399,49.8339787,Bakı,Bakı,Meqa Sigorta
ATU Tədris Terapevtik Klinikası,CLINIC,"Mərdanov qardaşları, 100",+994124413348,40.396706,49.831777,Bakı,Bakı,Meqa Sigorta
AYSMED MEDİCAL CENTER,CLINIC,Məhəmməd Hadi  2,+994123709224,40.394492,49.952751,Bakı,Bakı,Meqa Sigorta
Bakı Patologiya Mərkəzi,CLINIC,"Nəsimi ray., S.Rüstəm, ev 17",+994124041404,40.411928,49.862159,Bakı,Bakı,Meqa Sigorta
Bakı Sağlamlıq Mərkəzi Publik Hüquqi Şəxs,CLINIC,"Azadlıq pr., 112",+994124400057,40.398404,49.83964,Bakı,Bakı,Meqa Sigorta
Baku Medical Plaza Babək Filialı,CLINIC,Babək pr 42 N,+994124044190,40.3949123,49.9635127,Bakı,Bakı,Meqa Sigorta
Batı Göz(Medical Plaza MMC),CLINIC,Vaqif prospekti 75A,+994123104033,40.392553,49.843024,Bakı,Bakı,Meqa Sigorta
Bonum Medical,CLINIC,"90 Zərifə Əliyeva, Şəki 5500",+994 506630088,41.15727784207412,47.1784901635417,Şəki,Region,Meqa Sigorta
Caspian International Hospital,CLINIC,"Badamdar qəsəbəsi 1-ci yaşayış massivi, 31",+994125025016,40.343291,49.810171,Bakı,Bakı,Meqa Sigorta
CELAMİG LTD,CLINIC,"S.Rəhimov küç., 126/64",+994125371101,40.3782244,49.8351393,Bakı,Bakı,Meqa Sigorta
Central Clinic,CLINIC,"Abşeron, Xırdalan, H.Əliyev prospekti 30 , ev 14",+994507776999,40.452867,49.733334,Xırdalan,Bakı,Meqa Sigorta
Dentamed Estetik,CLINIC,"3 Koroğlu Rəhimov küçəsi, Bakı",0502821333,40.395849702944496,49.85956025156282,Bakı,Bakı,Meqa Sigorta
Dialab Tibb Mərkəzi,CLINIC,"İstiqlaliyyət küç., 1",+994124922056,40.368379,49.832587,Bakı,Bakı,Meqa Sigorta
Dr.Kamal Klinika,CLINIC,"7 Eldar Tağızadə küçəsi, Bakı",+994 123105231,40.386747093203326,49.84705717493113,Bakı,Bakı,Meqa Sigorta
DTX HƏRBİ-TİBB İDARƏSİ,CLINIC,"Badamdar qəs., Məktəbli küç., 1",+994124057399,40.363871,49.822917,Bakı,Bakı,Meqa Sigorta
ELLAB DIAGNOSTIC,CLINIC,"44 Aşıq Molla Cümə,",+994 553105205,40.40817819907886,49.86000441108174,Bakı,Bakı,Meqa Sigorta
Endokrin Mərkəz,CLINIC,"Nərimanov rayonu, Həsənoğlu küçəsi, 16a",+994125144502,40.397939,49.869871,Bakı,Bakı,Meqa Sigorta
EuroMed Tibb merkezi,CLINIC,"Cavadxan küç., 17A",+994124319341,40.412194,49.8144,Bakı,Bakı,Meqa Sigorta
Funda Hospital,CLINIC,"İ.Hidayətzadə, 163",+994125662844,40.39404,49.872181,Bakı,Bakı,Meqa Sigorta
German Hospital,CLINIC,İ.Qurtqaşımlı 51,+994125386660,40.369497,49.820981,Bakı,Bakı,Meqa Sigorta
Gəncə Müalicə Diaqnostika Mərkəzi,CLINIC,"Nizami rayonu, Totanlı küçəsi 17",+994222640909,40.659427,46.338585,Gəncə,Region,Meqa Sigorta
Gəncə UltraLab (Sağlam Ailə),CLINIC,"Azərbaycan Bayrağı küç., İmperial şadlıq sarayının yanı",+994051022310,40.68709,46.38009,Gəncə,Region,Meqa Sigorta
Hayat Clinic,CLINIC,"Yasamal r., Mətbuat pr., 35A, məhəllə 3141",+994124041404,40.377619,49.808919,Bakı,Bakı,Meqa Sigorta
HB Güven Klinik,CLINIC,"Atatürk pr., 3078",+994124361496,40.416592,49.844631,Bakı,Bakı,Meqa Sigorta
InterDent,CLINIC,"36 Daghistan, Bakı 1007",+994 0552627573,40.387576729707654,49.84660342457451,Bakı,Bakı,Meqa Sigorta
International 2 Medical Center,CLINIC,Ashig Molla Juma 32,+994125665578,40.402929,49.864794,Bakı,Bakı,Meqa Sigorta
International medical Centre 1,CLINIC,"Rasul Rza   24 , Baku 1005",+994125961316,40.37492,49.838054,Bakı,Bakı,Meqa Sigorta
İstanbul NS Klinika,CLINIC,Mustafa Kamal Ata-Türk pr-ti ev 140,+994124658500,40.412758,49.846948,Bakı,Bakı,Meqa Sigorta
İstanbul NS Klinika,CLINIC,140 Atatürk prospekti,+994 554678500,40.41297332400774,49.84709170923445,Bakı,Bakı,Meqa Sigorta
Koreya Şərq Təbabəti Klinikası SEBA FİTO,CLINIC,Neftçilər pr 65,+994124371810,40.36011,49.83347,Bakı,Bakı,Meqa Sigorta
Lanset-Cərrahliq Klinikası,CLINIC,"Nərimanov r.-nu, Sabit Rəhman, ev 35",+994124484702,40.40034,49.835817,Bakı,Bakı,Meqa Sigorta
Leyla Medical Center,CLINIC,"Y.Səfərov küç., 19",+994124965106,40.382082,49.862593,Bakı,Bakı,Meqa Sigorta
Liman Klinikası,CLINIC,"6-cı mikrorayon, S. Vurğun küç., 35 A",+994502352434,40.580291,49.689685,Sumqayıt,Region,Meqa Sigorta
Liv Bona Dea Hospital,CLINIC,"2 Mehdi Abbasov, Baku 1060",+994125290900,40.4126692639456,49.93042432979307,Bakı,Bakı,Meqa Sigorta
Mayomed Sağlık Hizmetleri Ticaret Limited Şirketi,CLINIC,Əhməd Rəcəbli  205,+994505449200,40.41296,49.860673,Bakı,Bakı,Meqa Sigorta
MEDERA HOSPITAL,CLINIC,"Binəqədi ray., Əcəmi Naxçıvani küç., 13C",+994125610303,40.416437,49.841603,Bakı,Bakı,Meqa Sigorta
MEDICAN MMC,CLINIC,"20 Yanvar küç., 71",+994252550298,38.754602,48.837669,Lənkəran,Region,Meqa Sigorta
Mediland,CLINIC,"1188 məhəllə, Sabit Orucov 17C",+994124887450,40.3808253,49.8692689,Bakı,Bakı,Meqa Sigorta
Mediplanet Klinikası,CLINIC,"Yusif bəy İbrahimli, 1, Bakı, Səbail, AZ1001",+994124971250,40.368782,49.830803,Bakı,Bakı,Meqa Sigorta
Medservis Özəl Tibb Mərkəzi,CLINIC,"C.Məmmədquluzadə küç., 3",+994124189944,40.379214,49.833217,Bakı,Bakı,Meqa Sigorta
Milana Medical,CLINIC,"Nərimanov ray., Ə. Rəcəbli küç., 21/1",+994122102287,40.410542,49.862523,Bakı,Bakı,Meqa Sigorta
Milli Hematologiya və Transfuziologiya Mərkəzi PUBLİK HÜQUQİ ŞƏXSİ,CLINIC,Ak. Mirəli Qaşqay 145,+994125642997,40.39733033477324,49.84114973261163,Bakı,Bakı,Meqa Sigorta
Milli İdman Tibb və Reabilitasiya Elmi-Praktiki İnstitutu,CLINIC,"Olimpiya, ev 4a",+994124048310,40.39900260635423,49.855552026366404,Bakı,Bakı,Meqa Sigorta
Modern Hospital,CLINIC,Babək prospekti 2389,+994125703030,40.395563,49.948069,Bakı,Bakı,Meqa Sigorta
Məlhəm Beynəlxalq Hospital,CLINIC,C. Naxçıvanski 433,+994512017101,40.407654657905184,49.95473088218686,Bakı,Bakı,Meqa Sigorta
Mərkəzi Klinik Xəstəxana,CLINIC,"Parlament prospekti, 76",+994124921092,40.3614319,49.8248189,Bakı,Bakı,Meqa Sigorta
Mərkəzi Neftçilər Xəstəxanası,CLINIC,Y.Səfərov küç. 17,+994125210886,40.3808131,49.8633822,Bakı,Bakı,Meqa Sigorta
N-KAY M Klinik MMC,CLINIC,"N.Nərimanov, 49 A",+994233251854,,,Xaçmaz,Region,Meqa Sigorta
Naxçıvan Diaqnostika-Müalicə Mərkəzi publik hüquqi şəxsi,CLINIC,Əziz Əliyev 66,+994709940470,39.216688071664755,45.42059183793809,Naxçıvan,Region,Meqa Sigorta
NB Lazur Hospital,CLINIC,"34 2-ci yaşayış massivi, 151 Badamdar şossesi,",0125024333,40.34943696848648,49.81087273806639,Bakı,Bakı,Meqa Sigorta
Nəbz Tibb mərkəzi,CLINIC,"Qara Qarayev pr., 31",+994124213855,40.41785,49.93539,Bakı,Bakı,Meqa Sigorta
Nəsrəddin Tusi adına Klinika,CLINIC,"Həsən bəy Zərdabi, Bakı",+994502080255,40.39793,49.80537,Bakı,Bakı,Meqa Sigorta
OKİ ÖZƏL TİBBİ MÜALİCƏXANASI,CLINIC,"F.Musayev küç, 27",+994505971647,41.42583,48.43072,Qusar,Region,Meqa Sigorta
OKSİGEN KLİNİK XƏSTƏXANASI,CLINIC,"N.Nərimanov r.-nu, 1959-cu məh.",+994709060906,40.40372,49.87001,Bakı,Bakı,Meqa Sigorta
OLİMP HOSPİTAL,CLINIC,8-10 İnşaatçılar pros,+994552207342,40.37584,49.81966,Bakı,Bakı,Meqa Sigorta
Radiofarma Nüvə Təbabət Mərkəzi,CLINIC,"Yasamal rayonu, M. Xiyabani 137",+994125332147,40.40023,49.79877,Bakı,Bakı,Meqa Sigorta
REAL TİBB MƏRKƏZİ,CLINIC,14 Nəriman.Nərimanov Sumqayıt 5007,+994186424580,40.58043,49.68099,Sumqayıt,Region,Meqa Sigorta
REFERANS 36.6 Med Gəncə filialı,CLINIC,Atatürk pr.120 B,+994515926366,40.70158,46.35811,Gəncə,Region,Meqa Sigorta
Referans Klinik Laboratoriya Mərkəzi,CLINIC,"Nərimanov r., M.Məmmədzadə küç., 8A",+994123100033,40.40311,49.87317,Bakı,Bakı,Meqa Sigorta
REFERANS Quba Tibb Mərkəzi,CLINIC,"Molla Pənah Vaqif küç ,Quba 4024",+994773580033,41.36147,48.52186,Quba,Region,Meqa Sigorta
Respublika Diaqnostika Mərkəzi,CLINIC,147 Tbilisi prospekti,+994125309029,40.39986,49.81038,Bakı,Bakı,Meqa Sigorta
Saf Hospital,CLINIC,Y.V.Çəmənzəmənli küç 18,+994124410301,40.40149500000001,49.83197269999998,Bakı,Bakı,Meqa Sigorta
SAĞLAM AİLƏ Mikrorayon Ultralab,CLINIC,128 Rəşid Behbudov,+994124401300,40.38275,49.84335,Bakı,Bakı,Meqa Sigorta
SAĞLAM AİLƏ Nərimanov filialı,CLINIC,"C.Cabbarlı küç., 24, Ə.Rəcəbli 3, küçə 10",994124414971,40.40956,49.86204,Bakı,Bakı,Meqa Sigorta
SAĞLAM AİLƏ Sumqayıt,CLINIC,Cəfər Cabbarlı 8 C 1st mkr,+994186420869,40.58602,49.6822,Sumqayıt,Region,Meqa Sigorta
SAĞLAM HƏYAT,CLINIC,"H.Əliyev küç , Qəbələ 3600",+994706330360,40.97658,47.85348,Qəbələ,Region,Meqa Sigorta
ŞANS Tibb Mərkəzi,CLINIC,Müseyib Bağırov küç.,+994702576663,40.67864,46.37565,Gəncə,Region,Meqa Sigorta
Spero Hospital,CLINIC,1B  20 Yanvar,+994124304303,40.41169,49.80381,Bakı,Bakı,Meqa Sigorta
Starlab tibb mərkəzi,CLINIC,5th mkr 20 Yanvar str 51 19A 20 Yanvar,+994 124311314,40.41292418640359,49.809820651563825,Bakı,Bakı,Meqa Sigorta
Stimul.S Hospital,CLINIC,"Sabunçu r.-nu, Bakıxanov qəs., Yavər Əliyev küç., 26",+994705502020,40.4338,49.95642,Bakı,Bakı,Meqa Sigorta
Sədəf Klinikası Fatimə-H,CLINIC,"Qaradağ r.-nu, Sahil qəs., B.Əliyev küç., 33",+994124463201,40.22222,49.57444,Bakı,Bakı,Meqa Sigorta
ŞƏFA MÜALİCƏVİ DİAQNOSTİKA MƏRKƏZİ,CLINIC,"H.Zərdabi pr.-ti, 84",+994124483811,40.39586,49.80686,Bakı,Bakı,Meqa Sigorta
SƏHHƏT Azərbaycan-Almaniya Klinikası,CLINIC,"Nizami ray.,103 Q.Qarayev",+994124478555,40.39614,49.953994,Bakı,Bakı,Meqa Sigorta
TOFİQOĞLU TİBB MƏRKƏZİ,CLINIC,N.Nərimanov 52,+994233255593,41.46126215042535,48.79897018968727,Xaçmaz,Region,Meqa Sigorta
TURAN-97,CLINIC,"Xətai r.-nu, Əhmədli qəsəbəsi, Sarayevo küç., 184",+994123700524,40.3864,49.95926,Bakı,Bakı,Meqa Sigorta
Turk American Medical Center,CLINIC,"Yusif Vəzir Çəmənzəminli küç., 18",+994502224459,40.4019,49.83352,Bakı,Bakı,Meqa Sigorta
ULTRA MED Tibb Mərkəzi,CLINIC,"Xətai r.-nu, 45 Məhəmməd Hadi",+994504018910,40.38282,49.95452,Bakı,Bakı,Meqa Sigorta
Unikal Klinika,CLINIC,"Bakı küç. 37,44-cü məh",+994502852185,40.57618,49.67933,Sumqayıt,Region,Meqa Sigorta
Uniklinika,CLINIC,Kazım Kazımzadə 115,+994502090165,40.37695,49.81827,Bakı,Bakı,Meqa Sigorta
Vita Med Tibb Mərkəzi,CLINIC,224B Mirzə Fətəli Axundov,+994 252950008,39.4560784007144,48.5436359668528,Biləsuvar,Region,Meqa Sigorta
Vita Yasamal Buta,CLINIC,"Ə.Ələkbərov, 97",+994125330476,40.39579,49.81604,Bakı,Bakı,Meqa Sigorta
Xüsusi Müalicə Sağlamlıq Kompleksi,CLINIC,Badamdar şossesi 31,+994124935111,40.35316,49.80926,Bakı,Bakı,Meqa Sigorta
YAŞAM TİBB MƏRKƏZİ,CLINIC,"Nərimanov r.-nu, Fətəli Xan Xoyski, ev 112",+994124657223,40.40221,49.86093,Bakı,Bakı,Meqa Sigorta
YASAMAL HOSPİTAL,CLINIC,Məhəmməd Xiyabani küçəsi 15V,+994124650102,40.39751,49.79167,Bakı,Bakı,Meqa Sigorta
YASAMAL Hospital,CLINIC,Məhəmməd Xiyabani küçəsi 15V,+994 0125259133,40.39762123946347,49.79161008039824,Bakı,Bakı,Meqa Sigorta
Yeni Gəncə tibb Mərkəzi İNTERMEDSERVİS,CLINIC,"Yeni Gəncə qəs., 28 May küç..",+994505590303,40.68535,46.33172,Gəncə,Region,Meqa Sigorta
ZƏFƏRAN HOSPİTAL,CLINIC,30 Asif Məmmədov,+994123100262,40.39455,49.881,Bakı,Bakı,Meqa Sigorta
Gömrük Hospitalının Apteki,PHARMACY,"Azərbaycan Respublikası, Bakı, Yasamal r-nu, Kazım Kazımzadə küç.118, AZ1000",994 55 455 69 51,40.3783417,49.8157959,Bakı,Bakı,A-Group
AzəriMed-Kanon Oskar,PHARMACY,"Azərbaycan Respublikası, Bakı, Binəqədi r-nu, Mir Cəlal küç.72, AZ1000",994 55 455 85 74,40.4209595889113,49.8148467690126,Bakı,Bakı,A-Group
AzəriMed-Kanon Səma,PHARMACY,"Azərbaycan Respublikası, Bakı, Binəqədi r-nu, Şövkət Məmmədova küç.32, AZ1000",994 55 455 85 46,40.421414519883,49.8463232690126,Bakı,Bakı,A-Group
AzəriMed-Kanon Viktoriya,PHARMACY,"Azərbaycan Respublikası, Bakı, Nərimanov r-nu, Təbriz küç.17, AZ1000",994 55 455 85 64,40.3879579733829,49.8522513690373,Bakı,Bakı,A-Group
AzəriMed-Zəfəran 5 saylı xəstəxana,PHARMACY,"Azərbaycan Respublikası, Bakı, Nərimanov r-nu, Fətəli Xan Xoyski küç.130, AZ1000",994 55 455 88 02,40.4030551451771,49.8625555555188,Bakı,Bakı,A-Group
AzəriMed-Kanon Semaşko,PHARMACY,"Azərbaycan Respublikası, Bakı, Nəsimi r-nu, Mirəsədulla Mirqasımov küç.2, AZ1000",994 55 455 85 39,40.3941096157195,49.8349245843803,Bakı,Bakı,A-Group
AzəriMed-Kanon Vitamin,PHARMACY,"Azərbaycan Respublikası, Bakı, Nəsimi r-nu, Hüseynbala Əliyev küç.4, AZ1000",994 55 455 87 85,40.4109252996611,49.8172773248597,Bakı,Bakı,A-Group
AzəriMed-Kanon Ferromed,PHARMACY,"Azərbaycan Respublikası, Bakı, Nizami r-nu, Qara Qarayev pr,26, AZ1000",994 55 455 85 97,40.4176338353684,49.9319567536956,Bakı,Bakı,A-Group
AzəriMed-Kanon Favorit,PHARMACY,"Azərbaycan Respublikası, Bakı, Sabunçu r-nu, Bakıxanov qəs.,Sülh küç.1D, AZ1000",994 55 455 85 72,40.4178923603822,49.9604119978482,Bakı,Bakı,A-Group
AzəriMed-Kanon Naturalist,PHARMACY,"Azərbaycan Respublikası, Bakı, Səbail r-nu, Əhməd Cavad küç.22, AZ1000",994 55 455 85 37,40.36987942793,49.8344882536942,Bakı,Bakı,A-Group
AzəriMed-Zəfəran XMSK,PHARMACY,"Azərbaycan Respublikası, Bakı, Səbail r-nu, Badamdar şossesi 31, AZ1000",994 55 455 81 63,40.3529930114746,49.8091201782226,Bakı,Bakı,A-Group
AzəriMed-Zəfəran Neftçilər,PHARMACY,"Azərbaycan Respublikası, Bakı, Xətai r-nu, M.Mehdizadə və Y.Səfərov küç. kəsişməsi, AZ1000",994 55 455 88 01,40.3805190238593,49.8638801693156,Bakı,Bakı,A-Group
AzəriMed-Kanon Okean,PHARMACY,"Azərbaycan Respublikası, Bakı, Yasamal r-nu, Bəsti Bağırova küç.14, AZ1000",994 55 455 85 73,40.3842489814834,49.8251969843799,Bakı,Bakı,A-Group
AzəriMed-Kanon Lutemax,PHARMACY,"Azərbaycan Respublikası, Bakı, Yasamal r-nu, Abbas Mirzə Şərifzadə küç.314, AZ1000",994 55 455 85 38,40.3822000215592,49.8044049690373,Bakı,Bakı,A-Group
"AzəriMed-Zəfəran ""20 Yanvar""",PHARMACY,"Azərbaycan Respublikası, Bakı, Yasamal r-nu, Müzəffər Həsənov küç.1, AZ1000",994 55 455 69 51,40.4042120281025,49.8063161690379,Bakı,Bakı,A-Group
AzəriMed-Kanon Balzam,PHARMACY,"Azərbaycan Respublikası, Xırdalan şəhəri, M.Ə.Rəsulzadə küç.1",994 55 455 81 26,40.4535065301217,49.7504811402038,Absheron,Bakı,A-Group
AzəriMed-Zəfəran Mərdəkan,PHARMACY,"Azərbaycan Respublikası, Bakı, Xəzər r-nu, Mərdəkan qəs., AZ1000",994 55 455 90 78,40.4871118763139,50.1648227825334,Bakı,Bakı,A-Group
AzəriMed-Zəfəran Primorsk,PHARMACY,"Azərbaycan Respublikası, Bakı, Qaradağ r-nu, Sahil qəs.,Məhərrəm Seyidov küç., AZ1000",994 55 455 90 93,40.2298231466725,49.5818103978683,Bakı,Bakı,A-Group
AzəriMed-Zəfəran Lökbatan,PHARMACY,"Azərbaycan Respublikası, Bakı, Qaradağ r-nu, Lökbatan qəs.,28 May küç., AZ1000",994 55 455 89 10,40.3219896279471,49.7330250113384,Bakı,Bakı,A-Group
AzəriMed-Zəfəran Sumqayıt,PHARMACY,"Azərbaycan Respublikası, Sumqayıt, Heydər Əliyev pr.,məhəllə 40, AZ5000",994 55 455 89 00,40.5839798482589,49.6731244248649,Sumqayıt,Region,A-Group
AzəriMed-Zəfəran Bərdə,PHARMACY,"Azərbaycan Respublikası, Bərdə, Üzeyir Hacıbəyov küç.3, AZ0900",994 55 455 87 99,40.3728159882696,47.1260759825045,Bərdə,Region,A-Group
AzəriMed-Zəfəran Mingəçevir,PHARMACY,"Azərbaycan Respublikası, Mingəçevir, Heydər Əliyev pr., AZ4500",994 55 455 58 12,40.7647467362729,47.0620098248454,Mingəçevir,Region,A-Group
AzəriMed-Kanon Almaz,PHARMACY,"Azərbaycan Respublikası, Xaçmaz, Nəriman Nərimanov küç.47, AZ2700",994 55 455 85 96,41.4614832035721,48.7992184978801,Bakı,Bakı,A-Group
Varitex (tibbi ləvazimat),PHARMACY,"Azərbaycan Respublikası, Bakı, Nəsimi r-nu, Səməd Vurğun küç.156D, AZ1000",994 12 441 54 51,40.39768210891968,49.83342719782411,Bakı,Bakı,A-Group
Medicom (tibbi ləvazimat),PHARMACY,"Azərbaycan Respublikası, Bakı, Ağ Şəhər,Paris evləri,Yaşıl Ada küç.1, AZ1000",994 55 409 36 63,40.38027991493886,49.8822166399426,Bakı,Bakı,A-Group
MediClub Apteki,PHARMACY,"Azərbaycan Respublikası, Bakı, Səbail r-nu, Üzeyir Hacıbəyli küç.119, AZ1000",994 50 220 48 29,40.3760943930241,49.8560428274371,Bakı,Bakı,A-Group
AzəriMed-Kanon Qönçə,PHARMACY,"Azərbaycan Respublikası, Gəncə, Heydər Əliyev pr. ilə Atatürk pr.kəsişməsi , AZ2000",994 55 455 85 49,40.69775753008175,46.36125165367889,Gəncə,Region,A-Group
AzəriMed-Kanon Stimol,PHARMACY,"Azərbaycan Respublikası, Sumqayıt, Sülh küç.27D, AZ5000",994 55 455 85 63,40.5872089756899,49.6707269843862,Sumqayıt,Region,A-Group
AzəriMed-Kanon Lənkəran,PHARMACY,"Azərbaycan Respublikası, Lənkəran, Həzi Aslanov küç, AZ4200",994 55 455 85 69,38.7549443631431,48.8520129112917,Lənkəran,Region,A-Group
AzəriMed-Kanon Xəmsə,PHARMACY,"Azərbaycan Respublikası, Mingəçevir, Heydər Əliyev pr.51Q , AZ4500",994 55 455 85 47,40.7683360532829,47.0562259266944,Mingəçevir,Region,A-Group
AzəriMed-Zəfəran Quba,PHARMACY,"Azərbaycan Respublikası, Quba, Heyder Əliyev pr., AZ4000",994 55 455 88 50,41.3620851398386,48.5242305979031,Quba,Region,A-Group
AzəriMed-Zəfəran Qusar,PHARMACY,"Azərbaycan Respublikası, Qusar, Səfixan küç.,Mərkəzi xəstəxananın yanı, AZ3800",994 55 455 87 88,41.4245760301556,48.4473755267407,Qusar,Region,A-Group
AzəriMed-Zəfəran Şirvan,PHARMACY,"Azərbaycan Respublikası, Şirvan, Nəriman Nərimanov küç.2A, AZ1800",994 55 455 87 47,39.9520717334157,48.9389975113272,Bakı,Bakı,A-Group
AzəriMed-Kanon Immuno,PHARMACY,"Azərbaycan Respublikası, İmişli, Heydər Əliyev pr.164 A, AZ3000",994 55 455 90 57,39.8701196811795,48.0604112113249,İmişli,Region,A-Group
Buta Bayıl-2,PHARMACY,"Azərbaycan Respublikası, Bakı, Səbail r-nu, Ə.Yaqubov küç.6, AZ1000",994 55 208 00 86,40.34077621249385,49.83685039281965,Bakı,Bakı,A-Group
Vita Badamdar,PHARMACY,"Azərbaycan Respublikası, Bakı, Səbail r-nu, Badamdar qəs.,T.Məmmədov küç.8, AZ1000",994 55 203 87 86,40.3371986854426,49.8053778555168,Bakı,Bakı,A-Group
Dokta Caspian,PHARMACY,"Azərbaycan Respublikası, Bakı, Səbail r-nu, Bül-Bül pr.16A, AZ1000",994 51 333 04 07,40.3721602555133,49.8448436843797,Bakı,Bakı,A-Group
Zeytun Vitamin Gəncə,PHARMACY,"Azərbaycan Respublikası, Gəncə, Əlövsət Məmmədov küç.14B, AZ2000",994 55 222 89 44,40.6661758422851,46.3535499572753,Gəncə,Region,A-Group
AzəriMed-Zəfəran Şəki,PHARMACY,"Azərbaycan Respublikası, Şəki, Məmməd Əmin Rəsulzadə prospekti, AZ5500",994 55 455 89 63,41.198481033949,47.1739410978981,Şəki,Region,A-Group
AzəriMed-Zəfəran Viləş (Masallı),PHARMACY,"Azərbaycan Respublikası, Masallı, M.Talışxanov küç.3, AZ4400",994 55 455 58 75,39.0258262740219,48.6656113112995,Masallı,Region,A-Group
AzəriMed-Kanon Biləsuvar,PHARMACY,"Azərbaycan Respublikası, Biləsuvar, Heydər Əliyev küç.40 E, AZ1300",994 55 455 89 68,39.4545995604547,48.5468466266807,Biləsuvar,Region,A-Group
AzəriMed-Zəfəran Qazax,PHARMACY,"Azərbaycan Respublikası, Qazax, Heydər Əliyev küç.71, AZ3500",994 55 455 81 69,41.0980257240705,45.3784893267044,Qazax,Region,A-Group
AzəriMed-Zəfəran Qəbələ,PHARMACY,"Azərbaycan Respublikası, Qəbələ, Heydər Əliyev pr., AZ3600",994 55 455 91 75,40.9754075824334,47.8439957267268,Qəbələ,Region,A-Group
Buta Əhmədli,PHARMACY,"Azərbaycan Respublikası, Bakı, Xətai r-nu, Məzahir Rüstəmov küç. 22, AZ1000",994 55 252 22 70,40.3844306119064,49.9617578555181,Bakı,Bakı,A-Group
Vita Zabrat,PHARMACY,"Azərbaycan Respublikası, Bakı, Sabunçu r-nu, Zabrat qəs.,Babək küç.94A, AZ1000",994 55 255 51 16,40.4756159137078,49.9496619113432,Bakı,Bakı,A-Group
Buta Mərdəkan,PHARMACY,"Azərbaycan Respublikası, Bakı, Xəzər r-nu, Mərdəkan qəs.,S.Yesenin küç.,2-ci döngə, AZ1000",994 55 224 58 59,40.4871482849121,50.1641998291015,Bakı,Bakı,A-Group
Vita Əcəmi-1,PHARMACY,"Azərbaycan Respublikası, Bakı, Nəsimi r-nu, M.Cəfərov küç.16, AZ1000",994 55 505 48 47,40.409309250020016,49.81325112543714,Bakı,Bakı,A-Group
AzəriMed Günəbaxan,PHARMACY,"Azərbaycan Respublikası, Bakı, Yasamal r-nu, Firuddin Ağayev küç.5, AZ1000",994 55 455 56 38,40.3753051757812,49.8122482299804,Bakı,Bakı,A-Group
AzəriMed-Kanon İzmir,PHARMACY,"Azərbaycan Respublikası, Bakı, Yasamal r-nu, Əbdürrəhim bəy Haqverdiyev küç.11, AZ1000",994 55 455 58 16,40.3803635,49.8165436,Bakı,Bakı,A-Group
AzəriMed-Kanon General,PHARMACY,"Azərbaycan Respublikası, Bakı, Xətai r-nu, Xudu Məmmədov küç.32 A, AZ1000",994 55 455 81 07,40.3709526,49.953476,Bakı,Bakı,A-Group
MediClub Kids Apteki,PHARMACY,"Azərbaycan Respublikası, Bakı, Səbail r-nu, Izzət Nəbiyev küç.30A, AZ1000",994 12 525 09 19,40.3588218688964,49.8229446411132,Bakı,Bakı,A-Group
Zeytun Sahil-313,PHARMACY,"Azərbaycan Respublikası, Bakı, Sahil qəs.,Emin Quliyev küç.50, AZ1000",994 77 376 10 10,40.2246399,49.5807915,Bakı,Bakı,A-Group
Zeytun Qəbələ,PHARMACY,"Azərbaycan Respublikası, Qəbələ, Heydər Əliyev pr.,Ismayılbəy Qutqaşınlı küç.357, AZ3600",994 50 734 88 99,40.9818611145019,47.8494148254394,Qəbələ,Region,A-Group
AzəriMed-Kanon Simurq,PHARMACY,"Azərbaycan Respublikası, Bakı, Suraxanı r-nu, AB yaşayış sahəsi,Yeni Günəşli qəs.ev50, AZ1000",994 55 900 75 43,40.3775177001953,49.9780120849609,Bakı,Bakı,A-Group
AzəriMed-Kanon Nəsir,PHARMACY,"Azərbaycan Respublikası, Bakı, Nərimanov r-nu, Asif Məmmədov küç.30D, AZ1000",994 55 455 81 43,40.3940696716308,49.8809814453125,Bakı,Bakı,A-Group
Dokta Gəncə,PHARMACY,"Azərbaycan Respublikası, Gəncə, Nizami küç.46, AZ2000",994 51 540 12 65,40.680248260498,46.362564086914,Bakı,Bakı,A-Group
Dokta Qəbələ,PHARMACY,"Azərbaycan Respublikası, Qəbələ, Heydər Əliyev pr., AZ3600",994 70 576 34 76,40.9800987,47.8454132,Qəbələ,Region,A-Group
Dokta Zaqatala,PHARMACY,"Azərbaycan Respublikası, Zaqatala, Vidadi küç.15, AZ6200",994 77 508 11 22,41.62890625,46.6421470642089,Zaqatala,Region,A-Group
Medical City Aptek,PHARMACY,"Azərbaycan Respublikası, Bakı, Fizuli küç.41 A, AZ1000",994 70 594 25 05,40.3773804,49.8350373,Bakı,Bakı,A-Group
Dokta Sumqayıt,PHARMACY,"Azərbaycan Respublikası, Sumqayıt, 6-cı mkr.,Kristal Abşeron, AZ5000",994 55 649 72 16,40.5805817,49.6875801,Sumqayıt,Region,A-Group
Buta Azadlıq,PHARMACY,"Azərbaycan Respublikası, Bakı, Binəqədi r-nu, Süleyman Sani Axundov küç.66, AZ1000",994 55 333 13 68,40.4251709,49.8418389,Bakı,Bakı,A-Group
AzəriMed - Zəfəran Göyçay,PHARMACY,"Azərbaycan Respublikası, Göyçay, Heydər Əliyev prospekti ev 53 A, AZ2300",994 55 455 81 65,40.649131433330524,47.74800001888711,Göyçay,Region,A-Group
AzəriMed-Zəfəran Bakıxanov,PHARMACY,"Azərbaycan Respublikası, Bakı, Sabunçu r-nu, Gənclər küç.27 C, AZ1000",994 12 428 96 03,40.410350920369766,49.969172645695416,Bakı,Bakı,A-Group
Dokta Xırdalan,PHARMACY,"Azərbaycan Respublikası, Xırdalan şəhəri, Heydər Əliyev pr.240",994 55 785 35 15,40.450722,49.74437,Absheron,Bakı,A-Group
Azərimed-Kanon Xan,PHARMACY,"Azərbaycan Respublikası, Naxçıvan, Əziz Əliyev küç.19, AZ7000",994 50 250 27 07,39.205898,45.423573,Naxçıvan,Region,A-Group
Zeytun Əhmədli,PHARMACY,"Azərbaycan Respublikası, Bakı, Xətai r-nu, Məhəmməd Hadi küç.,Əhmədli metro st., AZ1000",994 51 215 93 03,40.38625,49.954029,Bakı,Bakı,A-Group
Zeytun Nərimanov 1,PHARMACY,"Azərbaycan Respublikası, Bakı, Nərimanov r-nu, Təbriz küç.,Nərimanov metro st., AZ1000",994 50 273 11 97,40.403202,49.871365,Bakı,Bakı,A-Group
Zeytun Elmlər Akademiyası,PHARMACY,"Azərbaycan Respublikası, Bakı, Yasamal r-nu, Hüseyn Cavid pr.33A,Elmlər Akademiyası metro st., AZ1000",994 50 273 11 91,40.375183,49.815598,Bakı,Bakı,A-Group
Zeytun Koroğlu 1,PHARMACY,"Azərbaycan Respublikası, Bakı, Nizami r-nu, Heydər Əliyev pr.,Koroğlu metro st., AZ1000",994 51 250 19 29,40.420967,49.918289,Bakı,Bakı,A-Group
Zeytun 20 Yanvar,PHARMACY,"Azərbaycan Respublikası, Bakı, Yasamal r-nu, 20 Yanvar meydanı,20 Yanvar metro st., AZ1000",994 51 225 15 75,40.404289,49.808395,Bakı,Bakı,A-Group
Zeytun Qarayev,PHARMACY,"Azərbaycan Respublikası, Bakı, Nizami r-nu, Qara Qarayev pr.,metro st.çıxışı, AZ1000",994 50 273 11 90,40.41777,49.933002,Bakı,Bakı,A-Group
Zeytun Gənclik 1,PHARMACY,"Azərbaycan Respublikası, Bakı, Nərimanov r-nu, Fətəli Xan Xoyski pr.,Gənclik metro st., AZ1000",994 50 273 11 95,40.400848,49.85252,Bakı,Bakı,A-Group
Zeytun Azadlıq,PHARMACY,"Azərbaycan Respublikası, Bakı, Binəqədi r-nu, Süleyman Sani Axundov küç.,Azadlıq metro st., AZ1000",994 51 225 14 43,40.425518,49.840687,Bakı,Bakı,A-Group
Zeytun Gənclik 2,PHARMACY,"Azərbaycan Respublikası, Bakı, Nərimanov r-nu, Fətəli Xan Xoyski pr.,Gənclik metro st., AZ1000",994 50 273 11 94,40.399818,49.850243,Bakı,Bakı,A-Group
Zeytun Nərimanov 2,PHARMACY,"Azərbaycan Respublikası, Bakı, Nərimanov r-nu, Təbriz küç.,Nərimanov metro st.çıxışı, AZ1000",994 50 273 11 96,40.402477,49.869465,Bakı,Bakı,A-Group
Zeytun Koroğlu 2,PHARMACY,"Azərbaycan Respublikası, Bakı, Nizami r-nu, Heydər Əliyev pr.,Koroğlu metro st., AZ1000",994 50 273 11 98,40.420391,49.917557,Bakı,Bakı,A-Group
Zeytun Neftçilər,PHARMACY,"Azərbaycan Respublikası, Bakı, Nizami r-nu, Qara Qarayev pr.,Neftçilər metro st., AZ1000",994 50 273 11 93,40.410213,49.943398,Bakı,Bakı,A-Group
Zeytun 28 May,PHARMACY,"Azərbaycan Respublikası, Bakı, Nəsimi r-nu, Cəfər Cabbarlı meydanı,28 May metro st.girişi, AZ1000",994 50 273 54 10,40.37988158632754,49.84856920488953,Bakı,Bakı,A-Group
Dokta Şirvan(Mərkəz),PHARMACY,"Azərbaycan Respublikası, Şirvan, Energetik küç.B9, AZ1800",994 55 677 52 64,39.965038,48.945217,Şirvan,Region,A-Group
Dokta Salyan,PHARMACY,"Azərbaycan Respublikası, Salyan, Y.Qasımov küç.2G, AZ5200",994 99 311 02 06,39.589581,48.975117,Salyan,Region,A-Group
Dokta Hacıqabul,PHARMACY,"Azərbaycan Respublikası, Hacıqabul, 28 may küç., AZ2400",994 55 692 19 97,40.040112,48.932594,Bakı,Bakı,A-Group
Dokta Neftçala,PHARMACY,"Azərbaycan Respublikası, Neftçala, 20 yanvar küç., AZ4700",994 50 821 87 44,39.378418,49.246162,Bakı,Bakı,A-Group
Pharmastore Nizami 1,PHARMACY,"Azərbaycan Respublikası, Bakı, Nizami r-nu, Qara Qrayev pr.65 A, AZ1000",994 55 225 12 53,40.409996,49.943932,Bakı,Bakı,A-Group
Pharmastore Nizami 2,PHARMACY,"Azərbaycan Respublikası, Bakı, Nizami r-nu, Rüstəm Rüstəmov küç.49, AZ1000",994 51 225 12 34,40.409962,49.942055,Bakı,Bakı,A-Group
Pharmastore Nizami 3,PHARMACY,"Azərbaycan Respublikası, Bakı, Nizami r-nu, Rüstəm Rüstəmov küç.49, AZ1000",994 55 251 78 03,40.41003,49.942265,Bakı,Bakı,A-Group
Pharmastore Nizami 4,PHARMACY,"Azərbaycan Respublikası, Bakı, Nizami r-nu, Qara Qarayev pr.61, AZ1000",994 50 251 78 21,40.411823,49.942574,Bakı,Bakı,A-Group
Pharmastore Nərimanov 1,PHARMACY,"Azərbaycan Respublikası, Bakı, Nərimanov r-nu, Fətəli Xan Xoyski pr.106, AZ1000",994 50 251 78 30,40.402195,49.859917,Bakı,Bakı,A-Group
Pharmastore Nərimanov 2,PHARMACY,"Azərbaycan Respublikası, Bakı, Nərimanov r-nu, Yusif Vəzir Çəmənzəminli küç.40 , AZ1000",994 50 251 78 27,40.402679,49.837093,Bakı,Bakı,A-Group
Pharmastore Nəsimi 1,PHARMACY,"Azərbaycan Respublikası, Bakı, Nəsimi r-nu, Dilarə Əliyeva küç.243, AZ1000",994 50 251 78 20,40.379753,49.854069,Bakı,Bakı,A-Group
Pharmastore Nəsimi 2,PHARMACY,"Azərbaycan Respublikası, Bakı, Nəsimi r-nu, Tiflis pr.46, AZ1000",994 51 251 78 24,40.405109,49.807919,Bakı,Bakı,A-Group
Pharmastore Xətai 1,PHARMACY,"Azərbaycan Respublikası, Bakı, Xətai r-nu, Xudu Məmmədov küç.13, AZ1000",994 50 251 78 97,40.372715,49.946301,Bakı,Bakı,A-Group
Pharmastore Xətai 2,PHARMACY,"Azərbaycan Respublikası, Bakı, Xətai r-nu, Əhmədli ŞTQ, Babək pr.94, AZ1000",994 50 251 78 25,40.394817,49.963726,Bakı,Bakı,A-Group
Pharmastore Binəqədi1,PHARMACY,"Azərbaycan Respublikası, Bakı, Binəqədi r-nu, Mustafa Kamal Atatürk pr.56, AZ1000",994 50 251 78 29,40.4135793,49.84668,Bakı,Bakı,A-Group
Pharmastore Yasamal 1,PHARMACY,"Azərbaycan Respublikası, Bakı, Yasamal r-nu, Tbilisi pr.59D, AZ1000",994 50 255 12 38,40.400204,49.81044,Bakı,Bakı,A-Group
Pharmastore Sabunçu,PHARMACY,"Azərbaycan Respublikası, Bakı, Sabunçu r-nu, Bakixanov ŞTQ,Nazim İsmayılov küç.3 A, AZ1000",994 51 225 12 77,40.430981,49.956596,Bakı,Bakı,A-Group
Pharmastore Nizami 5,PHARMACY,"Azərbaycan Respublikası, Bakı, Nizami r-nu, Heydər Əliyev pr.119 (Z.Bünyadov ilə H.Əliyev pr. kəsişməsi), AZ1000",994 50 251 51 49,40.422043,49.9165,Bakı,Bakı,A-Group
Pharmastore Nizami 6,PHARMACY,"Azərbaycan Respublikası, Bakı, Nizami r-nu, Qara Qarayev pr.87D, AZ1000",994 50 251 78 93,40.418213,49.932175,Bakı,Bakı,A-Group
Pharmastore Nərimanov 3,PHARMACY,"Azərbaycan Respublikası, Bakı, Nərimanov r-nu, Həsən Əliyev küç.88, AZ1000",994 51 225 12 89,40.402973,49.852028,Bakı,Bakı,A-Group
Pharmastore Nərimanov 4,PHARMACY,"Azərbaycan Respublikası, Bakı, Nərimanov r-nu, Təbriz küç.87, AZ1000",994 50 251 78 22,40.401222,49.867924,Bakı,Bakı,A-Group
Pharmastore Nərimanov 5,PHARMACY,"Azərbaycan Respublikası, Bakı, Nərimanov r-nu, Mirzəbala Əhmədzadə küç.11, AZ1000",994 50 521 78 23,40.400749,49.871338,Bakı,Bakı,A-Group
Pharmastore Nəsimi 3,PHARMACY,"Azərbaycan Respublikası, Bakı, Nəsimi r-nu, Mərdanov qardaşları küç.100A, AZ1000",994 51 207 46 74,40.392422,49.833061,Bakı,Bakı,A-Group
Pharmastore Nəsimi 4,PHARMACY,"Azərbaycan Respublikası, Bakı, Nəsimi r-nu, Azadlıq pr.95, AZ1000",994 51 250 19 39,40.391071,49.841682,Bakı,Bakı,A-Group
Pharmastore Yasamal 2,PHARMACY,"Azərbaycan Respublikası, Bakı, Yasamal r-nu, Ələsgər Ələkbərov küç.5 , AZ1000",994 50 251 78 88,40.38044,49.818359,Bakı,Bakı,A-Group
Pharmastore Yasamal 3,PHARMACY,"Azərbaycan Respublikası, Bakı, Yasamal r-nu, Bəşir Səfəroğlu küç.116, AZ1000",994 50 251 78 89,40.373199,49.83305,Bakı,Bakı,A-Group
Pharmastore Yasamal 4,PHARMACY,"Azərbaycan Respublikası, Bakı, Yasamal r-nu, Ələsgər Ələkbərov küç.46Q, AZ1000",994 55 667 96 97,40.368309,49.818352,Bakı,Bakı,A-Group
Pharmastore Badamdar,PHARMACY,"Azərbaycan Respublikası, Bakı, Səbail r-nu, Abbasqulu Abbaszadə küç.17, AZ1000",994 50 251 78 19,40.392445,49.833046,Bakı,Bakı,A-Group
Pharmastore Qaradağ,PHARMACY,"Azərbaycan Respublikası, Bakı, Qaradağ r-nu, Lökbatan qəs. ŞTQ Keçid 1594, AZ1000",994 12 445 10 55,40.327824,49.742031,Bakı,Bakı,A-Group
Vita Binə,PHARMACY,"Azərbaycan Respublikası, Bakı, Xəzər r-nu, Binə qəs.,Ə.İsazadə küç.,""BazarStore"" yanı, AZ1000",994 12 556 17 39,40.450497,50.087822,Bakı,Bakı,A-Group
Vita Sabunçu,PHARMACY,"Azərbaycan Respublikası, Bakı, Sabunçu r-nu, Ramana qəs., Ə.Məmmədəliyev küç.7, AZ1000",994 55 224 79 97,40.44497745697422,49.94395595582103,Bakı,Bakı,A-Group
Vita Real Maştağa,PHARMACY,"Azərbaycan Respublikası, Bakı, Sabunçu r-nu, Maştağa qəs.,H.Heybətov küç., AZ1000",994 55 444 72 24,40.526169,49.996452,Bakı,Bakı,A-Group
Dokta Bəhmənli,PHARMACY,"Azərbaycan Respublikası, Füzuli, Bəhmənli kəndi, AZ1900",994 50 579 91 06,39.556942,47.56213,Bakı,Bakı,A-Group
Dokta Salyan(xəstəxana),PHARMACY,"Azərbaycan Respublikası, Salyan, Salyan-Neftçala yolu 2-ci km, AZ5200",994 70 603 21 11,39.578779,48.98167,Salyan,Region,A-Group
Dokta Şirvan(20 yanvar),PHARMACY,"Azərbaycan Respublikası, Şirvan, 20 yanvar küç. 26A, AZ1800",994 55 815 99 39,39.95707643927668,48.93829505218298,Şirvan,Region,A-Group
Dokta Sabirabad,PHARMACY,"Azərbaycan Respublikası, Sabirabad, H.Əliyev küç. 62, AZ5400",994 55 873 73 82,40.007407013941446,48.471153576991334,Bakı,Bakı,A-Group
Pharmastore Ağ şəhər,PHARMACY,"Azərbaycan Respublikası, Bakı, Xətai r-nu, Xəqani Rüstəmov küç.B6, AZ1000",994 51 206 08 47,40.38356972622132,49.88047313075571,Bakı,Bakı,A-Group
Pharmastore Abşeron,PHARMACY,"Azərbaycan Respublikası, Abşeron, Xırdalan şəh., H.Əliyev pr.11, AZ0100",994 51 225 16 89,40.446791684014606,49.75093405242407,Absheron,Bakı,A-Group
Pharmastore Tovuz/Qovlar,PHARMACY,"Azərbaycan Respublikası, Tovuz, Qovlar qəs.,Şəhriyar küç.8, AZ6000",994 51 225 16 86,40.94819769717804,45.7366436831356,Tovuz,Region,A-Group
Pharmastore Lerik,PHARMACY,"Azərbaycan Respublikası, Lerik, Nəriman Nərimanov küç.38A, AZ4300",994 51 225 16 85,38.77479054688326,48.417261147529494,Bakı,Bakı,A-Group
Pharmastore İnşaatçılar,PHARMACY,"Azərbaycan Respublikası, Bakı, Yasamal r-nu, İnşaatçılar m.-su,Şərifzadə küç.148K, AZ1000",994 55 975 93 00,40.38917990516545,49.80311005427182,Bakı,Bakı,A-Group
Vita Razin Yeni,PHARMACY,"Azərbaycan Respublikası, Bakı, Sabunçu r-nu, Bakıxanov qəs.,Fətəliyev pr.68, AZ1000",994 55 250 86 57,,,Bakı,Bakı,A-Group
UNİVERSAL PHARMA,PHARMACY,"Azərbaycan Respublikası, Bakı, Yasamal r-nu, İsmayıl bəy Qutqaşınlı küç.50, AZ1000",994 77 333 30 30,40.36954160528233,49.82096569200668,Bakı,Bakı,A-Group
Pharmastore Binəqədi 2,PHARMACY,"Azərbaycan Respublikası, Bakı, Binəqədi r-nu, M.Ə.Rəsulzadə qəs.,Rəşid Məmmədov küç.,giriş 108, AZ1000",994 51 225 16 81,40.413528,49.822111,Bakı,Bakı,A-Group
Pharmastore Şamaxı,PHARMACY,"Azərbaycan Respublikası, Şamaxı, Heydər Əliyev küç.23, AZ5600",994 50 251 78 02,40.63549778741676,48.63926106417606,Şamaxı,Region,A-Group
Darçın Gömrük hospital,PHARMACY,"Azərbaycan Respublikası, Bakı, Yasamal r-nu, Kazım Kazımzadə küç.123, AZ1000",994 99 207 88 06,40.377914,49.818481,Bakı,Bakı,A-Group
Darçın İnşaatçılar,PHARMACY,"Azərbaycan Respublikası, Bakı, Yasamal r-nu, Şərifzadə küç.27A-273E , AZ1000",994 99 207 88 04,40.388622,49.802763,Bakı,Bakı,A-Group
Darçın Qarayev,PHARMACY,"Azərbaycan Respublikası, Bakı, Nizami r-nu, Özbəkistan küç.9, AZ1000",994 99 207 88 01,40.415476,49.927405,Bakı,Bakı,A-Group
Darçın Bakı Sağlamlıq Mərkəzi,PHARMACY,"Azərbaycan Respublikası, Bakı, Nəsimi r-nu, N.Yusifbəyli küç.90A, AZ1000",994 99 207 88 17,40.397963,49.839439,Bakı,Bakı,A-Group
Darçın Xırdalan,PHARMACY,"Azərbaycan Respublikası, Xırdalan şəhəri, Heydər Əliyev pros.,AAAF park1",994 99 207 88 16,40.462206,49.726345,Absheron,Bakı,A-Group
Dokta Lənkəran,PHARMACY,"Azərbaycan Respublikası, Lənkəran, Nizami küç.2, AZ4200",994 51 909 43 52,38.758853,48.839868,Bakı,Bakı,A-Group
Vegas Optika VIP,OPTICS,"Azərbaycan Respublikası, Bakı, Bünyad Sərdarov küç.16, AZ1000",994 12 492 39 39,40.3686396809954,49.8278308925153,Bakı,Bakı,A-Group
Vegas Optika Central,OPTICS,"Azərbaycan Respublikası, Bakı, Rəsul Rza küç.16B, AZ1000",994 12 493 49 12,40.3706110653274,49.8406609857776,Bakı,Bakı,A-Group
Majesty Optika,OPTICS,"Azərbaycan Respublikası, Bakı, Azərbaycan pr.23, AZ1000",994 12 497 15 18,40.37081881434969,49.834091644178976,Bakı,Bakı,A-Group
AVİS Yasamal,OPTICS,"Azərbaycan Respublikası, Bakı, Əbdürrəhimbəy Haqverdiyev küç.11, AZ1000",994 12 497 06 39,40.3804029844041,49.8182893962416,Bakı,Bakı,A-Group
Visus Optika İmperial,OPTICS,"Azərbaycan Respublikası, Bakı, Asif Məhərrəmov küç.51K, AZ1000",994 12 480 10 49,40.4122440650946,49.8043086978739,Bakı,Bakı,A-Group
Visus Optika Azadlıq,OPTICS,"Azərbaycan Respublikası, Bakı, Azadlıq pr.132, AZ1000",994 12 449 79 70,40.40397555814,49.8370067825309,Bakı,Bakı,A-Group
Optic Gallery,OPTICS,"Azərbaycan Respublikası, Bakı, Füzuli küç.300, AZ1000",994 51 291 36 44,40.3767462706032,49.8351523690114,Bakı,Bakı,A-Group
AVİS Nərimanov,OPTICS,"Azərbaycan Respublikası, Bakı, Ağa Nemətulla küç.45, AZ1000",994 12 465 92 40,40.4039541315557,49.8708687826615,Bakı,Bakı,A-Group
AVİS Əhmədli,OPTICS,"Azərbaycan Respublikası, Bakı, Məhəmməd Hadi küç.41, AZ1000",994 12 570 28 53,40.383836229030706,49.95434277090798,Bakı,Bakı,A-Group
Gilas Optic (İnşaatçılar),OPTICS,"Azərbaycan Respublikası, Bakı, Yasamal r-nu, Şərifzadə küç.75A, AZ1000",994 77 489 68 88,40.3847351,49.8007851,Bakı,Bakı,A-Group
Gilas Optic (Montin),OPTICS,"Azərbaycan Respublikası, Bakı, Nərimanov r-nu, Mayakovski küç.11-13, AZ1000",994 77 489 98 20,40.39441876254701,49.875367997120385,Bakı,Bakı,A-Group
Gilas Optic (Əhmədli),OPTICS,"Azərbaycan Respublikası, Bakı, Xətai r-nu, Sarayevo küç.17, AZ1000",994 77 489 00 34,40.38697121165695,49.962250722254716,Bakı,Bakı,A-Group
Gilas Optic (Gənclik),OPTICS,"Azərbaycan Respublikası, Bakı, Nərimanov r-nu, Fətəli Xan Xoyski küç.106, AZ1000",994 77 489 99 04,40.4022141,49.8574105,Bakı,Bakı,A-Group
Gilas Optic ( Elmlər Akademiyası),OPTICS,"Azərbaycan Respublikası, Bakı, Yasamal r-nu, K.Kazımzadə küç.123, AZ1000",994 77 489 09 05,40.3779335,49.8158379,Bakı,Bakı,A-Group
Gilas Optic (Xalqlar dostluğu),OPTICS,"Azərbaycan Respublikası, Bakı, Nizami r-nu, Bəhruz Nuriyev küç.49, AZ1000",994 77 489 09 30,40.4008331,49.9490967,Bakı,Bakı,A-Group
Gilas Optik (Atatürk),OPTICS,"Azərbaycan Respublikası, Bakı, Nərimanov r-nu, Atatürk pr.33, AZ1000",994 77 489 23 63,40.41034125492986,49.84672132780728,Bakı,Bakı,A-Group
Gilas Optic (Xətai),OPTICS,"Azərbaycan Respublikası, Bakı, Xətai r-nu, Süleyman Vəzirov küç. 22, AZ1000",994 77 489 09 01,40.3835526,49.8696404,Bakı,Bakı,A-Group
Gilas Optic (Metropark),OPTICS,"Azərbaycan Respublikası, Bakı, Nərimanov r-nu, Təbriz küç.99M, AZ1000",994 77 489 09 32,40.4040985,49.8704071,Bakı,Bakı,A-Group
Vegas Optika Ağ şəhər,OPTICS,"Azərbaycan Respublikası, Bakı, Ağ Şəhər Xəqani Rüstəmov küç.70 A, AZ1000",994 12 526 20 67,40.384061,49.880273,Bakı,Bakı,A-Group
Vegas Optika VIP (Aeterna Pharma),OPTICS,"Azərbaycan Respublikası, Bakı, Bünyad Sərdarov küç.16, AZ1000",994 12 492 39 39,40.3686396809954,49.8278308925153,Bakı,Bakı,A-Group
Visus (Aeterna Pharma),OPTICS,"Azərbaycan Respublikası, Bakı, Bünyad Sərdarov küç.16, AZ1000",994 12 492 39 39,40.3686396809954,49.8278308925153,Bakı,Bakı,A-Group
Gilas Optik (Celamig),OPTICS,"Azərbaycan Respublikası, Bakı, Nəsimi r-nu, Süleyman Rəhimov küç.126/64, AZ1000",994 77 489 23 01,40.37809579664194,49.837139228666466,Bakı,Bakı,A-Group
Gilas Optik (Keşlə),OPTICS,"Azərbaycan Respublikası, Bakı, Nizami r-nu, Keşlə qəs.,Yavər Səfərov küç.22, AZ1000",994 77 489 99 02,40.39388488571698,49.918897006177744,Bakı,Bakı,A-Group
32 Gözəl,DENTAL,"Azərbaycan Respublikası, Bakı, Azərbaycan pr.14, AZ1000",994 12 596 73 13,40.3714594681136,49.8335740143823,Bakı,Bakı,A-Group
AQS Dental Center,DENTAL,"Azərbaycan Respublikası, Sumqayıt, 13-cü mkr.,Babək pr.241, AZ5000",994 18 648 51 41,40.5672644295095,49.6952495271223,Sumqayıt,Region,A-Group
32 Beauty,DENTAL,"Azərbaycan Respublikası, Bakı, Məmməd Araz küç.63, AZ1000",994 12 561 32 80,40.4069386317702,49.8449468387325,Bakı,Bakı,A-Group
“Dental Studio” Firması,DENTAL,"Azərbaycan Respublikası, Bakı, Nəsimi r-nu, Mehbalı Zeynalabdiyev küç.6",994 12 598 28 87,40.3798059218529,49.8561749329973,Bakı,Bakı,A-Group
İmplant Dental,DENTAL,"Azərbaycan Respublikası, Sumqayıt, 6-cı mkr.,Cəlil Məmmədquluzadə küç.77B, AZ5000",994 12 408 21 96,40.58025502686704,49.686044984656824,Sumqayıt,Region,A-Group
Müasir Stomatologiya,DENTAL,"Azərbaycan Respublikası, Sumqayıt, 3-cü məhəllə,Nizami küç. 23/14, AZ5000",994 18 655 48 98,40.5943912757517,49.6696021728493,Bakı,Bakı,A-Group
Dental (Şirvan),DENTAL,"Azərbaycan Respublikası, Şirvan, Xaqani küç.2A, AZ1800",994 21 215 00 30,39.9611910780652,48.9431932327174,Şirvan,Region,A-Group
MediClub Dental,DENTAL,"Azərbaycan Respublikası, Bakı, Mətbuat pr.2, AZ1000",994 12 497 11 41,40.3586596275962,49.8232169800892,Bakı,Bakı,A-Group
Sağlam Diş Klinikası,DENTAL,"Azərbaycan Respublikası, Bakı, Əlif Hacıyev küç.15, AZ1000",994 12 520 31 51,40.4153344721498,49.9326149914379,Bakı,Bakı,A-Group
Stomadent,DENTAL,"Azərbaycan Respublikası, Gəncə, Həsən Əliyev küç. 254/42, AZ2000",994 50 337 66 60,40.6782494134391,46.3567463255013,Gəncə,Region,A-Group
Sağlam Diş Klinikası 2,DENTAL,"Azərbaycan Respublikası, Bakı, Bakıxanov qəs.,Sakit Qocayev küç.39 A, AZ1000",994 12 429 42 24,40.4168585,49.9644243,Bakı,Bakı,A-Group
Grand River,DENTAL,"Azərbaycan Respublikası, Mingəçevir, Heydər Əliyev pr.21, AZ4500",994 70 580 84 84,40.7735247530141,47.0457432211598,Mingəçevir,Region,A-Group
Sağlam Diş Klinikası 3,DENTAL,"Azərbaycan Respublikası, Bakı, Tbilisi pr.49B, AZ1000",994 12 525 00 51,40.3947233,49.8147701,Bakı,Bakı,A-Group
Dövlət Təhlükəsizlik Xidmətinin Hospitalı,CLINIC,"Azərbaycan Respublikası, Bakı, Badamdar qəsəbəsi,Məktəbli küç.1, AZ1000",994 12 405 79 11,40.3387937932481,49.803253260265194,Bakı,Bakı,A-Group
Assmed,CLINIC,"Azərbaycan Respublikası, Bakı, Qaradağ r-nu, Lökbatan qəs.,Dadaş Bünyadzadə küç.3A, AZ1000",994 12 445 17 17,40.32040127902922,49.73239062670682,Bakı,Bakı,A-Group
Audiomed Eşitmə Mərkəzi,CLINIC,"Azərbaycan Respublikası, Bakı, Xan Şuşinski küç.73,İnqilab küçəsi ilə kəsişmə , AZ1000",994 55 327 57 50,40.39987771089565,49.83531992500204,Bakı,Bakı,A-Group
ATU Tədris Terapevtik klinikasi,CLINIC,"Azərbaycan Respublikası, Bakı, Mərdanov qardaşları küç.100, AZ1000",994 12 441 33 18,40.396773943387394,49.83169854142747,Bakı,Bakı,A-Group
Caspian Hospital,CLINIC,"Azərbaycan Respublikası, Bakı, Badamdar şossesi 31, AZ1000",994 12 502 50 15,40.343251083642905,49.810165264482876,Bakı,Bakı,A-Group
Celamig Oftalmoloji Klinikası,CLINIC,"Azərbaycan Respublikası, Bakı, Nəsimi r-nu, Süleyman Rəhimov küç. 126, AZ1000",994 12 537 11 01,40.3783488253587,49.8378236588824,Bakı,Bakı,A-Group
Dialab klinika,CLINIC,"Azərbaycan Respublikası, Bakı, Istiqlaliyyət küç.31, AZ1000",994 12 492 20 56,40.36568485198131,49.83050131356653,Bakı,Bakı,A-Group
Vidadi Klinikası,CLINIC,"Azərbaycan Respublikası, Bakı, Vorobski qəs.,Şövkət Məmmədova küç.4C, AZ1000",994 12 563 53 07,40.42087311349817,49.846497915343186,Bakı,Bakı,A-Group
Əhmədli Tibb Mərkəzi (EskulapMed),CLINIC,"Azərbaycan Respublikası, Bakı, R.Quliyev küç.65, AZ1000",994 12 471 48 41,40.3729283210337,49.94049818008492,Bakı,Bakı,A-Group
EuroMed Tibb Mərkəzi,CLINIC,"Azərbaycan Respublikası, Bakı, Cavadxan küç.17А, AZ1000",994 12 431 95 98,40.41210901015543,49.81460732329853,Bakı,Bakı,A-Group
İnam Tibb Mərkəzi,CLINIC,"Azərbaycan Respublikası, Bakı, Dilarə Əliyeva küç.175, AZ1000",994 12 566 98 77,40.3757734085903,49.8390016041986,Bakı,Bakı,A-Group
Yeni Gəncə Tibb Mərkəzi,CLINIC,"Azərbaycan Respublikası, Gəncə, 28 may küç. , AZ2000",994 22 254 07 00,40.68525710016973,46.33171202857606,Gəncə,Region,A-Group
Liman Klinikası,CLINIC,"Azərbaycan Respublikası, Sumqayıt, Səməd Vurğun küç.35, AZ5000",994 12 585 14 21,40.580480075247934,49.68987321780956,Sumqayıt,Region,A-Group
Mərkəzi Klinik Xəstaxana,CLINIC,"Azərbaycan Respublikası, Bakı, Parlament pr.76 , AZ1000",994 12 437 63 91,40.361441226156224,49.82482127611631,Bakı,Bakı,A-Group
Medservis,CLINIC,"Azərbaycan Respublikası, Bakı, Cəlil Məmmədquluzadə küç.3, AZ1000",994 12 596 68 44,40.37908177301388,49.83324243415053,Bakı,Bakı,A-Group
MediClub MMM,CLINIC,"Azərbaycan Respublikası, Bakı, Səbail r-nu, Üzeyir Hacıbəyli küç.119, AZ1000",994 12 497 09 11,40.3760681236773,49.856040386159556,Bakı,Bakı,A-Group
MediClub Gürcüstan,CLINIC,"Gürcüstan, Tbilisi ş.,Taşkent küç.22",,41.728552259543214,44.763458015343176,Bakı,Bakı,A-Group
Medistyle Hospital,CLINIC,"Azərbaycan Respublikası, Bakı, Əhməd Rəcəbli küç.18, AZ1000",994 12 465 73 79,40.40701990518998,49.863225545747724,Bakı,Bakı,A-Group
OKİ Hospital,CLINIC,"Azərbaycan Respublikası, Qusar, Fəxrəddin Musayev küç.27, AZ3800",994 23 385 29 15,41.42577863187099,48.43068533413042,Qusar,Region,A-Group
Oksigen Klinik Xəstəxanası,CLINIC,"Azərbaycan Respublikası, Bakı, Təbriz küç.189, AZ1000",994 12 465 00 23,40.40364721432091,49.87000594700577,Bakı,Bakı,A-Group
SAF hospital,CLINIC,"Azərbaycan Respublikası, Bakı, Yusif Vəzir Çəmənzəmənli küç.18, AZ1000",994 12 440 51 11,40.401810288517744,49.833352130332955,Bakı,Bakı,A-Group
Baku Medical Plaza,CLINIC,"Azərbaycan Respublikası, Bakı, Xətai r-nu, Babək pr.92, AZ1142",994 12 404 41 90,40.39435107374275,49.96457346867894,Bakı,Bakı,A-Group
Real Tibb Mərkəzi,CLINIC,"Azərbaycan Respublikası, Sumqayıt, 45-ci məhəllə, AZ5000",994 12 447 04 28,40.580475818944095,49.68104758347839,Sumqayıt,Region,A-Group
Milli İdman Tibb və Reabilitasiya Elmi-Praktiki İnstitutu,CLINIC,"Azərbaycan Respublikası, Bakı, Nərimanov r-nu, Olimpiya küç. 4A, AZ1000",994 12 525 83 09,40.398933722025774,49.85546771990948,Bakı,Bakı,A-Group
Respublika Diaqnostika Mərkəzi,CLINIC,"Azərbaycan Respublikası, Bakı, Tbilisi pr.47, AZ1000",994 12 530 07 53,40.39979150227317,49.810396180866,Bakı,Bakı,A-Group
Sağlam Ailə Klinikası,CLINIC,"Azərbaycan Respublikası, Bakı, Əhməd Rəcəbli küç.3, AZ1000",994 12 910,40.4094562209261,49.86202519027365,Bakı,Bakı,A-Group
Şəfa Tibbi Diaqnostika Mərkəzi,CLINIC,"Azərbaycan Respublikası, Mingəçevir, Xan Şuşinski küç.2A, AZ4500",994 24 275 35 58,40.75939925915707,47.054668627126645,Mingəçevir,Region,A-Group
Ömürdən Pay klinikası,CLINIC,"Azərbaycan Respublikası, Bərdə, Nəriman Nərimanov küç.2, AZ0900",994 20 205 31 00,40.3739433064356,47.1214125700385,Bakı,Bakı,A-Group
Türk-Amerika Tibb Mərkəzi,CLINIC,"Azərbaycan Respublikası, Bakı, Yusif Vəzir Çəmənzəminli küç.18., AZ1000",994 12 541 58 45,40.40197584944894,49.83438902711888,Bakı,Bakı,A-Group
Uni Klinika,CLINIC,"Azərbaycan Respublikası, Bakı, Kazım Kazımzadə küç.99, AZ1000",994 12 510 80 60,40.376867690678324,49.81829128933208,Bakı,Bakı,A-Group
Avrasiya klinikası,CLINIC,"Azərbaycan Respublikası, Bakı, Binəqədi r-nu, Azadlıq pr.189, AZ1000",994 12 563 00 25,40.42460389405887,49.83760765020075,Bakı,Bakı,A-Group
Xüsusi Müalicə Sağlamlıq Kompleksi,CLINIC,"Azərbaycan Respublikası, Bakı, Badamdar şossesi 31, AZ1000",994 12 498 85 07,40.35317714582818,49.80936425820475,Bakı,Bakı,A-Group
Medican Hospital,CLINIC,"Azərbaycan Respublikası, Lənkəran, 20 Yanvar küç.71, AZ4200",994 25 255 02 98,38.75477054898792,48.83749752419758,Lənkəran,Region,A-Group
Azərbaycan Respublikası Dövlət Gömrük Komitəsi Tibbi Xidmət İdarəsinin Mərkəzi Hospitalı,CLINIC,"Azərbaycan Respublikası, Bakı, Yasamal r-nu, Kazım Kazımzadə küç.118, AZ1000",994 12 539 78 04,40.378194352337566,49.81880619828199,Bakı,Bakı,A-Group
Spero Hospital,CLINIC,"Azərbaycan Respublikası, Bakı, Nəsimi r-nu, 20 Yanvar küç.1 B, AZ1000",994 12 430 43 03,40.411583358451345,49.80378472022895,Bakı,Bakı,A-Group
Astoriya Tibb Mərkəzi (German Medical Center) (ancaq doğuş yardımı),CLINIC,"Azərbaycan Respublikası, Bakı, İsmayılbəy Qutqaşınlı küç.50, AZ1000",994 12 538 66 60,40.3696494599048,49.8212431712285,Bakı,Bakı,A-Group
Şəfa Özəl Tibb Mərkəzi,CLINIC,"Azərbaycan Respublikası, Naxçıvan, Cəlil Məmmədquluzadə küç.13, AZ7000",994 36 545 64 32,39.2010767969337,45.4115281110769,Naxçıvan,Region,A-Group
Gəncə Beynəlxalq Xəstəxanası,CLINIC,"Azərbaycan Respublikası, Gəncə, Heydər Əliyev pr. 60D/E/F, AZ2000",994 22 255 38 38,40.6948521021965,46.3665090837076,Gəncə,Region,A-Group
Medisan Tibb Mərkəzi,CLINIC,"Azərbaycan Respublikası, İmişli, Heydər Əliyev pr.131, AZ3000",994 21 246 10 70,39.8696032994925,48.0599886978573,İmişli,Region,A-Group
Regional Hospital,CLINIC,"Azərbaycan Respublikası, Mingəçevir, Dilarə Əliyeva küç.2 C, AZ4500",994 70 328 77 71,40.7752494213295,47.0482523784252,Mingəçevir,Region,A-Group
LabMed Tibb Mərkəzi,CLINIC,"Azərbaycan Respublikası, Qazax, Heydər Əliyev küç.134 , AZ3500",994 50 385 17 37,41.0935537211826,45.3692075357829,Qazax,Region,A-Group
MediClub Kids,CLINIC,"Azərbaycan Respublikası, Bakı, Izzət Nəbiyev küç.30A, AZ1000",994 12 525 09 19,40.3589253516272,49.822939348489925,Bakı,Bakı,A-Group
MediClub hospital,CLINIC,"Azərbaycan Respublikası, Bakı, Yasamal r-nu, Əlövsət Quliyev küç.73, AZ1000",994 12 493 51 52,40.37351761969728,49.83448431388822,Bakı,Bakı,A-Group
Alyans Klinika,CLINIC,"Azərbaycan Respublikası, Şəki, Mirzə Fətəli Axundov küç.351A, AZ5500",994 55 925 55 11,41.19790738200594,47.1786367914407,Şəki,Region,A-Group
Bioloji Təbabət Klinikası (Göyçay),CLINIC,"Azərbaycan Respublikası, Göyçay, M. Muradov küç,12, AZ2300",994 50 246 14 11,40.65267127653047,47.74018865403999,Göyçay,Region,A-Group
Bioloji Təbabət klinikası (Masallı),CLINIC,"Azərbaycan Respublikası, Masallı, Elşad Hüseynov küç., AZ4400",994 55 532 89 88,39.022252352477715,48.680223701847716,Masallı,Region,A-Group
Sağlam Həyat Tibb Mərkəzi,CLINIC,"Azərbaycan Respublikası, Qəbələ, Həzi Aslanov küç.86, AZ3600",994 70 633 03 60,40.97655224733721,47.85340802113553,Qəbələ,Region,A-Group
Naxçıvan Diaqnostika Müalicə Məkəzı,CLINIC,"Azərbaycan Respublikası, Naxçıvan, Əziz Əliyev küç.66, AZ7000",994 70 656 78 25,39.21669215647405,45.420613334929804,Naxçıvan,Region,A-Group
Vita Med Tibb Mərkəzi,CLINIC,"Azərbaycan Respublikası, Biləsuvar, Mübariz İbrahimov küç.224B, AZ1300",994 51 795 00 08,39.45588825006662,48.54364630497959,Biləsuvar,Region,A-Group
Mərkəzi Klinika Ambulatoriya,CLINIC,"Azərbaycan Respublikası, Bakı, Zərifə Əliyeva küç.5 , AZ1000",994 12 437 63 91,40.368730016714984,49.839212688284356,Bakı,Bakı,A-Group
Mərkəzi Klinika Gəncə,CLINIC,"Azərbaycan Respublikası, Gəncə, Totanlı küç.17, AZ2000",994 22 264 09 09,40.65940561809371,46.33867746945165,Gəncə,Region,A-Group
Sumqayıt Hospital,CLINIC,"Azərbaycan Respublikası, Sumqayıt, 12-ci mkr.,Çerkassi küç.181, AZ5000",994 18 656 82 55,40.5630743556776,49.68480066115032,Sumqayıt,Region,A-Group
LabStyle Hospital,CLINIC,"Azərbaycan Respublikası, Zaqatala, Molla Vəli Vidadi küç.34, AZ6200",994 50 385 17 37,41.62855300714787,46.64032026112237,Zaqatala,Region,A-Group
Bonum Medical Klinika,CLINIC,"Azərbaycan Respublikası, Şəki, Zərifə Əliyeva küç.90, AZ5500",994 50 663 00 88,41.15705898760602,47.1786562048345,Şəki,Region,A-Group
Referans Qəbələ Tibb Mərkəzi,CLINIC,"Azərbaycan Respublikası, Qəbələ, Abbas Səhhət küç.25A, AZ3600",994 77 760 00 33,40.967117961692665,47.843301401421115,Qəbələ,Region,A-Group
Şirvan Oil Tibb Məntəqəsi,CLINIC,"Azərbaycan Respublikası, Şirvan, Gülbala-Şıxbala küç.74, AZ1800",994 55 640 41 48,39.938632969286196,48.92664797806881,Şirvan,Region,A-Group
Medical Center Tibb Mərkəzi,CLINIC,"Azərbaycan Respublikası, Tovuz, Mirzə Ələkbər Sabir küç.13, AZ6000",994 22 315 66 97,40.987720766605385,45.606466359536235,Tovuz,Region,A-Group
Bakı Sağlamlıq Mərkəzi,CLINIC,"Azərbaycan Respublikası, Bakı, Azadlıq pr.112, AZ1000",994 12 440 94 53,40.3985239695302,49.839154848506496,Bakı,Bakı,A-Group
Tovuz Medical Center,CLINIC,"Azərbaycan Respublikası, Tovuz, M. Ə. Sabir küç, 13, AZ6000",994 22 315 66 97,40.987767,45.606495,Tovuz,Region,A-Group
Nəbz Tibb Mərkəzi,CLINIC,"Azərbaycan Respublikası, Bakı, Qara Qarayev pr.31A, AZ1000",994 12 421 31 20,40.417687,49.935967,Bakı,Bakı,A-Group
Referans Mərdəkan hospital,CLINIC,"Azərbaycan Respublikası, Bakı, Xəzər r-nu, Mərdəkan qəs.,Yesenin küç.92/1 və 92/2, AZ1000",994 12 310 00 22,40.487736,50.154125,Bakı,Bakı,A-Group
Müasir Diaqnostika Mərkəzi,CLINIC,"Azərbaycan Respublikası, Bakı, Rəşid Behbudov küç.128, AZ1000",994 12 910,40.38270959174409,49.84333185767159,Bakı,Bakı,A-Group
Kəpəz Hospital,CLINIC,"Azərbaycan Respublikası, Bakı, Nəsimi r-nu, Cəlil Məmmədquluzadə küç.101A, AZ1000",994 12 449 67 57,40.39817449645351,49.82665722945568,Bakı,Bakı,A-Group
Xəzər klinikası,CLINIC,"Azərbaycan Respublikası, Bakı, Qara Qarayev küç.69, AZ1000",994 12 422 03 10,40.408136833926875,49.946128696925776,Bakı,Bakı,A-Group
Aran klinikası,CLINIC,"Azərbaycan Respublikası, Salyan, Taleh Davudzadə küç.123, AZ5200",994 70 367 00 52,39.596859,48.985989,Salyan,Region,A-Group
Məlhəm Beynəlxalq Hospital,CLINIC,"Azərbaycan Respublikası, Bakı, Nizami r-nu, Cəmşid Naxçıvanskı küç.433, AZ1000",994 51 201 71 29,40.4077731439643,49.95480598835794,Bakı,Bakı,A-Group
MedSun klinika,CLINIC,"Azərbaycan Respublikası, Şamaxı, Azərbaycan küç.15, AZ5600",994 10 336 01 01,40.63703673685205,48.64226585109967,Şamaxı,Region,A-Group
Modern Hospital,CLINIC,"Azərbaycan Respublikası, Bakı, Nizami r-nu, Babək pr.,2389-cu məhəllə , AZ1000",994 12 570 20 20,40.395445144114326,49.946984940560164,Bakı,Bakı,A-Group
Referans Xırdalan Tibb Mərkəzi,CLINIC,"Azərbaycan Respublikası, Xırdalan şəhəri, H.Əliyev pr.167 AAAF Park",994 70 316 00 33,40.460388,49.725185,Absheron,Bakı,A-Group
Referans NaxçıvanTibb Mərkəzi,CLINIC,"Azərbaycan Respublikası, Naxçıvan, 11-ci məhəllə, AZ7000",994 60 600 00 33,39.202957,45.428959,Naxçıvan,Region,A-Group
Turan Tibb Mərkəzi (Referans Tovuz),CLINIC,"Azərbaycan Respublikası, Tovuz, Şəhriyar küç., AZ6000",994 70 359 00 33,40.992882,45.615613,Tovuz,Region,A-Group
Sağlam Nəfəs Müalicə və Reabilitasiya Mərkəzi,CLINIC,"Azərbaycan Respublikası, Gəncə, Mahrasa Bağı,Dədə Yediyar küç.170, AZ2000",994 55 860 01 03,40.675889,46.340697,Gəncə,Region,A-Group
